"pincode","city","canton","canton_code","country","country_code"
1000,"Lausanne","Waadt","VD","Schweiz","CH"
1003,"Lausanne","Waadt","VD","Schweiz","CH"
1004,"Lausanne","Waadt","VD","Schweiz","CH"
1005,"Lausanne","Waadt","VD","Schweiz","CH"
1006,"Lausanne","Waadt","VD","Schweiz","CH"
1007,"Lausanne","Waadt","VD","Schweiz","CH"
1008,"Jouxtens-Mézery","Waadt","VD","Schweiz","CH"
1008,"Prilly","Waadt","VD","Schweiz","CH"
1009,"Pully","Waadt","VD","Schweiz","CH"
1010,"Lausanne","Waadt","VD","Schweiz","CH"
1011,"Lausanne","Waadt","VD","Schweiz","CH"
1012,"Lausanne","Waadt","VD","Schweiz","CH"
1015,"Lausanne","Waadt","VD","Schweiz","CH"
1018,"Lausanne","Waadt","VD","Schweiz","CH"
1020,"Renens VD","Waadt","VD","Schweiz","CH"
1022,"Chavannes-près-Renens","Waadt","VD","Schweiz","CH"
1023,"Crissier","Waadt","VD","Schweiz","CH"
1024,"Ecublens VD","Waadt","VD","Schweiz","CH"
1025,"St-Sulpice VD","Waadt","VD","Schweiz","CH"
1026,"Denges","Waadt","VD","Schweiz","CH"
1026,"Echandens","Waadt","VD","Schweiz","CH"
1027,"Lonay","Waadt","VD","Schweiz","CH"
1028,"Préverenges","Waadt","VD","Schweiz","CH"
1029,"Villars-Ste-Croix","Waadt","VD","Schweiz","CH"
1030,"Bussigny-près-Lausanne","Waadt","VD","Schweiz","CH"
1031,"Mex VD","Waadt","VD","Schweiz","CH"
1032,"Romanel-sur-Lausanne","Waadt","VD","Schweiz","CH"
1033,"Cheseaux-sur-Lausanne","Waadt","VD","Schweiz","CH"
1034,"Boussens","Waadt","VD","Schweiz","CH"
1035,"Bournens","Waadt","VD","Schweiz","CH"
1036,"Sullens","Waadt","VD","Schweiz","CH"
1037,"Etagnières","Waadt","VD","Schweiz","CH"
1038,"Bercher","Waadt","VD","Schweiz","CH"
1040,"St-Barthélemy VD","Waadt","VD","Schweiz","CH"
1040,"Villars-le-Terroir","Waadt","VD","Schweiz","CH"
1040,"Echallens","Waadt","VD","Schweiz","CH"
1041,"Dommartin","Waadt","VD","Schweiz","CH"
1041,"Poliez-Pittet","Waadt","VD","Schweiz","CH"
1041,"Bottens","Waadt","VD","Schweiz","CH"
1041,"Naz","Waadt","VD","Schweiz","CH"
1041,"Montaubion-Chardonney","Waadt","VD","Schweiz","CH"
1041,"Poliez-le-Grand","Waadt","VD","Schweiz","CH"
1042,"Bettens","Waadt","VD","Schweiz","CH"
1042,"Bioley-Orjulaz","Waadt","VD","Schweiz","CH"
1042,"Assens","Waadt","VD","Schweiz","CH"
1043,"Sugnens","Waadt","VD","Schweiz","CH"
1044,"Fey","Waadt","VD","Schweiz","CH"
1045,"Ogens","Waadt","VD","Schweiz","CH"
1046,"Rueyres","Waadt","VD","Schweiz","CH"
1047,"Oppens","Waadt","VD","Schweiz","CH"
1052,"Le Mont-sur-Lausanne","Waadt","VD","Schweiz","CH"
1053,"Bretigny-sur-Morrens","Waadt","VD","Schweiz","CH"
1053,"Cugy VD","Waadt","VD","Schweiz","CH"
1054,"Morrens VD","Waadt","VD","Schweiz","CH"
1055,"Froideville","Waadt","VD","Schweiz","CH"
1058,"Villars-Tiercelin","Waadt","VD","Schweiz","CH"
1059,"Peney-le-Jorat","Waadt","VD","Schweiz","CH"
1061,"Villars-Mendraz","Waadt","VD","Schweiz","CH"
1062,"Sottens","Waadt","VD","Schweiz","CH"
1063,"Peyres-Possens","Waadt","VD","Schweiz","CH"
1063,"Boulens","Waadt","VD","Schweiz","CH"
1063,"Chapelle-sur-Moudon","Waadt","VD","Schweiz","CH"
1063,"Martherenges","Waadt","VD","Schweiz","CH"
1066,"Epalinges","Waadt","VD","Schweiz","CH"
1068,"Les Monts-de-Pully","Waadt","VD","Schweiz","CH"
1070,"Puidoux","Waadt","VD","Schweiz","CH"
1071,"Rivaz","Waadt","VD","Schweiz","CH"
1071,"St-Saphorin (Lavaux)","Waadt","VD","Schweiz","CH"
1071,"Chexbres","Waadt","VD","Schweiz","CH"
1072,"Forel (Lavaux)","Waadt","VD","Schweiz","CH"
1073,"Mollie-Margot","Waadt","VD","Schweiz","CH"
1073,"Savigny","Waadt","VD","Schweiz","CH"
1076,"Ferlens VD","Waadt","VD","Schweiz","CH"
1077,"Servion","Waadt","VD","Schweiz","CH"
1078,"Essertes","Waadt","VD","Schweiz","CH"
1080,"Les Cullayes","Waadt","VD","Schweiz","CH"
1081,"Montpreveyres","Waadt","VD","Schweiz","CH"
1082,"Corcelles-le-Jorat","Waadt","VD","Schweiz","CH"
1083,"Mézières VD","Waadt","VD","Schweiz","CH"
1084,"Carrouge VD","Waadt","VD","Schweiz","CH"
1085,"Vulliens","Waadt","VD","Schweiz","CH"
1088,"Ropraz","Waadt","VD","Schweiz","CH"
1090,"La Croix (Lutry)","Waadt","VD","Schweiz","CH"
1091,"Aran","Waadt","VD","Schweiz","CH"
1091,"Chenaux","Waadt","VD","Schweiz","CH"
1091,"Grandvaux","Waadt","VD","Schweiz","CH"
1092,"Belmont-sur-Lausanne","Waadt","VD","Schweiz","CH"
1093,"La Conversion","Waadt","VD","Schweiz","CH"
1094,"Paudex","Waadt","VD","Schweiz","CH"
1095,"Lutry","Waadt","VD","Schweiz","CH"
1096,"Villette (Lavaux)","Waadt","VD","Schweiz","CH"
1096,"Cully","Waadt","VD","Schweiz","CH"
1097,"Riex","Waadt","VD","Schweiz","CH"
1098,"Epesses","Waadt","VD","Schweiz","CH"
1110,"Morges","Waadt","VD","Schweiz","CH"
1112,"Echichens","Waadt","VD","Schweiz","CH"
1113,"St-Saphorin-sur-Morges","Waadt","VD","Schweiz","CH"
1114,"Colombier VD","Waadt","VD","Schweiz","CH"
1115,"Vullierens","Waadt","VD","Schweiz","CH"
1116,"Cottens VD","Waadt","VD","Schweiz","CH"
1117,"Grancy","Waadt","VD","Schweiz","CH"
1121,"Bremblens","Waadt","VD","Schweiz","CH"
1122,"Romanel-sur-Morges","Waadt","VD","Schweiz","CH"
1123,"Aclens","Waadt","VD","Schweiz","CH"
1124,"Gollion","Waadt","VD","Schweiz","CH"
1125,"Monnaz","Waadt","VD","Schweiz","CH"
1126,"Vaux-sur-Morges","Waadt","VD","Schweiz","CH"
1127,"Clarmont","Waadt","VD","Schweiz","CH"
1128,"Reverolle","Waadt","VD","Schweiz","CH"
1131,"Tolochenaz","Waadt","VD","Schweiz","CH"
1132,"Lully VD","Waadt","VD","Schweiz","CH"
1134,"Vufflens-le-Château","Waadt","VD","Schweiz","CH"
1134,"Chigny","Waadt","VD","Schweiz","CH"
1135,"Denens","Waadt","VD","Schweiz","CH"
1136,"Bussy-Chardonney","Waadt","VD","Schweiz","CH"
1141,"Sévery","Waadt","VD","Schweiz","CH"
1142,"Pampigny","Waadt","VD","Schweiz","CH"
1143,"Apples","Waadt","VD","Schweiz","CH"
1144,"Ballens","Waadt","VD","Schweiz","CH"
1145,"Bière","Waadt","VD","Schweiz","CH"
1146,"Mollens VD","Waadt","VD","Schweiz","CH"
1147,"Montricher","Waadt","VD","Schweiz","CH"
1148,"Cuarnens","Waadt","VD","Schweiz","CH"
1148,"Moiry VD","Waadt","VD","Schweiz","CH"
1148,"La Praz","Waadt","VD","Schweiz","CH"
1148,"Mont-la-Ville","Waadt","VD","Schweiz","CH"
1148,"Chavannes-le-Veyron","Waadt","VD","Schweiz","CH"
1148,"Mauraz","Waadt","VD","Schweiz","CH"
1148,"Villars-Bozon","Waadt","VD","Schweiz","CH"
1148,"La Coudre","Waadt","VD","Schweiz","CH"
1148,"L'Isle","Waadt","VD","Schweiz","CH"
1149,"Berolle","Waadt","VD","Schweiz","CH"
1162,"St-Prex","Waadt","VD","Schweiz","CH"
1163,"Etoy","Waadt","VD","Schweiz","CH"
1164,"Buchillon","Waadt","VD","Schweiz","CH"
1165,"Allaman","Waadt","VD","Schweiz","CH"
1166,"Perroy","Waadt","VD","Schweiz","CH"
1167,"Lussy-sur-Morges","Waadt","VD","Schweiz","CH"
1168,"Villars-sous-Yens","Waadt","VD","Schweiz","CH"
1169,"Yens","Waadt","VD","Schweiz","CH"
1170,"Aubonne","Waadt","VD","Schweiz","CH"
1172,"Bougy-Villars","Waadt","VD","Schweiz","CH"
1173,"Féchy","Waadt","VD","Schweiz","CH"
1174,"Montherod","Waadt","VD","Schweiz","CH"
1174,"Pizy","Waadt","VD","Schweiz","CH"
1175,"Lavigny","Waadt","VD","Schweiz","CH"
1176,"St-Livres","Waadt","VD","Schweiz","CH"
1180,"Tartegnin","Waadt","VD","Schweiz","CH"
1180,"Rolle","Waadt","VD","Schweiz","CH"
1182,"Gilly","Waadt","VD","Schweiz","CH"
1183,"Bursins","Waadt","VD","Schweiz","CH"
1184,"Vinzel","Waadt","VD","Schweiz","CH"
1184,"Luins","Waadt","VD","Schweiz","CH"
1185,"Mont-sur-Rolle","Waadt","VD","Schweiz","CH"
1186,"Essertines-sur-Rolle","Waadt","VD","Schweiz","CH"
1187,"St-Oyens","Waadt","VD","Schweiz","CH"
1188,"Gimel","Waadt","VD","Schweiz","CH"
1188,"St-George","Waadt","VD","Schweiz","CH"
1189,"Saubraz","Waadt","VD","Schweiz","CH"
1195,"Dully","Waadt","VD","Schweiz","CH"
1195,"Bursinel","Waadt","VD","Schweiz","CH"
1196,"Gland","Waadt","VD","Schweiz","CH"
1197,"Prangins","Waadt","VD","Schweiz","CH"
1200,"Genève","Genf","GE","Schweiz","CH"
1201,"Genève","Genf","GE","Schweiz","CH"
1202,"Genève","Genf","GE","Schweiz","CH"
1203,"Genève","Genf","GE","Schweiz","CH"
1204,"Genève","Genf","GE","Schweiz","CH"
1205,"Genève","Genf","GE","Schweiz","CH"
1206,"Genève","Genf","GE","Schweiz","CH"
1207,"Genève","Genf","GE","Schweiz","CH"
1208,"Genève","Genf","GE","Schweiz","CH"
1209,"Genève","Genf","GE","Schweiz","CH"
1212,"Grand-Lancy","Genf","GE","Schweiz","CH"
1213,"Petit-Lancy","Genf","GE","Schweiz","CH"
1213,"Onex","Genf","GE","Schweiz","CH"
1214,"Vernier","Genf","GE","Schweiz","CH"
1215,"Genève 15 Aéroport","Genf","GE","Schweiz","CH"
1216,"Cointrin","Genf","GE","Schweiz","CH"
1217,"Meyrin","Genf","GE","Schweiz","CH"
1218,"Le Grand-Saconnex","Genf","GE","Schweiz","CH"
1219,"Le Lignon","Genf","GE","Schweiz","CH"
1219,"Aïre","Genf","GE","Schweiz","CH"
1219,"Châtelaine","Genf","GE","Schweiz","CH"
1220,"Les Avanchets","Genf","GE","Schweiz","CH"
1222,"Vésenaz","Genf","GE","Schweiz","CH"
1223,"Cologny","Genf","GE","Schweiz","CH"
1224,"Chêne-Bougeries","Genf","GE","Schweiz","CH"
1225,"Chêne-Bourg","Genf","GE","Schweiz","CH"
1226,"Thônex","Genf","GE","Schweiz","CH"
1227,"Les Acacias","Genf","GE","Schweiz","CH"
1227,"Carouge GE","Genf","GE","Schweiz","CH"
1228,"Plan-les-Ouates","Genf","GE","Schweiz","CH"
1231,"Conches","Genf","GE","Schweiz","CH"
1232,"Confignon","Genf","GE","Schweiz","CH"
1233,"Bernex","Genf","GE","Schweiz","CH"
1234,"Vessy","Genf","GE","Schweiz","CH"
1236,"Cartigny","Genf","GE","Schweiz","CH"
1237,"Avully","Genf","GE","Schweiz","CH"
1239,"Collex","Genf","GE","Schweiz","CH"
1241,"Puplinge","Genf","GE","Schweiz","CH"
1242,"Satigny","Genf","GE","Schweiz","CH"
1243,"Presinge","Genf","GE","Schweiz","CH"
1244,"Choulex","Genf","GE","Schweiz","CH"
1245,"Collonge-Bellerive","Genf","GE","Schweiz","CH"
1246,"Corsier GE","Genf","GE","Schweiz","CH"
1247,"Anières","Genf","GE","Schweiz","CH"
1248,"Hermance","Genf","GE","Schweiz","CH"
1251,"Gy","Genf","GE","Schweiz","CH"
1252,"Meinier","Genf","GE","Schweiz","CH"
1253,"Vandoeuvres","Genf","GE","Schweiz","CH"
1254,"Jussy","Genf","GE","Schweiz","CH"
1255,"Veyrier","Genf","GE","Schweiz","CH"
1256,"Troinex","Genf","GE","Schweiz","CH"
1257,"La Croix-de-Rozon","Genf","GE","Schweiz","CH"
1258,"Perly","Genf","GE","Schweiz","CH"
1260,"Nyon","Waadt","VD","Schweiz","CH"
1261,"Longirod","Waadt","VD","Schweiz","CH"
1261,"Marchissy","Waadt","VD","Schweiz","CH"
1261,"Le Vaud","Waadt","VD","Schweiz","CH"
1262,"Eysins","Waadt","VD","Schweiz","CH"
1263,"Crassier","Waadt","VD","Schweiz","CH"
1264,"St-Cergue","Waadt","VD","Schweiz","CH"
1265,"La Cure","Waadt","VD","Schweiz","CH"
1266,"Duillier","Waadt","VD","Schweiz","CH"
1267,"Vich","Waadt","VD","Schweiz","CH"
1267,"Coinsins","Waadt","VD","Schweiz","CH"
1268,"Burtigny","Waadt","VD","Schweiz","CH"
1268,"Begnins","Waadt","VD","Schweiz","CH"
1269,"Bassins","Waadt","VD","Schweiz","CH"
1270,"Trélex","Waadt","VD","Schweiz","CH"
1271,"Givrins","Waadt","VD","Schweiz","CH"
1272,"Genolier","Waadt","VD","Schweiz","CH"
1273,"Le Muids","Waadt","VD","Schweiz","CH"
1273,"Arzier","Waadt","VD","Schweiz","CH"
1274,"Grens","Waadt","VD","Schweiz","CH"
1274,"Signy","Waadt","VD","Schweiz","CH"
1275,"Chéserex","Waadt","VD","Schweiz","CH"
1276,"Gingins","Waadt","VD","Schweiz","CH"
1277,"Arnex-sur-Nyon","Waadt","VD","Schweiz","CH"
1277,"Borex","Waadt","VD","Schweiz","CH"
1278,"La Rippe","Waadt","VD","Schweiz","CH"
1279,"Bogis-Bossey","Waadt","VD","Schweiz","CH"
1279,"Chavannes-de-Bogis","Waadt","VD","Schweiz","CH"
1281,"Russin","Genf","GE","Schweiz","CH"
1283,"Dardagny","Genf","GE","Schweiz","CH"
1283,"La Plaine","Genf","GE","Schweiz","CH"
1284,"Chancy","Genf","GE","Schweiz","CH"
1285,"Athenaz (Avusy)","Genf","GE","Schweiz","CH"
1286,"Soral","Genf","GE","Schweiz","CH"
1287,"Laconnex","Genf","GE","Schweiz","CH"
1288,"Aire-la-Ville","Genf","GE","Schweiz","CH"
1290,"Versoix","Genf","GE","Schweiz","CH"
1290,"Chavannes-des-Bois","Waadt","VD","Schweiz","CH"
1291,"Commugny","Waadt","VD","Schweiz","CH"
1292,"Chambésy","Genf","GE","Schweiz","CH"
1293,"Bellevue","Genf","GE","Schweiz","CH"
1294,"Genthod","Genf","GE","Schweiz","CH"
1295,"Mies","Waadt","VD","Schweiz","CH"
1295,"Tannay","Waadt","VD","Schweiz","CH"
1296,"Coppet","Waadt","VD","Schweiz","CH"
1297,"Founex","Waadt","VD","Schweiz","CH"
1298,"Céligny","Genf","GE","Schweiz","CH"
1299,"Crans-près-Céligny","Waadt","VD","Schweiz","CH"
1302,"Vufflens-la-Ville","Waadt","VD","Schweiz","CH"
1303,"Penthaz","Waadt","VD","Schweiz","CH"
1304,"Senarclens","Waadt","VD","Schweiz","CH"
1304,"Dizy","Waadt","VD","Schweiz","CH"
1304,"Allens","Waadt","VD","Schweiz","CH"
1304,"Cossonay-Ville","Waadt","VD","Schweiz","CH"
1305,"Penthalaz","Waadt","VD","Schweiz","CH"
1306,"Daillens","Waadt","VD","Schweiz","CH"
1307,"Lussery-Villars","Waadt","VD","Schweiz","CH"
1308,"La Chaux (Cossonay)","Waadt","VD","Schweiz","CH"
1312,"Eclépens","Waadt","VD","Schweiz","CH"
1313,"Ferreyres","Waadt","VD","Schweiz","CH"
1315,"La Sarraz","Waadt","VD","Schweiz","CH"
1316,"Chevilly","Waadt","VD","Schweiz","CH"
1317,"Orny","Waadt","VD","Schweiz","CH"
1318,"Pompaples","Waadt","VD","Schweiz","CH"
1321,"Arnex-sur-Orbe","Waadt","VD","Schweiz","CH"
1322,"Croy","Waadt","VD","Schweiz","CH"
1323,"Romainmôtier","Waadt","VD","Schweiz","CH"
1324,"Premier","Waadt","VD","Schweiz","CH"
1325,"Vaulion","Waadt","VD","Schweiz","CH"
1326,"Juriens","Waadt","VD","Schweiz","CH"
1329,"Bretonnières","Waadt","VD","Schweiz","CH"
1337,"Vallorbe","Waadt","VD","Schweiz","CH"
1338,"Ballaigues","Waadt","VD","Schweiz","CH"
1341,"Orient","Waadt","VD","Schweiz","CH"
1342,"Le Pont","Waadt","VD","Schweiz","CH"
1343,"Les Charbonnières","Waadt","VD","Schweiz","CH"
1344,"L'Abbaye","Waadt","VD","Schweiz","CH"
1345,"Le Lieu","Waadt","VD","Schweiz","CH"
1346,"Les Bioux","Waadt","VD","Schweiz","CH"
1347,"Le Solliat","Waadt","VD","Schweiz","CH"
1347,"Le Sentier","Waadt","VD","Schweiz","CH"
1348,"Le Brassus","Waadt","VD","Schweiz","CH"
1350,"Orbe","Waadt","VD","Schweiz","CH"
1352,"Agiez","Waadt","VD","Schweiz","CH"
1353,"Bofflens","Waadt","VD","Schweiz","CH"
1354,"Montcherand","Waadt","VD","Schweiz","CH"
1355,"Sergey","Waadt","VD","Schweiz","CH"
1355,"L'Abergement","Waadt","VD","Schweiz","CH"
1356,"Les Clées","Waadt","VD","Schweiz","CH"
1356,"La Russille","Waadt","VD","Schweiz","CH"
1357,"Lignerolle","Waadt","VD","Schweiz","CH"
1358,"Valeyres-sous-Rances","Waadt","VD","Schweiz","CH"
1372,"Bavois","Waadt","VD","Schweiz","CH"
1373,"Chavornay","Waadt","VD","Schweiz","CH"
1374,"Corcelles-sur-Chavornay","Waadt","VD","Schweiz","CH"
1375,"Penthéréaz","Waadt","VD","Schweiz","CH"
1376,"Eclagnens","Waadt","VD","Schweiz","CH"
1376,"Goumoens-le-Jux","Waadt","VD","Schweiz","CH"
1376,"Goumoens-la-Ville","Waadt","VD","Schweiz","CH"
1377,"Oulens-sous-Echallens","Waadt","VD","Schweiz","CH"
1400,"Yverdon-les-Bains","Waadt","VD","Schweiz","CH"
1400,"Cheseaux-Noréaz","Waadt","VD","Schweiz","CH"
1404,"Cuarny","Waadt","VD","Schweiz","CH"
1404,"Villars-Epeney","Waadt","VD","Schweiz","CH"
1405,"Pomy","Waadt","VD","Schweiz","CH"
1406,"Cronay","Waadt","VD","Schweiz","CH"
1407,"Bioley-Magnoux","Waadt","VD","Schweiz","CH"
1407,"Gossens","Waadt","VD","Schweiz","CH"
1407,"Mézery-près-Donneloye","Waadt","VD","Schweiz","CH"
1407,"Donneloye","Waadt","VD","Schweiz","CH"
1408,"Prahins","Waadt","VD","Schweiz","CH"
1409,"Chanéaz","Waadt","VD","Schweiz","CH"
1410,"Prévondavaux","Freiburg","FR","Schweiz","CH"
1410,"St-Cierges","Waadt","VD","Schweiz","CH"
1410,"Denezy","Waadt","VD","Schweiz","CH"
1410,"Correvon","Waadt","VD","Schweiz","CH"
1410,"Thierrens","Waadt","VD","Schweiz","CH"
1412,"Valeyres-sous-Ursins","Waadt","VD","Schweiz","CH"
1412,"Ursins","Waadt","VD","Schweiz","CH"
1413,"Orzens","Waadt","VD","Schweiz","CH"
1415,"Molondin","Waadt","VD","Schweiz","CH"
1415,"Démoret","Waadt","VD","Schweiz","CH"
1416,"Pailly","Waadt","VD","Schweiz","CH"
1417,"Epautheyres","Waadt","VD","Schweiz","CH"
1417,"Essertines-sur-Yverdon","Waadt","VD","Schweiz","CH"
1418,"Vuarrens","Waadt","VD","Schweiz","CH"
1420,"Fiez","Waadt","VD","Schweiz","CH"
1421,"Fontaines-sur-Grandson","Waadt","VD","Schweiz","CH"
1421,"Grandevent","Waadt","VD","Schweiz","CH"
1422,"Grandson","Waadt","VD","Schweiz","CH"
1423,"Fontanezier","Waadt","VD","Schweiz","CH"
1423,"Romairon","Waadt","VD","Schweiz","CH"
1423,"Vaugondry","Waadt","VD","Schweiz","CH"
1423,"Villars-Burquin","Waadt","VD","Schweiz","CH"
1424,"Champagne","Waadt","VD","Schweiz","CH"
1425,"Onnens VD","Waadt","VD","Schweiz","CH"
1426,"Corcelles-près-Concise","Waadt","VD","Schweiz","CH"
1426,"Concise","Waadt","VD","Schweiz","CH"
1427,"Bonvillars","Waadt","VD","Schweiz","CH"
1428,"Mutrux","Waadt","VD","Schweiz","CH"
1428,"Provence","Waadt","VD","Schweiz","CH"
1429,"Giez","Waadt","VD","Schweiz","CH"
1430,"Orges","Waadt","VD","Schweiz","CH"
1431,"Vugelles-La Mothe","Waadt","VD","Schweiz","CH"
1431,"Novalles","Waadt","VD","Schweiz","CH"
1432,"Belmont-sur-Yverdon","Waadt","VD","Schweiz","CH"
1432,"Gressy","Waadt","VD","Schweiz","CH"
1433,"Suchy","Waadt","VD","Schweiz","CH"
1434,"Ependes VD","Waadt","VD","Schweiz","CH"
1435,"Essert-Pittet","Waadt","VD","Schweiz","CH"
1436,"Treycovagnes","Waadt","VD","Schweiz","CH"
1436,"Chamblon","Waadt","VD","Schweiz","CH"
1437,"Suscévaz","Waadt","VD","Schweiz","CH"
1438,"Mathod","Waadt","VD","Schweiz","CH"
1439,"Rances","Waadt","VD","Schweiz","CH"
1441,"Valeyres-sous-Montagny","Waadt","VD","Schweiz","CH"
1442,"Montagny-près-Yverdon","Waadt","VD","Schweiz","CH"
1443,"Champvent","Waadt","VD","Schweiz","CH"
1443,"Essert-sous-Champvent","Waadt","VD","Schweiz","CH"
1443,"Villars-sous-Champvent","Waadt","VD","Schweiz","CH"
1445,"Vuiteboeuf","Waadt","VD","Schweiz","CH"
1446,"Baulmes","Waadt","VD","Schweiz","CH"
1450,"La Sagne (Ste-Croix)","Waadt","VD","Schweiz","CH"
1450,"Le Château-de-Ste-Croix","Waadt","VD","Schweiz","CH"
1450,"Ste-Croix","Waadt","VD","Schweiz","CH"
1452,"Les Rasses","Waadt","VD","Schweiz","CH"
1453,"Mauborget","Waadt","VD","Schweiz","CH"
1453,"Bullet","Waadt","VD","Schweiz","CH"
1454,"La Vraconnaz","Waadt","VD","Schweiz","CH"
1454,"L'Auberson","Waadt","VD","Schweiz","CH"
1462,"Yvonand","Waadt","VD","Schweiz","CH"
1463,"Rovray","Waadt","VD","Schweiz","CH"
1464,"Chêne-Pâquier","Waadt","VD","Schweiz","CH"
1464,"Chavannes-le-Chêne","Waadt","VD","Schweiz","CH"
1468,"Cheyres","Freiburg","FR","Schweiz","CH"
1470,"Bollion","Freiburg","FR","Schweiz","CH"
1470,"Lully FR","Freiburg","FR","Schweiz","CH"
1470,"Seiry","Freiburg","FR","Schweiz","CH"
1470,"Estavayer-le-Lac","Freiburg","FR","Schweiz","CH"
1473,"Font","Freiburg","FR","Schweiz","CH"
1473,"Châtillon FR","Freiburg","FR","Schweiz","CH"
1474,"Châbles FR","Freiburg","FR","Schweiz","CH"
1475,"Autavaux","Freiburg","FR","Schweiz","CH"
1475,"Forel FR","Freiburg","FR","Schweiz","CH"
1475,"Montbrelloz","Freiburg","FR","Schweiz","CH"
1482,"Cugy FR","Freiburg","FR","Schweiz","CH"
1483,"Frasses","Freiburg","FR","Schweiz","CH"
1483,"Vesin","Freiburg","FR","Schweiz","CH"
1483,"Montet (Broye)","Freiburg","FR","Schweiz","CH"
1484,"Aumont","Freiburg","FR","Schweiz","CH"
1484,"Granges-de-Vesin","Freiburg","FR","Schweiz","CH"
1485,"Nuvilly","Freiburg","FR","Schweiz","CH"
1486,"Vuissens","Freiburg","FR","Schweiz","CH"
1489,"Murist","Freiburg","FR","Schweiz","CH"
1509,"Vucherens","Waadt","VD","Schweiz","CH"
1510,"Syens","Waadt","VD","Schweiz","CH"
1510,"Moudon","Waadt","VD","Schweiz","CH"
1512,"Chavannes-sur-Moudon","Waadt","VD","Schweiz","CH"
1513,"Hermenches","Waadt","VD","Schweiz","CH"
1513,"Rossenges","Waadt","VD","Schweiz","CH"
1514,"Bussy-sur-Moudon","Waadt","VD","Schweiz","CH"
1515,"Neyruz-sur-Moudon","Waadt","VD","Schweiz","CH"
1515,"Villars-le-Comte","Waadt","VD","Schweiz","CH"
1521,"Curtilles","Waadt","VD","Schweiz","CH"
1522,"Oulens-sur-Lucens","Waadt","VD","Schweiz","CH"
1522,"Lucens","Waadt","VD","Schweiz","CH"
1523,"Granges-près-Marnand","Waadt","VD","Schweiz","CH"
1524,"Marnand","Waadt","VD","Schweiz","CH"
1525,"Seigneux","Waadt","VD","Schweiz","CH"
1525,"Henniez","Waadt","VD","Schweiz","CH"
1526,"Forel-sur-Lucens","Waadt","VD","Schweiz","CH"
1526,"Cremin","Waadt","VD","Schweiz","CH"
1527,"Villeneuve FR","Freiburg","FR","Schweiz","CH"
1528,"Praratoud","Freiburg","FR","Schweiz","CH"
1528,"Surpierre","Freiburg","FR","Schweiz","CH"
1529,"Cheiry","Freiburg","FR","Schweiz","CH"
1530,"Payerne","Waadt","VD","Schweiz","CH"
1532,"Fétigny","Freiburg","FR","Schweiz","CH"
1533,"Ménières","Freiburg","FR","Schweiz","CH"
1534,"Chapelle (Broye)","Freiburg","FR","Schweiz","CH"
1534,"Sassel","Waadt","VD","Schweiz","CH"
1535,"Combremont-le-Grand","Waadt","VD","Schweiz","CH"
1536,"Combremont-le-Petit","Waadt","VD","Schweiz","CH"
1537,"Champtauroz","Waadt","VD","Schweiz","CH"
1538,"Treytorrens (Payerne)","Waadt","VD","Schweiz","CH"
1541,"Morens FR","Freiburg","FR","Schweiz","CH"
1541,"Sévaz","Freiburg","FR","Schweiz","CH"
1541,"Bussy FR","Freiburg","FR","Schweiz","CH"
1542,"Rueyres-les-Prés","Freiburg","FR","Schweiz","CH"
1543,"Grandcour","Waadt","VD","Schweiz","CH"
1544,"Gletterens","Freiburg","FR","Schweiz","CH"
1545,"Chevroux","Waadt","VD","Schweiz","CH"
1551,"Vers-chez-Perrin","Waadt","VD","Schweiz","CH"
1552,"Trey","Waadt","VD","Schweiz","CH"
1553,"Châtonnaye","Freiburg","FR","Schweiz","CH"
1554,"Sédeilles","Waadt","VD","Schweiz","CH"
1554,"Rossens VD","Waadt","VD","Schweiz","CH"
1555,"Villarzel","Waadt","VD","Schweiz","CH"
1562,"Corcelles-près-Payerne","Waadt","VD","Schweiz","CH"
1563,"Dompierre FR","Freiburg","FR","Schweiz","CH"
1564,"Domdidier","Freiburg","FR","Schweiz","CH"
1565,"Vallon","Freiburg","FR","Schweiz","CH"
1565,"Missy","Waadt","VD","Schweiz","CH"
1566,"Les Friques","Freiburg","FR","Schweiz","CH"
1566,"St-Aubin FR","Freiburg","FR","Schweiz","CH"
1567,"Delley","Freiburg","FR","Schweiz","CH"
1568,"Portalban","Freiburg","FR","Schweiz","CH"
1580,"Oleyres","Waadt","VD","Schweiz","CH"
1580,"Avenches","Waadt","VD","Schweiz","CH"
1582,"Donatyre","Waadt","VD","Schweiz","CH"
1583,"Villarepos","Freiburg","FR","Schweiz","CH"
1584,"Villars-le-Grand","Waadt","VD","Schweiz","CH"
1585,"Bellerive VD","Waadt","VD","Schweiz","CH"
1585,"Cotterd","Waadt","VD","Schweiz","CH"
1585,"Salavaux","Waadt","VD","Schweiz","CH"
1586,"Vallamand","Waadt","VD","Schweiz","CH"
1587,"Montmagny","Waadt","VD","Schweiz","CH"
1587,"Constantine","Waadt","VD","Schweiz","CH"
1588,"Cudrefin","Waadt","VD","Schweiz","CH"
1589,"Chabrey","Waadt","VD","Schweiz","CH"
1595,"Clavaleyres","Bern","BE","Schweiz","CH"
1595,"Faoug","Waadt","VD","Schweiz","CH"
1607,"Les Tavernes","Waadt","VD","Schweiz","CH"
1607,"Les Thioleyres","Waadt","VD","Schweiz","CH"
1607,"Palézieux-Village","Waadt","VD","Schweiz","CH"
1607,"Palézieux","Waadt","VD","Schweiz","CH"
1608,"Chapelle (Glâne)","Freiburg","FR","Schweiz","CH"
1608,"Bussigny-sur-Oron","Waadt","VD","Schweiz","CH"
1608,"Chesalles-sur-Oron","Waadt","VD","Schweiz","CH"
1608,"Oron-le-Châtel","Waadt","VD","Schweiz","CH"
1609,"Besencens","Freiburg","FR","Schweiz","CH"
1609,"Fiaugères","Freiburg","FR","Schweiz","CH"
1609,"Le Jordil","Freiburg","FR","Schweiz","CH"
1609,"St-Martin FR","Freiburg","FR","Schweiz","CH"
1610,"Châtillens","Waadt","VD","Schweiz","CH"
1610,"Vuibroye","Waadt","VD","Schweiz","CH"
1610,"Oron-la-Ville","Waadt","VD","Schweiz","CH"
1611,"Le Crêt-près-Semsales","Freiburg","FR","Schweiz","CH"
1612,"Ecoteaux","Waadt","VD","Schweiz","CH"
1613,"Maracon","Waadt","VD","Schweiz","CH"
1614,"Granges (Veveyse)","Freiburg","FR","Schweiz","CH"
1615,"Bossonnens","Freiburg","FR","Schweiz","CH"
1616,"Attalens","Freiburg","FR","Schweiz","CH"
1617,"Tatroz","Freiburg","FR","Schweiz","CH"
1617,"Remaufens","Freiburg","FR","Schweiz","CH"
1618,"Châtel-St-Denis","Freiburg","FR","Schweiz","CH"
1619,"Les Paccots","Freiburg","FR","Schweiz","CH"
1623,"Semsales","Freiburg","FR","Schweiz","CH"
1624,"La Verrerie","Freiburg","FR","Schweiz","CH"
1624,"Grattavache","Freiburg","FR","Schweiz","CH"
1624,"Progens","Freiburg","FR","Schweiz","CH"
1625,"Maules","Freiburg","FR","Schweiz","CH"
1625,"Sâles (Gruyère)","Freiburg","FR","Schweiz","CH"
1626,"Romanens","Freiburg","FR","Schweiz","CH"
1626,"Treyfayes","Freiburg","FR","Schweiz","CH"
1626,"Rueyres-Treyfayes","Freiburg","FR","Schweiz","CH"
1627,"Vaulruz","Freiburg","FR","Schweiz","CH"
1628,"Vuadens","Freiburg","FR","Schweiz","CH"
1630,"Bulle","Freiburg","FR","Schweiz","CH"
1632,"Riaz","Freiburg","FR","Schweiz","CH"
1633,"Vuippens","Freiburg","FR","Schweiz","CH"
1633,"Marsens","Freiburg","FR","Schweiz","CH"
1634,"La Roche FR","Freiburg","FR","Schweiz","CH"
1635,"La Tour-de-Trême","Freiburg","FR","Schweiz","CH"
1636,"Broc","Freiburg","FR","Schweiz","CH"
1637,"Charmey (Gruyère)","Freiburg","FR","Schweiz","CH"
1638,"Morlon","Freiburg","FR","Schweiz","CH"
1642,"Sorens","Freiburg","FR","Schweiz","CH"
1643,"Gumefens","Freiburg","FR","Schweiz","CH"
1644,"Avry-devant-Pont","Freiburg","FR","Schweiz","CH"
1645,"Le Bry","Freiburg","FR","Schweiz","CH"
1646,"Echarlens","Freiburg","FR","Schweiz","CH"
1647,"Corbières","Freiburg","FR","Schweiz","CH"
1648,"Hauteville","Freiburg","FR","Schweiz","CH"
1649,"Pont-la-Ville","Freiburg","FR","Schweiz","CH"
1651,"Villarvolard","Freiburg","FR","Schweiz","CH"
1652,"Botterens","Freiburg","FR","Schweiz","CH"
1652,"Villarbeney","Freiburg","FR","Schweiz","CH"
1653,"Châtel-sur-Montsalvens","Freiburg","FR","Schweiz","CH"
1653,"Crésuz","Freiburg","FR","Schweiz","CH"
1654,"Cerniat FR","Freiburg","FR","Schweiz","CH"
1656,"Im Fang","Freiburg","FR","Schweiz","CH"
1656,"Jaun","Freiburg","FR","Schweiz","CH"
1657,"Abländschen","Bern","BE","Schweiz","CH"
1658,"La Tine","Waadt","VD","Schweiz","CH"
1658,"Rossinière","Waadt","VD","Schweiz","CH"
1659,"Flendruz","Waadt","VD","Schweiz","CH"
1659,"Rougemont","Waadt","VD","Schweiz","CH"
1660,"Les Moulins","Waadt","VD","Schweiz","CH"
1660,"L'Etivaz","Waadt","VD","Schweiz","CH"
1660,"Château-d'Oex","Waadt","VD","Schweiz","CH"
1660,"La Lécherette","Waadt","VD","Schweiz","CH"
1661,"Le Pâquier-Montbarry","Freiburg","FR","Schweiz","CH"
1663,"Moléson-sur-Gruyères","Freiburg","FR","Schweiz","CH"
1663,"Pringy","Freiburg","FR","Schweiz","CH"
1663,"Gruyères","Freiburg","FR","Schweiz","CH"
1663,"Epagny","Freiburg","FR","Schweiz","CH"
1665,"Estavannens","Freiburg","FR","Schweiz","CH"
1666,"Villars-sous-Mont","Freiburg","FR","Schweiz","CH"
1666,"Grandvillard","Freiburg","FR","Schweiz","CH"
1667,"Enney","Freiburg","FR","Schweiz","CH"
1669,"Neirivue","Freiburg","FR","Schweiz","CH"
1669,"Les Sciernes-d'Albeuve","Freiburg","FR","Schweiz","CH"
1669,"Montbovon","Freiburg","FR","Schweiz","CH"
1669,"Lessoc","Freiburg","FR","Schweiz","CH"
1669,"Albeuve","Freiburg","FR","Schweiz","CH"
1670,"Bionnens","Freiburg","FR","Schweiz","CH"
1670,"Esmonts","Freiburg","FR","Schweiz","CH"
1670,"Ursy","Freiburg","FR","Schweiz","CH"
1673,"Auboranges","Freiburg","FR","Schweiz","CH"
1673,"Ecublens FR","Freiburg","FR","Schweiz","CH"
1673,"Rue","Freiburg","FR","Schweiz","CH"
1673,"Gillarens","Freiburg","FR","Schweiz","CH"
1673,"Promasens","Freiburg","FR","Schweiz","CH"
1674,"Vuarmarens","Freiburg","FR","Schweiz","CH"
1674,"Montet (Glâne)","Freiburg","FR","Schweiz","CH"
1674,"Morlens","Freiburg","FR","Schweiz","CH"
1675,"Vauderens","Freiburg","FR","Schweiz","CH"
1675,"Blessens","Freiburg","FR","Schweiz","CH"
1675,"Mossel","Freiburg","FR","Schweiz","CH"
1676,"Chavannes-les-Forts","Freiburg","FR","Schweiz","CH"
1677,"Prez-vers-Siviriez","Freiburg","FR","Schweiz","CH"
1678,"Siviriez","Freiburg","FR","Schweiz","CH"
1679,"Villaraboud","Freiburg","FR","Schweiz","CH"
1680,"Berlens","Freiburg","FR","Schweiz","CH"
1680,"Romont FR","Freiburg","FR","Schweiz","CH"
1681,"Billens","Freiburg","FR","Schweiz","CH"
1681,"Hennens","Freiburg","FR","Schweiz","CH"
1682,"Villars-Bramard","Waadt","VD","Schweiz","CH"
1682,"Dompierre VD","Waadt","VD","Schweiz","CH"
1682,"Lovatens","Waadt","VD","Schweiz","CH"
1682,"Cerniaz VD","Waadt","VD","Schweiz","CH"
1682,"Prévonloup","Waadt","VD","Schweiz","CH"
1683,"Brenles","Waadt","VD","Schweiz","CH"
1683,"Chesalles-sur-Moudon","Waadt","VD","Schweiz","CH"
1683,"Sarzens","Waadt","VD","Schweiz","CH"
1684,"Mézières FR","Freiburg","FR","Schweiz","CH"
1685,"Villariaz","Freiburg","FR","Schweiz","CH"
1686,"Grangettes-près-Romont","Freiburg","FR","Schweiz","CH"
1686,"La Neirigue","Freiburg","FR","Schweiz","CH"
1687,"Estévenens","Freiburg","FR","Schweiz","CH"
1687,"La Magne","Freiburg","FR","Schweiz","CH"
1687,"Vuisternens-devant-Romont","Freiburg","FR","Schweiz","CH"
1688,"Sommentier","Freiburg","FR","Schweiz","CH"
1688,"Lieffrens","Freiburg","FR","Schweiz","CH"
1689,"Le Châtelard-près-Romont","Freiburg","FR","Schweiz","CH"
1690,"Lussy FR","Freiburg","FR","Schweiz","CH"
1690,"Villaz-St-Pierre","Freiburg","FR","Schweiz","CH"
1691,"Villarimboud","Freiburg","FR","Schweiz","CH"
1692,"Massonnens","Freiburg","FR","Schweiz","CH"
1694,"Orsonnens","Freiburg","FR","Schweiz","CH"
1694,"Chavannes-sous-Orsonnens","Freiburg","FR","Schweiz","CH"
1694,"Villargiroud","Freiburg","FR","Schweiz","CH"
1694,"Villarsiviriaux","Freiburg","FR","Schweiz","CH"
1695,"Villarlod","Freiburg","FR","Schweiz","CH"
1695,"Estavayer-le-Gibloux","Freiburg","FR","Schweiz","CH"
1695,"Rueyres-St-Laurent","Freiburg","FR","Schweiz","CH"
1695,"Villarsel-le-Gibloux","Freiburg","FR","Schweiz","CH"
1696,"Vuisternens-en-Ogoz","Freiburg","FR","Schweiz","CH"
1697,"La Joux FR","Freiburg","FR","Schweiz","CH"
1697,"Les Ecasseys","Freiburg","FR","Schweiz","CH"
1699,"Bouloz","Freiburg","FR","Schweiz","CH"
1699,"Pont (Veveyse)","Freiburg","FR","Schweiz","CH"
1699,"Porsel","Freiburg","FR","Schweiz","CH"
1700,"Fribourg","Freiburg","FR","Schweiz","CH"
1708,"Fribourg","Freiburg","FR","Schweiz","CH"
1712,"Tafers","Freiburg","FR","Schweiz","CH"
1713,"St. Antoni","Freiburg","FR","Schweiz","CH"
1714,"Heitenried","Freiburg","FR","Schweiz","CH"
1715,"Alterswil FR","Freiburg","FR","Schweiz","CH"
1716,"Oberschrot","Freiburg","FR","Schweiz","CH"
1716,"Schwarzsee","Freiburg","FR","Schweiz","CH"
1716,"Plaffeien","Freiburg","FR","Schweiz","CH"
1717,"St. Ursen","Freiburg","FR","Schweiz","CH"
1718,"Rechthalten","Freiburg","FR","Schweiz","CH"
1719,"Zumholz","Freiburg","FR","Schweiz","CH"
1719,"Brünisried","Freiburg","FR","Schweiz","CH"
1720,"Chésopelloz","Freiburg","FR","Schweiz","CH"
1720,"Corminboeuf","Freiburg","FR","Schweiz","CH"
1721,"Cormérod","Freiburg","FR","Schweiz","CH"
1721,"Courtion","Freiburg","FR","Schweiz","CH"
1721,"Misery","Freiburg","FR","Schweiz","CH"
1722,"Bourguillon","Freiburg","FR","Schweiz","CH"
1723,"Marly","Freiburg","FR","Schweiz","CH"
1723,"Pierrafortscha","Freiburg","FR","Schweiz","CH"
1723,"Villarsel-sur-Marly","Freiburg","FR","Schweiz","CH"
1724,"Bonnefontaine","Freiburg","FR","Schweiz","CH"
1724,"Essert FR","Freiburg","FR","Schweiz","CH"
1724,"Ferpicloz","Freiburg","FR","Schweiz","CH"
1724,"Montévraz","Freiburg","FR","Schweiz","CH"
1724,"Oberried FR","Freiburg","FR","Schweiz","CH"
1724,"Senèdes","Freiburg","FR","Schweiz","CH"
1724,"Zénauva","Freiburg","FR","Schweiz","CH"
1724,"Le Mouret","Freiburg","FR","Schweiz","CH"
1725,"Posieux","Freiburg","FR","Schweiz","CH"
1726,"Farvagny-le-Petit","Freiburg","FR","Schweiz","CH"
1726,"Grenilles","Freiburg","FR","Schweiz","CH"
1726,"Posat","Freiburg","FR","Schweiz","CH"
1726,"Farvagny","Freiburg","FR","Schweiz","CH"
1727,"Magnedens","Freiburg","FR","Schweiz","CH"
1727,"Corpataux-Magnedens","Freiburg","FR","Schweiz","CH"
1728,"Rossens FR","Freiburg","FR","Schweiz","CH"
1730,"Ecuvillens","Freiburg","FR","Schweiz","CH"
1731,"Ependes FR","Freiburg","FR","Schweiz","CH"
1732,"Arconciel","Freiburg","FR","Schweiz","CH"
1733,"Treyvaux","Freiburg","FR","Schweiz","CH"
1734,"Tentlingen","Freiburg","FR","Schweiz","CH"
1735,"Giffers","Freiburg","FR","Schweiz","CH"
1736,"St. Silvester","Freiburg","FR","Schweiz","CH"
1737,"Plasselb","Freiburg","FR","Schweiz","CH"
1738,"Sangernboden","Bern","BE","Schweiz","CH"
1740,"Neyruz FR","Freiburg","FR","Schweiz","CH"
1741,"Cottens FR","Freiburg","FR","Schweiz","CH"
1742,"Autigny","Freiburg","FR","Schweiz","CH"
1744,"Chénens","Freiburg","FR","Schweiz","CH"
1745,"Lentigny","Freiburg","FR","Schweiz","CH"
1746,"Prez-vers-Noréaz","Freiburg","FR","Schweiz","CH"
1747,"Corserey","Freiburg","FR","Schweiz","CH"
1748,"Torny-le-Grand","Freiburg","FR","Schweiz","CH"
1749,"Middes","Freiburg","FR","Schweiz","CH"
1752,"Villars-sur-Glâne","Freiburg","FR","Schweiz","CH"
1753,"Matran","Freiburg","FR","Schweiz","CH"
1754,"Rosé","Freiburg","FR","Schweiz","CH"
1754,"Corjolens","Freiburg","FR","Schweiz","CH"
1754,"Avry-sur-Matran","Freiburg","FR","Schweiz","CH"
1754,"Avry-Centre FR","Freiburg","FR","Schweiz","CH"
1756,"Onnens FR","Freiburg","FR","Schweiz","CH"
1756,"Lovens","Freiburg","FR","Schweiz","CH"
1757,"Noréaz","Freiburg","FR","Schweiz","CH"
1762,"Givisiez","Freiburg","FR","Schweiz","CH"
1763,"Granges-Paccot","Freiburg","FR","Schweiz","CH"
1772,"Ponthaux","Freiburg","FR","Schweiz","CH"
1772,"Nierlet-les-Bois","Freiburg","FR","Schweiz","CH"
1772,"Grolley","Freiburg","FR","Schweiz","CH"
1773,"Léchelles","Freiburg","FR","Schweiz","CH"
1773,"Chandon","Freiburg","FR","Schweiz","CH"
1773,"Russy","Freiburg","FR","Schweiz","CH"
1774,"Montagny-les-Monts","Freiburg","FR","Schweiz","CH"
1774,"Cousset","Freiburg","FR","Schweiz","CH"
1775,"Mannens","Freiburg","FR","Schweiz","CH"
1775,"Grandsivaz","Freiburg","FR","Schweiz","CH"
1776,"Montagny-la-Ville","Freiburg","FR","Schweiz","CH"
1782,"Autafond","Freiburg","FR","Schweiz","CH"
1782,"La Corbaz","Freiburg","FR","Schweiz","CH"
1782,"Cormagens","Freiburg","FR","Schweiz","CH"
1782,"Lossy","Freiburg","FR","Schweiz","CH"
1782,"Formangueires","Freiburg","FR","Schweiz","CH"
1782,"Belfaux","Freiburg","FR","Schweiz","CH"
1783,"Pensier","Freiburg","FR","Schweiz","CH"
1783,"Barberêche","Freiburg","FR","Schweiz","CH"
1784,"Cournillens","Freiburg","FR","Schweiz","CH"
1784,"Wallenried","Freiburg","FR","Schweiz","CH"
1784,"Courtepin","Freiburg","FR","Schweiz","CH"
1785,"Cressier FR","Freiburg","FR","Schweiz","CH"
1786,"Sugiez","Freiburg","FR","Schweiz","CH"
1787,"Môtier (Vully)","Freiburg","FR","Schweiz","CH"
1787,"Mur (Vully) FR","Freiburg","FR","Schweiz","CH"
1787,"Mur (Vully) VD","Waadt","VD","Schweiz","CH"
1788,"Praz (Vully)","Freiburg","FR","Schweiz","CH"
1789,"Lugnorre","Freiburg","FR","Schweiz","CH"
1791,"Courtaman","Freiburg","FR","Schweiz","CH"
1792,"Guschelmuth","Freiburg","FR","Schweiz","CH"
1792,"Cordast","Freiburg","FR","Schweiz","CH"
1793,"Jeuss","Freiburg","FR","Schweiz","CH"
1794,"Salvenach","Freiburg","FR","Schweiz","CH"
1795,"Courlevon","Freiburg","FR","Schweiz","CH"
1796,"Courgevaux","Freiburg","FR","Schweiz","CH"
1797,"Münchenwiler","Bern","BE","Schweiz","CH"
1800,"Vevey","Waadt","VD","Schweiz","CH"
1801,"Le Mont-Pèlerin","Waadt","VD","Schweiz","CH"
1802,"Corseaux","Waadt","VD","Schweiz","CH"
1803,"Chardonne","Waadt","VD","Schweiz","CH"
1804,"Corsier-sur-Vevey","Waadt","VD","Schweiz","CH"
1805,"Jongny","Waadt","VD","Schweiz","CH"
1806,"St-Légier-La Chiésaz","Waadt","VD","Schweiz","CH"
1807,"Blonay","Waadt","VD","Schweiz","CH"
1808,"Les Monts-de-Corsier","Waadt","VD","Schweiz","CH"
1809,"Fenil-sur-Corsier","Waadt","VD","Schweiz","CH"
1814,"La Tour-de-Peilz","Waadt","VD","Schweiz","CH"
1815,"Clarens","Waadt","VD","Schweiz","CH"
1816,"Chailly-Montreux","Waadt","VD","Schweiz","CH"
1817,"Brent","Waadt","VD","Schweiz","CH"
1820,"Montreux","Waadt","VD","Schweiz","CH"
1820,"Veytaux","Waadt","VD","Schweiz","CH"
1820,"Territet","Waadt","VD","Schweiz","CH"
1822,"Chernex","Waadt","VD","Schweiz","CH"
1823,"Glion","Waadt","VD","Schweiz","CH"
1824,"Caux","Waadt","VD","Schweiz","CH"
1832,"Villard-sur-Chamby","Waadt","VD","Schweiz","CH"
1832,"Chamby","Waadt","VD","Schweiz","CH"
1833,"Les Avants","Waadt","VD","Schweiz","CH"
1844,"Villeneuve VD","Waadt","VD","Schweiz","CH"
1845,"Noville","Waadt","VD","Schweiz","CH"
1846,"Chessel","Waadt","VD","Schweiz","CH"
1847,"Rennaz","Waadt","VD","Schweiz","CH"
1852,"Roche VD","Waadt","VD","Schweiz","CH"
1853,"Yvorne","Waadt","VD","Schweiz","CH"
1854,"Leysin","Waadt","VD","Schweiz","CH"
1856,"Corbeyrier","Waadt","VD","Schweiz","CH"
1860,"Aigle","Waadt","VD","Schweiz","CH"
1862,"La Comballaz","Waadt","VD","Schweiz","CH"
1862,"Les Mosses","Waadt","VD","Schweiz","CH"
1863,"Le Sépey","Waadt","VD","Schweiz","CH"
1864,"Vers-l'Eglise","Waadt","VD","Schweiz","CH"
1865,"Les Diablerets","Waadt","VD","Schweiz","CH"
1866,"La Forclaz VD","Waadt","VD","Schweiz","CH"
1867,"St-Triphon","Waadt","VD","Schweiz","CH"
1867,"Panex","Waadt","VD","Schweiz","CH"
1867,"Ollon VD","Waadt","VD","Schweiz","CH"
1868,"Collombey","Wallis","VS","Schweiz","CH"
1869,"Massongex","Wallis","VS","Schweiz","CH"
1870,"Monthey","Wallis","VS","Schweiz","CH"
1871,"Choëx","Wallis","VS","Schweiz","CH"
1871,"Les Giettes","Wallis","VS","Schweiz","CH"
1872,"Troistorrents","Wallis","VS","Schweiz","CH"
1873,"Champoussin","Wallis","VS","Schweiz","CH"
1873,"Les Crosets","Wallis","VS","Schweiz","CH"
1873,"Val-d'Illiez","Wallis","VS","Schweiz","CH"
1874,"Champéry","Wallis","VS","Schweiz","CH"
1875,"Morgins","Wallis","VS","Schweiz","CH"
1880,"Fenalet-sur-Bex","Waadt","VD","Schweiz","CH"
1880,"Frenières-sur-Bex","Waadt","VD","Schweiz","CH"
1880,"Les Plans-sur-Bex","Waadt","VD","Schweiz","CH"
1880,"Bex","Waadt","VD","Schweiz","CH"
1882,"Les Posses-sur-Bex","Waadt","VD","Schweiz","CH"
1882,"Gryon","Waadt","VD","Schweiz","CH"
1884,"Huémoz","Waadt","VD","Schweiz","CH"
1884,"Arveyes","Waadt","VD","Schweiz","CH"
1884,"Villars-sur-Ollon","Waadt","VD","Schweiz","CH"
1885,"Chesières","Waadt","VD","Schweiz","CH"
1890,"Mex VS","Wallis","VS","Schweiz","CH"
1890,"St-Maurice","Wallis","VS","Schweiz","CH"
1891,"Vérossaz","Wallis","VS","Schweiz","CH"
1892,"Lavey-les-Bains","Waadt","VD","Schweiz","CH"
1892,"Morcles","Waadt","VD","Schweiz","CH"
1892,"Lavey-Village","Waadt","VD","Schweiz","CH"
1893,"Muraz (Collombey)","Wallis","VS","Schweiz","CH"
1895,"Vionnaz","Wallis","VS","Schweiz","CH"
1896,"Miex","Wallis","VS","Schweiz","CH"
1896,"Vouvry","Wallis","VS","Schweiz","CH"
1897,"Les Evouettes","Wallis","VS","Schweiz","CH"
1897,"Bouveret","Wallis","VS","Schweiz","CH"
1898,"St-Gingolph","Wallis","VS","Schweiz","CH"
1899,"Torgon","Wallis","VS","Schweiz","CH"
1902,"Evionnaz","Wallis","VS","Schweiz","CH"
1903,"Collonges","Wallis","VS","Schweiz","CH"
1904,"Vernayaz","Wallis","VS","Schweiz","CH"
1905,"Dorénaz","Wallis","VS","Schweiz","CH"
1906,"Charrat","Wallis","VS","Schweiz","CH"
1907,"Saxon","Wallis","VS","Schweiz","CH"
1908,"Riddes","Wallis","VS","Schweiz","CH"
1911,"Mayens-de-Chamoson","Wallis","VS","Schweiz","CH"
1911,"Ovronnaz","Wallis","VS","Schweiz","CH"
1912,"Produit (Leytron)","Wallis","VS","Schweiz","CH"
1912,"Montagnon (Leytron)","Wallis","VS","Schweiz","CH"
1912,"Dugny (Leytron)","Wallis","VS","Schweiz","CH"
1912,"Leytron","Wallis","VS","Schweiz","CH"
1913,"Saillon","Wallis","VS","Schweiz","CH"
1914,"Auddes-sur-Riddes","Wallis","VS","Schweiz","CH"
1914,"Isérables","Wallis","VS","Schweiz","CH"
1918,"La Tzoumaz","Wallis","VS","Schweiz","CH"
1920,"Martigny","Wallis","VS","Schweiz","CH"
1921,"Martigny-Croix","Wallis","VS","Schweiz","CH"
1922,"Les Granges (Salvan)","Wallis","VS","Schweiz","CH"
1922,"Salvan","Wallis","VS","Schweiz","CH"
1923,"Le Trétien","Wallis","VS","Schweiz","CH"
1923,"Les Marécottes","Wallis","VS","Schweiz","CH"
1925,"Le Châtelard VS","Wallis","VS","Schweiz","CH"
1925,"Finhaut","Wallis","VS","Schweiz","CH"
1926,"Fully","Wallis","VS","Schweiz","CH"
1927,"Chemin","Wallis","VS","Schweiz","CH"
1928,"Ravoire","Wallis","VS","Schweiz","CH"
1929,"Trient","Wallis","VS","Schweiz","CH"
1932,"Les Valettes (Bovernier)","Wallis","VS","Schweiz","CH"
1932,"Bovernier","Wallis","VS","Schweiz","CH"
1933,"Vens (Sembrancher)","Wallis","VS","Schweiz","CH"
1933,"Chamoille (Sembrancher)","Wallis","VS","Schweiz","CH"
1933,"La Garde (Sembrancher)","Wallis","VS","Schweiz","CH"
1933,"Sembrancher","Wallis","VS","Schweiz","CH"
1934,"Bruson","Wallis","VS","Schweiz","CH"
1934,"Cotterg (Le Châble VS)","Wallis","VS","Schweiz","CH"
1934,"Villette (Le Châble VS)","Wallis","VS","Schweiz","CH"
1934,"Fontenelle (Le Châble VS)","Wallis","VS","Schweiz","CH"
1934,"Montagnier (Le Châble VS)","Wallis","VS","Schweiz","CH"
1934,"Le Châble VS","Wallis","VS","Schweiz","CH"
1936,"Verbier","Wallis","VS","Schweiz","CH"
1937,"Orsières","Wallis","VS","Schweiz","CH"
1938,"Champex-Lac","Wallis","VS","Schweiz","CH"
1941,"Cries (Vollèges)","Wallis","VS","Schweiz","CH"
1941,"Vollèges","Wallis","VS","Schweiz","CH"
1942,"Levron","Wallis","VS","Schweiz","CH"
1943,"Praz-de-Fort","Wallis","VS","Schweiz","CH"
1944,"La Fouly VS","Wallis","VS","Schweiz","CH"
1945,"Liddes","Wallis","VS","Schweiz","CH"
1945,"Fontaine Dessus (Liddes)","Wallis","VS","Schweiz","CH"
1945,"Fontaine Dessous (Liddes)","Wallis","VS","Schweiz","CH"
1945,"Dranse (Liddes)","Wallis","VS","Schweiz","CH"
1945,"Chandonne (Liddes)","Wallis","VS","Schweiz","CH"
1945,"Rive Haute (Liddes)","Wallis","VS","Schweiz","CH"
1945,"Fornex (Liddes)","Wallis","VS","Schweiz","CH"
1945,"Les Moulins VS (Liddes)","Wallis","VS","Schweiz","CH"
1945,"Vichères (Liddes)","Wallis","VS","Schweiz","CH"
1945,"Palasuit (Liddes)","Wallis","VS","Schweiz","CH"
1945,"Chez Petit (Liddes)","Wallis","VS","Schweiz","CH"
1945,"Petit Vichères (Liddes)","Wallis","VS","Schweiz","CH"
1946,"Bourg-St-Pierre","Wallis","VS","Schweiz","CH"
1947,"Prarreyer (Versegères)","Wallis","VS","Schweiz","CH"
1947,"Les Places (Versegères)","Wallis","VS","Schweiz","CH"
1947,"La Montoz (Versegères)","Wallis","VS","Schweiz","CH"
1947,"Champsec (Versegères)","Wallis","VS","Schweiz","CH"
1947,"Le Fregnoley (Versegères)","Wallis","VS","Schweiz","CH"
1947,"Versegères","Wallis","VS","Schweiz","CH"
1948,"Lourtier","Wallis","VS","Schweiz","CH"
1948,"Fionnay","Wallis","VS","Schweiz","CH"
1948,"Sarreyer","Wallis","VS","Schweiz","CH"
1948,"Le Planchamp (Lourtier)","Wallis","VS","Schweiz","CH"
1948,"Le Morgnes (Lourtier)","Wallis","VS","Schweiz","CH"
1950,"Sion","Wallis","VS","Schweiz","CH"
1955,"St-Pierre-de-Clages","Wallis","VS","Schweiz","CH"
1955,"Les Vérines (Chamoson)","Wallis","VS","Schweiz","CH"
1955,"Némiaz (Chamoson)","Wallis","VS","Schweiz","CH"
1955,"Grugnay (Chamoson)","Wallis","VS","Schweiz","CH"
1955,"Chamoson","Wallis","VS","Schweiz","CH"
1957,"Ardon","Wallis","VS","Schweiz","CH"
1958,"Uvrier","Wallis","VS","Schweiz","CH"
1958,"St-Léonard","Wallis","VS","Schweiz","CH"
1961,"Vernamiège","Wallis","VS","Schweiz","CH"
1962,"Pont-de-la-Morge (Sion)","Wallis","VS","Schweiz","CH"
1963,"Vétroz","Wallis","VS","Schweiz","CH"
1964,"Conthey","Wallis","VS","Schweiz","CH"
1965,"Chandolin-près-Savièse","Wallis","VS","Schweiz","CH"
1965,"Drône VS","Wallis","VS","Schweiz","CH"
1965,"Roumaz (Savièse)","Wallis","VS","Schweiz","CH"
1965,"Granois (Savièse)","Wallis","VS","Schweiz","CH"
1965,"St-Germain (Savièse)","Wallis","VS","Schweiz","CH"
1965,"Ormône (Savièse)","Wallis","VS","Schweiz","CH"
1965,"Mayens-de-la-Zour (Savièse)","Wallis","VS","Schweiz","CH"
1965,"Monteiller-Savièse","Wallis","VS","Schweiz","CH"
1965,"Savièse","Wallis","VS","Schweiz","CH"
1966,"Signèse (Ayent)","Wallis","VS","Schweiz","CH"
1966,"Fortunau (Ayent)","Wallis","VS","Schweiz","CH"
1966,"Luc (Ayent)","Wallis","VS","Schweiz","CH"
1966,"St-Romain (Ayent)","Wallis","VS","Schweiz","CH"
1966,"Saxonne (Ayent)","Wallis","VS","Schweiz","CH"
1966,"Villa (Ayent)","Wallis","VS","Schweiz","CH"
1966,"La Place (Ayent)","Wallis","VS","Schweiz","CH"
1966,"Botyre (Ayent)","Wallis","VS","Schweiz","CH"
1966,"Blignoud (Ayent)","Wallis","VS","Schweiz","CH"
1966,"Argnoud (Ayent)","Wallis","VS","Schweiz","CH"
1967,"Bramois","Wallis","VS","Schweiz","CH"
1968,"Mase","Wallis","VS","Schweiz","CH"
1969,"Liez (St-Martin)","Wallis","VS","Schweiz","CH"
1969,"Trogne (St-Martin)","Wallis","VS","Schweiz","CH"
1969,"Suen (St-Martin)","Wallis","VS","Schweiz","CH"
1969,"Eison (St.Martin)","Wallis","VS","Schweiz","CH"
1969,"St-Martin VS","Wallis","VS","Schweiz","CH"
1971,"Champlan (Grimisuat)","Wallis","VS","Schweiz","CH"
1971,"Coméraz (Grimisuat)","Wallis","VS","Schweiz","CH"
1971,"Grimisuat","Wallis","VS","Schweiz","CH"
1972,"Anzère","Wallis","VS","Schweiz","CH"
1973,"Nax","Wallis","VS","Schweiz","CH"
1974,"Arbaz","Wallis","VS","Schweiz","CH"
1975,"St-Séverin","Wallis","VS","Schweiz","CH"
1976,"Aven","Wallis","VS","Schweiz","CH"
1976,"Daillon","Wallis","VS","Schweiz","CH"
1976,"Erde","Wallis","VS","Schweiz","CH"
1977,"Icogne","Wallis","VS","Schweiz","CH"
1978,"Lens","Wallis","VS","Schweiz","CH"
1981,"Vex","Wallis","VS","Schweiz","CH"
1982,"Euseigne","Wallis","VS","Schweiz","CH"
1983,"Lana (Evolène)","Wallis","VS","Schweiz","CH"
1983,"Evolène","Wallis","VS","Schweiz","CH"
1984,"Les Haudères","Wallis","VS","Schweiz","CH"
1985,"La Sage","Wallis","VS","Schweiz","CH"
1986,"Arolla","Wallis","VS","Schweiz","CH"
1987,"Mâche","Wallis","VS","Schweiz","CH"
1987,"Hérémence","Wallis","VS","Schweiz","CH"
1988,"Les Collons","Wallis","VS","Schweiz","CH"
1988,"Thyon","Wallis","VS","Schweiz","CH"
1991,"Arvillard (Salins)","Wallis","VS","Schweiz","CH"
1991,"Pravidondaz (Salins)","Wallis","VS","Schweiz","CH"
1991,"Turin (Salins)","Wallis","VS","Schweiz","CH"
1991,"Misériez (Salins)","Wallis","VS","Schweiz","CH"
1991,"Salins","Wallis","VS","Schweiz","CH"
1992,"Les Agettes","Wallis","VS","Schweiz","CH"
1992,"Les Mayens-de-Sion","Wallis","VS","Schweiz","CH"
1992,"La Vernaz (Les Agettes)","Wallis","VS","Schweiz","CH"
1992,"Crête-à-l'Oeil(Les Agettes)","Wallis","VS","Schweiz","CH"
1993,"Clèbes (Nendaz)","Wallis","VS","Schweiz","CH"
1993,"Veysonnaz","Wallis","VS","Schweiz","CH"
1994,"Aproz (Nendaz)","Wallis","VS","Schweiz","CH"
1996,"Fey (Nendaz)","Wallis","VS","Schweiz","CH"
1996,"Beuson (Nendaz)","Wallis","VS","Schweiz","CH"
1996,"Baar (Nendaz)","Wallis","VS","Schweiz","CH"
1996,"Brignon (Nendaz)","Wallis","VS","Schweiz","CH"
1996,"Bioley-de-Brignon (Nendaz)","Wallis","VS","Schweiz","CH"
1996,"Bieudron (Nendaz)","Wallis","VS","Schweiz","CH"
1996,"Condémines (Nendaz)","Wallis","VS","Schweiz","CH"
1996,"Saclentz (Nendaz)","Wallis","VS","Schweiz","CH"
1996,"Basse-Nendaz","Wallis","VS","Schweiz","CH"
1997,"Siviez (Nendaz)","Wallis","VS","Schweiz","CH"
1997,"Haute-Nendaz","Wallis","VS","Schweiz","CH"
2000,"Neuchâtel","Neuenburg","NE","Schweiz","CH"
2012,"Auvernier","Neuenburg","NE","Schweiz","CH"
2013,"Colombier NE","Neuenburg","NE","Schweiz","CH"
2014,"Bôle","Neuenburg","NE","Schweiz","CH"
2015,"Areuse","Neuenburg","NE","Schweiz","CH"
2016,"Cortaillod","Neuenburg","NE","Schweiz","CH"
2017,"Boudry","Neuenburg","NE","Schweiz","CH"
2019,"Chambrelien","Neuenburg","NE","Schweiz","CH"
2019,"Rochefort","Neuenburg","NE","Schweiz","CH"
2022,"Bevaix","Neuenburg","NE","Schweiz","CH"
2023,"Gorgier","Neuenburg","NE","Schweiz","CH"
2024,"St-Aubin-Sauges","Neuenburg","NE","Schweiz","CH"
2025,"Chez-le-Bart","Neuenburg","NE","Schweiz","CH"
2027,"Montalchez","Neuenburg","NE","Schweiz","CH"
2027,"Fresens","Neuenburg","NE","Schweiz","CH"
2028,"Vaumarcus","Neuenburg","NE","Schweiz","CH"
2034,"Peseux","Neuenburg","NE","Schweiz","CH"
2035,"Corcelles NE","Neuenburg","NE","Schweiz","CH"
2036,"Cormondrèche","Neuenburg","NE","Schweiz","CH"
2037,"Montmollin","Neuenburg","NE","Schweiz","CH"
2037,"Montezillon","Neuenburg","NE","Schweiz","CH"
2042,"Valangin","Neuenburg","NE","Schweiz","CH"
2043,"Boudevilliers","Neuenburg","NE","Schweiz","CH"
2046,"Fontaines NE","Neuenburg","NE","Schweiz","CH"
2052,"La Vue-des-Alpes","Neuenburg","NE","Schweiz","CH"
2052,"Fontainemelon","Neuenburg","NE","Schweiz","CH"
2053,"Cernier","Neuenburg","NE","Schweiz","CH"
2054,"Les Vieux-Prés","Neuenburg","NE","Schweiz","CH"
2054,"Chézard-St-Martin","Neuenburg","NE","Schweiz","CH"
2056,"Dombresson","Neuenburg","NE","Schweiz","CH"
2057,"Villiers","Neuenburg","NE","Schweiz","CH"
2058,"Le Pâquier NE","Neuenburg","NE","Schweiz","CH"
2063,"Engollon","Neuenburg","NE","Schweiz","CH"
2063,"Fenin","Neuenburg","NE","Schweiz","CH"
2063,"Saules","Neuenburg","NE","Schweiz","CH"
2063,"Vilars NE","Neuenburg","NE","Schweiz","CH"
2065,"Savagnier","Neuenburg","NE","Schweiz","CH"
2067,"Chaumont","Neuenburg","NE","Schweiz","CH"
2068,"Hauterive NE","Neuenburg","NE","Schweiz","CH"
2072,"St-Blaise","Neuenburg","NE","Schweiz","CH"
2073,"Enges","Neuenburg","NE","Schweiz","CH"
2074,"Marin-Epagnier","Neuenburg","NE","Schweiz","CH"
2075,"Thielle","Neuenburg","NE","Schweiz","CH"
2075,"Wavre","Neuenburg","NE","Schweiz","CH"
2087,"Cornaux NE","Neuenburg","NE","Schweiz","CH"
2088,"Cressier NE","Neuenburg","NE","Schweiz","CH"
2103,"Noiraigue","Neuenburg","NE","Schweiz","CH"
2105,"Travers","Neuenburg","NE","Schweiz","CH"
2108,"Couvet","Neuenburg","NE","Schweiz","CH"
2112,"Môtiers NE","Neuenburg","NE","Schweiz","CH"
2113,"Boveresse","Neuenburg","NE","Schweiz","CH"
2114,"Fleurier","Neuenburg","NE","Schweiz","CH"
2115,"Buttes","Neuenburg","NE","Schweiz","CH"
2116,"Mont-de-Buttes","Neuenburg","NE","Schweiz","CH"
2117,"La Côte-aux-Fées","Neuenburg","NE","Schweiz","CH"
2123,"St-Sulpice NE","Neuenburg","NE","Schweiz","CH"
2124,"Les Sagnettes","Neuenburg","NE","Schweiz","CH"
2126,"Les Verrières","Neuenburg","NE","Schweiz","CH"
2127,"Les Bayards","Neuenburg","NE","Schweiz","CH"
2149,"Champ-du-Moulin","Neuenburg","NE","Schweiz","CH"
2149,"Fretereules","Neuenburg","NE","Schweiz","CH"
2149,"Brot-Dessous","Neuenburg","NE","Schweiz","CH"
2206,"Les Geneveys-sur-Coffrane","Neuenburg","NE","Schweiz","CH"
2207,"Coffrane","Neuenburg","NE","Schweiz","CH"
2208,"Les Hauts-Geneveys","Neuenburg","NE","Schweiz","CH"
2300,"La Chaux-de-Fonds","Neuenburg","NE","Schweiz","CH"
2300,"La Cibourg","Neuenburg","NE","Schweiz","CH"
2314,"La Sagne NE","Neuenburg","NE","Schweiz","CH"
2316,"Petit-Martel","Neuenburg","NE","Schweiz","CH"
2316,"Les Ponts-de-Martel","Neuenburg","NE","Schweiz","CH"
2318,"Brot-Plamboz","Neuenburg","NE","Schweiz","CH"
2322,"Le Crêt-du-Locle","Neuenburg","NE","Schweiz","CH"
2325,"Les Planchettes","Neuenburg","NE","Schweiz","CH"
2325,"Les Joux-Derrière","Neuenburg","NE","Schweiz","CH"
2333,"La Cibourg","Bern","BE","Schweiz","CH"
2333,"La Ferrière","Bern","BE","Schweiz","CH"
2336,"Les Bois","Jura","JU","Schweiz","CH"
2338,"Les Emibois","Jura","JU","Schweiz","CH"
2338,"Muriaux","Jura","JU","Schweiz","CH"
2340,"Le Noirmont","Jura","JU","Schweiz","CH"
2345,"Le Cerneux-Veusil","Jura","JU","Schweiz","CH"
2345,"La Chaux-des-Breuleux","Jura","JU","Schweiz","CH"
2345,"Les Breuleux","Jura","JU","Schweiz","CH"
2350,"Saignelégier","Jura","JU","Schweiz","CH"
2353,"Les Pommerats","Jura","JU","Schweiz","CH"
2354,"Goumois","Jura","JU","Schweiz","CH"
2360,"Le Bémont","Jura","JU","Schweiz","CH"
2362,"Montfavergier","Jura","JU","Schweiz","CH"
2362,"Montfaucon","Jura","JU","Schweiz","CH"
2363,"Les Enfers","Jura","JU","Schweiz","CH"
2364,"St-Brais","Jura","JU","Schweiz","CH"
2400,"Le Prévoux","Neuenburg","NE","Schweiz","CH"
2400,"Le Locle","Neuenburg","NE","Schweiz","CH"
2405,"La Chaux-du-Milieu","Neuenburg","NE","Schweiz","CH"
2406,"Le Brouillet","Neuenburg","NE","Schweiz","CH"
2406,"Les Taillères","Neuenburg","NE","Schweiz","CH"
2406,"La Châtagne","Neuenburg","NE","Schweiz","CH"
2406,"La Brévine","Neuenburg","NE","Schweiz","CH"
2414,"Le Cerneux-Péquignot","Neuenburg","NE","Schweiz","CH"
2416,"Les Brenets","Neuenburg","NE","Schweiz","CH"
2500,"Biel/Bienne","Bern","BE","Schweiz","CH"
2502,"Biel/Bienne","Bern","BE","Schweiz","CH"
2503,"Biel/Bienne","Bern","BE","Schweiz","CH"
2504,"Biel/Bienne","Bern","BE","Schweiz","CH"
2505,"Biel/Bienne","Bern","BE","Schweiz","CH"
2512,"Tüscherz-Alfermée","Bern","BE","Schweiz","CH"
2513,"Twann","Bern","BE","Schweiz","CH"
2514,"Ligerz","Bern","BE","Schweiz","CH"
2515,"Prêles","Bern","BE","Schweiz","CH"
2516,"Lamboing","Bern","BE","Schweiz","CH"
2517,"Diesse","Bern","BE","Schweiz","CH"
2518,"Nods","Bern","BE","Schweiz","CH"
2520,"La Neuveville","Bern","BE","Schweiz","CH"
2523,"Lignières","Neuenburg","NE","Schweiz","CH"
2525,"Le Landeron","Neuenburg","NE","Schweiz","CH"
2532,"Magglingen/Macolin","Bern","BE","Schweiz","CH"
2533,"Evilard","Bern","BE","Schweiz","CH"
2534,"Les Prés-d'Orvin","Bern","BE","Schweiz","CH"
2534,"Orvin","Bern","BE","Schweiz","CH"
2535,"Frinvillier","Bern","BE","Schweiz","CH"
2536,"Plagne","Bern","BE","Schweiz","CH"
2537,"Vauffelin","Bern","BE","Schweiz","CH"
2538,"Romont BE","Bern","BE","Schweiz","CH"
2540,"Grenchen","Solothurn","SO","Schweiz","CH"
2542,"Pieterlen","Bern","BE","Schweiz","CH"
2543,"Lengnau BE","Bern","BE","Schweiz","CH"
2544,"Bettlach","Solothurn","SO","Schweiz","CH"
2545,"Selzach","Solothurn","SO","Schweiz","CH"
2552,"Orpund","Bern","BE","Schweiz","CH"
2553,"Safnern","Bern","BE","Schweiz","CH"
2554,"Meinisberg","Bern","BE","Schweiz","CH"
2555,"Brügg BE","Bern","BE","Schweiz","CH"
2556,"Scheuren","Bern","BE","Schweiz","CH"
2556,"Schwadernau","Bern","BE","Schweiz","CH"
2557,"Studen BE","Bern","BE","Schweiz","CH"
2558,"Aegerten","Bern","BE","Schweiz","CH"
2560,"Nidau","Bern","BE","Schweiz","CH"
2562,"Port","Bern","BE","Schweiz","CH"
2563,"Ipsach","Bern","BE","Schweiz","CH"
2564,"Bellmund","Bern","BE","Schweiz","CH"
2565,"Jens","Bern","BE","Schweiz","CH"
2572,"Mörigen","Bern","BE","Schweiz","CH"
2572,"Sutz","Bern","BE","Schweiz","CH"
2575,"Hagneck","Bern","BE","Schweiz","CH"
2575,"Gerolfingen","Bern","BE","Schweiz","CH"
2575,"Täuffelen","Bern","BE","Schweiz","CH"
2576,"Lüscherz","Bern","BE","Schweiz","CH"
2577,"Finsterhennen","Bern","BE","Schweiz","CH"
2577,"Siselen BE","Bern","BE","Schweiz","CH"
2603,"Péry","Bern","BE","Schweiz","CH"
2604,"La Heutte","Bern","BE","Schweiz","CH"
2605,"Sonceboz-Sombeval","Bern","BE","Schweiz","CH"
2606,"Corgémont","Bern","BE","Schweiz","CH"
2607,"Cortébert","Bern","BE","Schweiz","CH"
2608,"Montagne-de-Courtelary","Bern","BE","Schweiz","CH"
2608,"Courtelary","Bern","BE","Schweiz","CH"
2610,"Mont-Soleil","Bern","BE","Schweiz","CH"
2610,"Mont-Crosin","Bern","BE","Schweiz","CH"
2610,"Les Pontins","Bern","BE","Schweiz","CH"
2610,"St-Imier","Bern","BE","Schweiz","CH"
2612,"Cormoret","Bern","BE","Schweiz","CH"
2613,"Villeret","Bern","BE","Schweiz","CH"
2615,"Montagne-de-Sonvilier","Bern","BE","Schweiz","CH"
2615,"Sonvilier","Bern","BE","Schweiz","CH"
2616,"La Cibourg","Bern","BE","Schweiz","CH"
2616,"Renan BE","Bern","BE","Schweiz","CH"
2710,"Tavannes","Bern","BE","Schweiz","CH"
2712,"Le Fuet","Bern","BE","Schweiz","CH"
2713,"Bellelay","Bern","BE","Schweiz","CH"
2714,"Le Prédame","Jura","JU","Schweiz","CH"
2714,"Les Genevez JU","Jura","JU","Schweiz","CH"
2715,"Monible","Bern","BE","Schweiz","CH"
2715,"Châtelat","Bern","BE","Schweiz","CH"
2716,"Sornetan","Bern","BE","Schweiz","CH"
2717,"Fornet-Dessous","Bern","BE","Schweiz","CH"
2717,"Rebévelier","Bern","BE","Schweiz","CH"
2718,"Fornet-Dessus","Jura","JU","Schweiz","CH"
2718,"Lajoux JU","Jura","JU","Schweiz","CH"
2720,"La Tanne","Bern","BE","Schweiz","CH"
2720,"Tramelan","Bern","BE","Schweiz","CH"
2722,"Les Reussilles","Bern","BE","Schweiz","CH"
2723,"Mont-Tramelan","Bern","BE","Schweiz","CH"
2732,"Saicourt","Bern","BE","Schweiz","CH"
2732,"Saules BE","Bern","BE","Schweiz","CH"
2732,"Loveresse","Bern","BE","Schweiz","CH"
2732,"Reconvilier","Bern","BE","Schweiz","CH"
2733,"Pontenet","Bern","BE","Schweiz","CH"
2735,"Bévilard","Bern","BE","Schweiz","CH"
2735,"Champoz","Bern","BE","Schweiz","CH"
2735,"Malleray","Bern","BE","Schweiz","CH"
2736,"Sorvilier","Bern","BE","Schweiz","CH"
2738,"Court","Bern","BE","Schweiz","CH"
2740,"Moutier","Bern","BE","Schweiz","CH"
2742,"Perrefitte","Bern","BE","Schweiz","CH"
2743,"Eschert","Bern","BE","Schweiz","CH"
2744,"Belprahon","Bern","BE","Schweiz","CH"
2745,"Grandval","Bern","BE","Schweiz","CH"
2746,"Crémines","Bern","BE","Schweiz","CH"
2747,"Seehof","Bern","BE","Schweiz","CH"
2747,"Corcelles BE","Bern","BE","Schweiz","CH"
2748,"Souboz","Bern","BE","Schweiz","CH"
2748,"Les Ecorcheresses","Bern","BE","Schweiz","CH"
2762,"Roches BE","Bern","BE","Schweiz","CH"
2800,"Delémont","Jura","JU","Schweiz","CH"
2802,"Develier","Jura","JU","Schweiz","CH"
2803,"Bourrignon","Jura","JU","Schweiz","CH"
2805,"Soyhières","Jura","JU","Schweiz","CH"
2806,"Mettembert","Jura","JU","Schweiz","CH"
2807,"Lucelle","Jura","JU","Schweiz","CH"
2807,"Pleigne","Jura","JU","Schweiz","CH"
2812,"Movelier","Jura","JU","Schweiz","CH"
2813,"Ederswiler","Jura","JU","Schweiz","CH"
2814,"Roggenburg","Basel-Landschaft","BL","Schweiz","CH"
2822,"Courroux","Jura","JU","Schweiz","CH"
2823,"Courcelon","Jura","JU","Schweiz","CH"
2824,"Vicques","Jura","JU","Schweiz","CH"
2825,"Courchapoix","Jura","JU","Schweiz","CH"
2826,"Corban","Jura","JU","Schweiz","CH"
2827,"Schelten","Bern","BE","Schweiz","CH"
2827,"Mervelier","Jura","JU","Schweiz","CH"
2828,"Montsevelier","Jura","JU","Schweiz","CH"
2829,"Vermes","Jura","JU","Schweiz","CH"
2830,"Vellerat","Jura","JU","Schweiz","CH"
2830,"Courrendlin","Jura","JU","Schweiz","CH"
2832,"Rebeuvelier","Jura","JU","Schweiz","CH"
2842,"Rossemaison","Jura","JU","Schweiz","CH"
2843,"Châtillon JU","Jura","JU","Schweiz","CH"
2852,"Courtételle","Jura","JU","Schweiz","CH"
2853,"Courfaivre","Jura","JU","Schweiz","CH"
2854,"Bassecourt","Jura","JU","Schweiz","CH"
2855,"Glovelier","Jura","JU","Schweiz","CH"
2856,"Boécourt","Jura","JU","Schweiz","CH"
2857,"Montavon","Jura","JU","Schweiz","CH"
2863,"Undervelier","Jura","JU","Schweiz","CH"
2864,"Soulce","Jura","JU","Schweiz","CH"
2873,"Saulcy","Jura","JU","Schweiz","CH"
2874,"Montfavergier","Jura","JU","Schweiz","CH"
2874,"St-Brais","Jura","JU","Schweiz","CH"
2875,"Les Enfers","Jura","JU","Schweiz","CH"
2875,"Montfaucon","Jura","JU","Schweiz","CH"
2877,"Le Bémont JU","Jura","JU","Schweiz","CH"
2882,"St-Ursanne","Jura","JU","Schweiz","CH"
2883,"Montmelon","Jura","JU","Schweiz","CH"
2884,"Montenol","Jura","JU","Schweiz","CH"
2885,"Epauvillers","Jura","JU","Schweiz","CH"
2886,"Epiquerez","Jura","JU","Schweiz","CH"
2887,"Soubey","Jura","JU","Schweiz","CH"
2888,"Seleute","Jura","JU","Schweiz","CH"
2889,"Ocourt","Jura","JU","Schweiz","CH"
2900,"Porrentruy","Jura","JU","Schweiz","CH"
2902,"Fontenais","Jura","JU","Schweiz","CH"
2903,"Villars-sur Fontenais","Jura","JU","Schweiz","CH"
2904,"Bressaucourt","Jura","JU","Schweiz","CH"
2905,"Courtedoux","Jura","JU","Schweiz","CH"
2906,"Chevenez","Jura","JU","Schweiz","CH"
2907,"Rocourt","Jura","JU","Schweiz","CH"
2908,"Grandfontaine","Jura","JU","Schweiz","CH"
2912,"Roche-d'Or","Jura","JU","Schweiz","CH"
2912,"Réclère","Jura","JU","Schweiz","CH"
2914,"Damvant","Jura","JU","Schweiz","CH"
2915,"Bure","Jura","JU","Schweiz","CH"
2916,"Fahy","Jura","JU","Schweiz","CH"
2922,"Courchavon","Jura","JU","Schweiz","CH"
2923,"Courtemaîche","Jura","JU","Schweiz","CH"
2924,"Montignez","Jura","JU","Schweiz","CH"
2925,"Buix","Jura","JU","Schweiz","CH"
2926,"Boncourt","Jura","JU","Schweiz","CH"
2932,"Coeuve","Jura","JU","Schweiz","CH"
2933,"Damphreux","Jura","JU","Schweiz","CH"
2933,"Lugnez","Jura","JU","Schweiz","CH"
2935,"Beurnevésin","Jura","JU","Schweiz","CH"
2942,"Alle","Jura","JU","Schweiz","CH"
2943,"Vendlincourt","Jura","JU","Schweiz","CH"
2944,"Bonfol","Jura","JU","Schweiz","CH"
2946,"Miécourt","Jura","JU","Schweiz","CH"
2947,"Charmoille","Jura","JU","Schweiz","CH"
2950,"Courtemautruy","Jura","JU","Schweiz","CH"
2950,"Courgenay","Jura","JU","Schweiz","CH"
2952,"Cornol","Jura","JU","Schweiz","CH"
2953,"Fregiécourt","Jura","JU","Schweiz","CH"
2953,"Pleujouse","Jura","JU","Schweiz","CH"
2954,"Asuel","Jura","JU","Schweiz","CH"
3000,"Bern","Bern","BE","Schweiz","CH"
3004,"Bern","Bern","BE","Schweiz","CH"
3005,"Bern","Bern","BE","Schweiz","CH"
3006,"Bern","Bern","BE","Schweiz","CH"
3007,"Bern","Bern","BE","Schweiz","CH"
3008,"Bern","Bern","BE","Schweiz","CH"
3010,"Bern","Bern","BE","Schweiz","CH"
3011,"Bern","Bern","BE","Schweiz","CH"
3012,"Bern","Bern","BE","Schweiz","CH"
3013,"Bern","Bern","BE","Schweiz","CH"
3014,"Bern","Bern","BE","Schweiz","CH"
3015,"Bern","Bern","BE","Schweiz","CH"
3018,"Bern","Bern","BE","Schweiz","CH"
3019,"Bern","Bern","BE","Schweiz","CH"
3020,"Bern","Bern","BE","Schweiz","CH"
3027,"Bern","Bern","BE","Schweiz","CH"
3032,"Hinterkappelen","Bern","BE","Schweiz","CH"
3033,"Wohlen b. Bern","Bern","BE","Schweiz","CH"
3034,"Murzelen","Bern","BE","Schweiz","CH"
3035,"Frieswil","Bern","BE","Schweiz","CH"
3036,"Detligen","Bern","BE","Schweiz","CH"
3037,"Herrenschwanden","Bern","BE","Schweiz","CH"
3038,"Kirchlindach","Bern","BE","Schweiz","CH"
3042,"Ortschwaben","Bern","BE","Schweiz","CH"
3043,"Uettligen","Bern","BE","Schweiz","CH"
3044,"Innerberg","Bern","BE","Schweiz","CH"
3045,"Meikirch","Bern","BE","Schweiz","CH"
3046,"Wahlendorf","Bern","BE","Schweiz","CH"
3047,"Bremgarten b. Bern","Bern","BE","Schweiz","CH"
3048,"Worblaufen","Bern","BE","Schweiz","CH"
3049,"Säriswil","Bern","BE","Schweiz","CH"
3052,"Zollikofen","Bern","BE","Schweiz","CH"
3053,"Deisswil b. Münchenbuchsee","Bern","BE","Schweiz","CH"
3053,"Diemerswil","Bern","BE","Schweiz","CH"
3053,"Wiggiswil","Bern","BE","Schweiz","CH"
3053,"Lätti","Bern","BE","Schweiz","CH"
3053,"Münchenbuchsee","Bern","BE","Schweiz","CH"
3054,"Schüpfen","Bern","BE","Schweiz","CH"
3063,"Ittigen","Bern","BE","Schweiz","CH"
3065,"Bolligen","Bern","BE","Schweiz","CH"
3066,"Stettlen","Bern","BE","Schweiz","CH"
3067,"Boll","Bern","BE","Schweiz","CH"
3068,"Utzigen","Bern","BE","Schweiz","CH"
3072,"Ostermundigen","Bern","BE","Schweiz","CH"
3073,"Gümligen","Bern","BE","Schweiz","CH"
3074,"Muri b. Bern","Bern","BE","Schweiz","CH"
3075,"Rüfenacht BE","Bern","BE","Schweiz","CH"
3076,"Worb","Bern","BE","Schweiz","CH"
3077,"Enggistein","Bern","BE","Schweiz","CH"
3078,"Richigen","Bern","BE","Schweiz","CH"
3082,"Schlosswil","Bern","BE","Schweiz","CH"
3083,"Trimstein","Bern","BE","Schweiz","CH"
3084,"Wabern","Bern","BE","Schweiz","CH"
3086,"Englisberg","Bern","BE","Schweiz","CH"
3086,"Zimmerwald","Bern","BE","Schweiz","CH"
3087,"Niedermuhlern","Bern","BE","Schweiz","CH"
3088,"Oberbütschel","Bern","BE","Schweiz","CH"
3088,"Rüeggisberg","Bern","BE","Schweiz","CH"
3089,"Hinterfultigen","Bern","BE","Schweiz","CH"
3095,"Spiegel b. Bern","Bern","BE","Schweiz","CH"
3096,"Oberbalm","Bern","BE","Schweiz","CH"
3097,"Liebefeld","Bern","BE","Schweiz","CH"
3098,"Köniz","Bern","BE","Schweiz","CH"
3098,"Schliern b. Köniz","Bern","BE","Schweiz","CH"
3099,"Rüti b. Riggisberg","Bern","BE","Schweiz","CH"
3110,"Münsingen","Bern","BE","Schweiz","CH"
3111,"Tägertschi","Bern","BE","Schweiz","CH"
3112,"Allmendingen b. Bern","Bern","BE","Schweiz","CH"
3113,"Rubigen","Bern","BE","Schweiz","CH"
3114,"Wichtrach","Bern","BE","Schweiz","CH"
3115,"Gerzensee","Bern","BE","Schweiz","CH"
3116,"Mühledorf BE","Bern","BE","Schweiz","CH"
3116,"Noflen BE","Bern","BE","Schweiz","CH"
3116,"Kirchdorf BE","Bern","BE","Schweiz","CH"
3122,"Kehrsatz","Bern","BE","Schweiz","CH"
3123,"Belp","Bern","BE","Schweiz","CH"
3124,"Belpberg","Bern","BE","Schweiz","CH"
3125,"Toffen","Bern","BE","Schweiz","CH"
3126,"Gelterfingen","Bern","BE","Schweiz","CH"
3126,"Kaufdorf","Bern","BE","Schweiz","CH"
3127,"Lohnstorf","Bern","BE","Schweiz","CH"
3127,"Mühlethurnen","Bern","BE","Schweiz","CH"
3128,"Kirchenthurnen","Bern","BE","Schweiz","CH"
3128,"Rümligen","Bern","BE","Schweiz","CH"
3132,"Riggisberg","Bern","BE","Schweiz","CH"
3144,"Gasel","Bern","BE","Schweiz","CH"
3145,"Niederscherli","Bern","BE","Schweiz","CH"
3147,"Mittelhäusern","Bern","BE","Schweiz","CH"
3148,"Lanzenhäusern","Bern","BE","Schweiz","CH"
3150,"Schwarzenburg","Bern","BE","Schweiz","CH"
3152,"Mamishaus","Bern","BE","Schweiz","CH"
3153,"Rüschegg Gambach","Bern","BE","Schweiz","CH"
3154,"Rüschegg Heubach","Bern","BE","Schweiz","CH"
3155,"Helgisried-Rohrbach","Bern","BE","Schweiz","CH"
3156,"Riffenmatt","Bern","BE","Schweiz","CH"
3157,"Milken","Bern","BE","Schweiz","CH"
3158,"Guggisberg","Bern","BE","Schweiz","CH"
3159,"Riedstätt","Bern","BE","Schweiz","CH"
3172,"Niederwangen b. Bern","Bern","BE","Schweiz","CH"
3173,"Oberwangen b. Bern","Bern","BE","Schweiz","CH"
3174,"Thörishaus","Bern","BE","Schweiz","CH"
3175,"Flamatt","Freiburg","FR","Schweiz","CH"
3176,"Neuenegg","Bern","BE","Schweiz","CH"
3177,"Laupen BE","Bern","BE","Schweiz","CH"
3178,"Bösingen","Freiburg","FR","Schweiz","CH"
3179,"Kriechenwil","Bern","BE","Schweiz","CH"
3182,"Ueberstorf","Freiburg","FR","Schweiz","CH"
3183,"Albligen","Bern","BE","Schweiz","CH"
3184,"Wünnewil","Freiburg","FR","Schweiz","CH"
3185,"Schmitten FR","Freiburg","FR","Schweiz","CH"
3186,"Düdingen","Freiburg","FR","Schweiz","CH"
3202,"Frauenkappelen","Bern","BE","Schweiz","CH"
3203,"Mühleberg","Bern","BE","Schweiz","CH"
3204,"Rosshäusern","Bern","BE","Schweiz","CH"
3205,"Gümmenen","Bern","BE","Schweiz","CH"
3206,"Rizenbach","Bern","BE","Schweiz","CH"
3206,"Ferenbalm","Bern","BE","Schweiz","CH"
3206,"Biberen","Bern","BE","Schweiz","CH"
3206,"Gammen","Bern","BE","Schweiz","CH"
3206,"Wallenbuch","Freiburg","FR","Schweiz","CH"
3207,"Wileroltigen","Bern","BE","Schweiz","CH"
3207,"Golaten","Bern","BE","Schweiz","CH"
3208,"Gurbrü","Bern","BE","Schweiz","CH"
3210,"Kerzers","Freiburg","FR","Schweiz","CH"
3212,"Kleingurmels","Freiburg","FR","Schweiz","CH"
3212,"Gurmels","Freiburg","FR","Schweiz","CH"
3213,"Liebistorf","Freiburg","FR","Schweiz","CH"
3213,"Kleinbösingen","Freiburg","FR","Schweiz","CH"
3214,"Ulmiz","Freiburg","FR","Schweiz","CH"
3215,"Gempenach","Freiburg","FR","Schweiz","CH"
3215,"Büchslen","Freiburg","FR","Schweiz","CH"
3215,"Lurtigen","Freiburg","FR","Schweiz","CH"
3216,"Agriswil","Freiburg","FR","Schweiz","CH"
3216,"Ried b. Kerzers","Freiburg","FR","Schweiz","CH"
3225,"Müntschemier","Bern","BE","Schweiz","CH"
3226,"Treiten","Bern","BE","Schweiz","CH"
3232,"Ins","Bern","BE","Schweiz","CH"
3233,"Tschugg","Bern","BE","Schweiz","CH"
3234,"Vinelz","Bern","BE","Schweiz","CH"
3235,"Erlach","Bern","BE","Schweiz","CH"
3236,"Gampelen","Bern","BE","Schweiz","CH"
3237,"Brüttelen","Bern","BE","Schweiz","CH"
3238,"Gals","Bern","BE","Schweiz","CH"
3250,"Lyss","Bern","BE","Schweiz","CH"
3251,"Ruppoldsried","Bern","BE","Schweiz","CH"
3251,"Wengi b. Büren","Bern","BE","Schweiz","CH"
3252,"Worben","Bern","BE","Schweiz","CH"
3253,"Schnottwil","Solothurn","SO","Schweiz","CH"
3254,"Balm b. Messen","Solothurn","SO","Schweiz","CH"
3254,"Messen","Solothurn","SO","Schweiz","CH"
3255,"Rapperswil BE","Bern","BE","Schweiz","CH"
3256,"Dieterswil","Bern","BE","Schweiz","CH"
3256,"Bangerten b. Dieterswil","Bern","BE","Schweiz","CH"
3256,"Seewil","Bern","BE","Schweiz","CH"
3257,"Ammerzwil BE","Bern","BE","Schweiz","CH"
3257,"Grossaffoltern","Bern","BE","Schweiz","CH"
3262,"Suberg","Bern","BE","Schweiz","CH"
3263,"Büetigen","Bern","BE","Schweiz","CH"
3264,"Diessbach b. Büren","Bern","BE","Schweiz","CH"
3266,"Wiler b. Seedorf","Bern","BE","Schweiz","CH"
3267,"Seedorf BE","Bern","BE","Schweiz","CH"
3268,"Lobsigen","Bern","BE","Schweiz","CH"
3270,"Aarberg","Bern","BE","Schweiz","CH"
3271,"Radelfingen b. Aarberg","Bern","BE","Schweiz","CH"
3272,"Epsach","Bern","BE","Schweiz","CH"
3272,"Walperswil","Bern","BE","Schweiz","CH"
3273,"Kappelen","Bern","BE","Schweiz","CH"
3274,"Hermrigen","Bern","BE","Schweiz","CH"
3274,"Bühl b. Aarberg","Bern","BE","Schweiz","CH"
3274,"Merzligen","Bern","BE","Schweiz","CH"
3280,"Meyriez","Freiburg","FR","Schweiz","CH"
3280,"Greng","Freiburg","FR","Schweiz","CH"
3280,"Murten","Freiburg","FR","Schweiz","CH"
3282,"Bargen BE","Bern","BE","Schweiz","CH"
3283,"Niederried b. Kallnach","Bern","BE","Schweiz","CH"
3283,"Kallnach","Bern","BE","Schweiz","CH"
3284,"Fräschels","Freiburg","FR","Schweiz","CH"
3285,"Galmiz","Freiburg","FR","Schweiz","CH"
3286,"Muntelier","Freiburg","FR","Schweiz","CH"
3292,"Busswil b. Büren","Bern","BE","Schweiz","CH"
3293,"Dotzigen","Bern","BE","Schweiz","CH"
3294,"Meienried","Bern","BE","Schweiz","CH"
3294,"Büren an der Aare","Bern","BE","Schweiz","CH"
3295,"Rüti b. Büren","Bern","BE","Schweiz","CH"
3296,"Arch","Bern","BE","Schweiz","CH"
3297,"Leuzigen","Bern","BE","Schweiz","CH"
3298,"Oberwil b. Büren","Bern","BE","Schweiz","CH"
3302,"Moosseedorf","Bern","BE","Schweiz","CH"
3303,"Zuzwil BE","Bern","BE","Schweiz","CH"
3303,"Ballmoos","Bern","BE","Schweiz","CH"
3303,"Münchringen","Bern","BE","Schweiz","CH"
3303,"Jegenstorf","Bern","BE","Schweiz","CH"
3305,"Iffwil","Bern","BE","Schweiz","CH"
3305,"Scheunen","Bern","BE","Schweiz","CH"
3306,"Etzelkofen","Bern","BE","Schweiz","CH"
3307,"Brunnenthal","Solothurn","SO","Schweiz","CH"
3308,"Grafenried","Bern","BE","Schweiz","CH"
3309,"Kernenried","Bern","BE","Schweiz","CH"
3309,"Zauggenried","Bern","BE","Schweiz","CH"
3312,"Fraubrunnen","Bern","BE","Schweiz","CH"
3313,"Büren zum Hof","Bern","BE","Schweiz","CH"
3314,"Schalunen","Bern","BE","Schweiz","CH"
3315,"Kräiligen","Bern","BE","Schweiz","CH"
3315,"Bätterkinden","Bern","BE","Schweiz","CH"
3317,"Limpach","Bern","BE","Schweiz","CH"
3317,"Mülchi","Bern","BE","Schweiz","CH"
3322,"Mattstetten","Bern","BE","Schweiz","CH"
3322,"Urtenen-Schönbühl","Bern","BE","Schweiz","CH"
3323,"Bäriswil BE","Bern","BE","Schweiz","CH"
3324,"Mötschwil","Bern","BE","Schweiz","CH"
3324,"Hindelbank","Bern","BE","Schweiz","CH"
3325,"Hettiswil b. Hindelbank","Bern","BE","Schweiz","CH"
3326,"Krauchthal","Bern","BE","Schweiz","CH"
3360,"Herzogenbuchsee","Bern","BE","Schweiz","CH"
3362,"Niederönz","Bern","BE","Schweiz","CH"
3363,"Oberönz","Bern","BE","Schweiz","CH"
3365,"Seeberg","Bern","BE","Schweiz","CH"
3365,"Grasswil","Bern","BE","Schweiz","CH"
3366,"Bettenhausen","Bern","BE","Schweiz","CH"
3366,"Bollodingen","Bern","BE","Schweiz","CH"
3367,"Ochlenberg","Bern","BE","Schweiz","CH"
3367,"Thörigen","Bern","BE","Schweiz","CH"
3368,"Bleienbach","Bern","BE","Schweiz","CH"
3372,"Wanzwil","Bern","BE","Schweiz","CH"
3373,"Heimenhausen","Bern","BE","Schweiz","CH"
3373,"Röthenbach Herzogenbuchsee","Bern","BE","Schweiz","CH"
3374,"Wangenried","Bern","BE","Schweiz","CH"
3375,"Inkwil","Bern","BE","Schweiz","CH"
3376,"Graben","Bern","BE","Schweiz","CH"
3376,"Berken","Bern","BE","Schweiz","CH"
3377,"Walliswil b. Wangen","Bern","BE","Schweiz","CH"
3380,"Walliswil b. Niederbipp","Bern","BE","Schweiz","CH"
3380,"Wangen an der Aare","Bern","BE","Schweiz","CH"
3400,"Burgdorf","Bern","BE","Schweiz","CH"
3412,"Heimiswil","Bern","BE","Schweiz","CH"
3413,"Kaltacker","Bern","BE","Schweiz","CH"
3414,"Oberburg","Bern","BE","Schweiz","CH"
3415,"Schafhausen im Emmental","Bern","BE","Schweiz","CH"
3415,"Rüegsauschachen","Bern","BE","Schweiz","CH"
3415,"Hasle b. Burgdorf","Bern","BE","Schweiz","CH"
3416,"Affoltern im Emmental","Bern","BE","Schweiz","CH"
3417,"Rüegsau","Bern","BE","Schweiz","CH"
3418,"Rüegsbach","Bern","BE","Schweiz","CH"
3419,"Biembach im Emmental","Bern","BE","Schweiz","CH"
3421,"Rüti b. Lyssach","Bern","BE","Schweiz","CH"
3421,"Lyssach","Bern","BE","Schweiz","CH"
3422,"Rüdtligen","Bern","BE","Schweiz","CH"
3422,"Alchenflüh","Bern","BE","Schweiz","CH"
3422,"Kirchberg BE","Bern","BE","Schweiz","CH"
3423,"Ersigen","Bern","BE","Schweiz","CH"
3424,"Niederösch","Bern","BE","Schweiz","CH"
3424,"Oberösch","Bern","BE","Schweiz","CH"
3425,"Willadingen","Bern","BE","Schweiz","CH"
3425,"Koppigen","Bern","BE","Schweiz","CH"
3426,"Aefligen","Bern","BE","Schweiz","CH"
3427,"Utzenstorf","Bern","BE","Schweiz","CH"
3428,"Wiler b. Utzenstorf","Bern","BE","Schweiz","CH"
3429,"Hellsau","Bern","BE","Schweiz","CH"
3429,"Höchstetten","Bern","BE","Schweiz","CH"
3432,"Lützelflüh-Goldbach","Bern","BE","Schweiz","CH"
3433,"Schwanden im Emmental","Bern","BE","Schweiz","CH"
3434,"Obergoldbach","Bern","BE","Schweiz","CH"
3435,"Ramsei","Bern","BE","Schweiz","CH"
3436,"Zollbrück","Bern","BE","Schweiz","CH"
3437,"Rüderswil","Bern","BE","Schweiz","CH"
3438,"Lauperswil","Bern","BE","Schweiz","CH"
3439,"Ranflüh","Bern","BE","Schweiz","CH"
3452,"Grünenmatt","Bern","BE","Schweiz","CH"
3453,"Heimisbach","Bern","BE","Schweiz","CH"
3454,"Sumiswald","Bern","BE","Schweiz","CH"
3455,"Grünen","Bern","BE","Schweiz","CH"
3456,"Trachselwald","Bern","BE","Schweiz","CH"
3457,"Wasen im Emmental","Bern","BE","Schweiz","CH"
3462,"Weier im Emmental","Bern","BE","Schweiz","CH"
3463,"Häusernmoos im Emmental","Bern","BE","Schweiz","CH"
3464,"Schmidigen-Mühleweg","Bern","BE","Schweiz","CH"
3465,"Dürrenroth","Bern","BE","Schweiz","CH"
3472,"Rumendingen","Bern","BE","Schweiz","CH"
3472,"Wynigen","Bern","BE","Schweiz","CH"
3473,"Alchenstorf","Bern","BE","Schweiz","CH"
3474,"Rüedisbach","Bern","BE","Schweiz","CH"
3475,"Riedtwil","Bern","BE","Schweiz","CH"
3475,"Hermiswil","Bern","BE","Schweiz","CH"
3476,"Oschwand","Bern","BE","Schweiz","CH"
3503,"Gysenstein","Bern","BE","Schweiz","CH"
3504,"Niederhünigen","Bern","BE","Schweiz","CH"
3504,"Oberhünigen","Bern","BE","Schweiz","CH"
3506,"Grosshöchstetten","Bern","BE","Schweiz","CH"
3507,"Biglen","Bern","BE","Schweiz","CH"
3508,"Arni BE","Bern","BE","Schweiz","CH"
3510,"Freimettigen","Bern","BE","Schweiz","CH"
3510,"Häutligen","Bern","BE","Schweiz","CH"
3510,"Konolfingen","Bern","BE","Schweiz","CH"
3512,"Walkringen","Bern","BE","Schweiz","CH"
3513,"Bigenthal","Bern","BE","Schweiz","CH"
3531,"Oberthal","Bern","BE","Schweiz","CH"
3532,"Mirchel","Bern","BE","Schweiz","CH"
3532,"Zäziwil","Bern","BE","Schweiz","CH"
3533,"Bowil","Bern","BE","Schweiz","CH"
3534,"Signau","Bern","BE","Schweiz","CH"
3535,"Schüpbach","Bern","BE","Schweiz","CH"
3536,"Aeschau","Bern","BE","Schweiz","CH"
3537,"Eggiwil","Bern","BE","Schweiz","CH"
3538,"Röthenbach im Emmental","Bern","BE","Schweiz","CH"
3543,"Emmenmatt","Bern","BE","Schweiz","CH"
3550,"Langnau im Emmental","Bern","BE","Schweiz","CH"
3551,"Oberfrittenbach","Bern","BE","Schweiz","CH"
3552,"Bärau","Bern","BE","Schweiz","CH"
3553,"Gohl","Bern","BE","Schweiz","CH"
3555,"Trubschachen","Bern","BE","Schweiz","CH"
3556,"Trub","Bern","BE","Schweiz","CH"
3557,"Fankhaus (Trub)","Bern","BE","Schweiz","CH"
3600,"Thun","Bern","BE","Schweiz","CH"
3603,"Thun","Bern","BE","Schweiz","CH"
3604,"Thun","Bern","BE","Schweiz","CH"
3608,"Thun","Bern","BE","Schweiz","CH"
3612,"Steffisburg","Bern","BE","Schweiz","CH"
3613,"Steffisburg","Bern","BE","Schweiz","CH"
3614,"Unterlangenegg","Bern","BE","Schweiz","CH"
3615,"Heimenschwand","Bern","BE","Schweiz","CH"
3616,"Schwarzenegg","Bern","BE","Schweiz","CH"
3617,"Fahrni b. Thun","Bern","BE","Schweiz","CH"
3618,"Süderen","Bern","BE","Schweiz","CH"
3619,"Eriz","Bern","BE","Schweiz","CH"
3619,"Innereriz","Bern","BE","Schweiz","CH"
3622,"Homberg b. Thun","Bern","BE","Schweiz","CH"
3623,"Teuffenthal b. Thun","Bern","BE","Schweiz","CH"
3623,"Horrenbach","Bern","BE","Schweiz","CH"
3623,"Buchen BE","Bern","BE","Schweiz","CH"
3624,"Schwendibach","Bern","BE","Schweiz","CH"
3624,"Goldiwil (Thun)","Bern","BE","Schweiz","CH"
3625,"Heiligenschwendi","Bern","BE","Schweiz","CH"
3626,"Hünibach","Bern","BE","Schweiz","CH"
3627,"Heimberg","Bern","BE","Schweiz","CH"
3628,"Kienersrüti","Bern","BE","Schweiz","CH"
3628,"Uttigen","Bern","BE","Schweiz","CH"
3629,"Oppligen","Bern","BE","Schweiz","CH"
3629,"Jaberg","Bern","BE","Schweiz","CH"
3629,"Kiesen","Bern","BE","Schweiz","CH"
3631,"Höfen b. Thun","Bern","BE","Schweiz","CH"
3632,"Niederstocken","Bern","BE","Schweiz","CH"
3632,"Oberstocken","Bern","BE","Schweiz","CH"
3633,"Amsoldingen","Bern","BE","Schweiz","CH"
3634,"Thierachern","Bern","BE","Schweiz","CH"
3635,"Uebeschi","Bern","BE","Schweiz","CH"
3636,"Längenbühl","Bern","BE","Schweiz","CH"
3636,"Forst b. Längenbühl","Bern","BE","Schweiz","CH"
3638,"Pohlern","Bern","BE","Schweiz","CH"
3638,"Blumenstein","Bern","BE","Schweiz","CH"
3645,"Gwatt (Thun)","Bern","BE","Schweiz","CH"
3645,"Zwieselberg","Bern","BE","Schweiz","CH"
3646,"Einigen","Bern","BE","Schweiz","CH"
3647,"Reutigen","Bern","BE","Schweiz","CH"
3652,"Hilterfingen","Bern","BE","Schweiz","CH"
3653,"Oberhofen am Thunersee","Bern","BE","Schweiz","CH"
3654,"Gunten","Bern","BE","Schweiz","CH"
3655,"Sigriswil","Bern","BE","Schweiz","CH"
3656,"Tschingel ob Gunten","Bern","BE","Schweiz","CH"
3656,"Aeschlen ob Gunten","Bern","BE","Schweiz","CH"
3656,"Ringoldswil","Bern","BE","Schweiz","CH"
3657,"Schwanden (Sigriswil)","Bern","BE","Schweiz","CH"
3658,"Merligen","Bern","BE","Schweiz","CH"
3661,"Uetendorf","Bern","BE","Schweiz","CH"
3662,"Seftigen","Bern","BE","Schweiz","CH"
3663,"Gurzelen","Bern","BE","Schweiz","CH"
3664,"Burgistein","Bern","BE","Schweiz","CH"
3665,"Wattenwil","Bern","BE","Schweiz","CH"
3671,"Herbligen","Bern","BE","Schweiz","CH"
3671,"Brenzikofen","Bern","BE","Schweiz","CH"
3672,"Aeschlen b. Oberdiessbach","Bern","BE","Schweiz","CH"
3672,"Oberdiessbach","Bern","BE","Schweiz","CH"
3673,"Linden","Bern","BE","Schweiz","CH"
3674,"Bleiken b. Oberdiessbach","Bern","BE","Schweiz","CH"
3700,"Spiez","Bern","BE","Schweiz","CH"
3702,"Hondrich","Bern","BE","Schweiz","CH"
3703,"Aeschiried","Bern","BE","Schweiz","CH"
3703,"Aeschi b. Spiez","Bern","BE","Schweiz","CH"
3704,"Krattigen","Bern","BE","Schweiz","CH"
3705,"Faulensee","Bern","BE","Schweiz","CH"
3706,"Leissigen","Bern","BE","Schweiz","CH"
3707,"Därligen","Bern","BE","Schweiz","CH"
3711,"Emdthal","Bern","BE","Schweiz","CH"
3711,"Mülenen","Bern","BE","Schweiz","CH"
3713,"Reichenbach im Kandertal","Bern","BE","Schweiz","CH"
3714,"Wengi b. Frutigen","Bern","BE","Schweiz","CH"
3714,"Frutigen","Bern","BE","Schweiz","CH"
3715,"Adelboden","Bern","BE","Schweiz","CH"
3716,"Kandergrund","Bern","BE","Schweiz","CH"
3717,"Blausee-Mitholz","Bern","BE","Schweiz","CH"
3718,"Kandersteg","Bern","BE","Schweiz","CH"
3722,"Scharnachtal","Bern","BE","Schweiz","CH"
3723,"Kiental","Bern","BE","Schweiz","CH"
3724,"Ried (Frutigen)","Bern","BE","Schweiz","CH"
3725,"Achseten","Bern","BE","Schweiz","CH"
3752,"Wimmis","Bern","BE","Schweiz","CH"
3753,"Oey","Bern","BE","Schweiz","CH"
3754,"Diemtigen","Bern","BE","Schweiz","CH"
3755,"Horboden","Bern","BE","Schweiz","CH"
3756,"Zwischenflüh","Bern","BE","Schweiz","CH"
3757,"Schwenden im Diemtigtal","Bern","BE","Schweiz","CH"
3758,"Latterbach","Bern","BE","Schweiz","CH"
3762,"Erlenbach im Simmental","Bern","BE","Schweiz","CH"
3763,"Därstetten","Bern","BE","Schweiz","CH"
3764,"Weissenburg","Bern","BE","Schweiz","CH"
3765,"Oberwil im Simmental","Bern","BE","Schweiz","CH"
3766,"Boltigen","Bern","BE","Schweiz","CH"
3770,"Zweisimmen","Bern","BE","Schweiz","CH"
3771,"Blankenburg","Bern","BE","Schweiz","CH"
3772,"St. Stephan","Bern","BE","Schweiz","CH"
3773,"Matten (St. Stephan)","Bern","BE","Schweiz","CH"
3775,"Lenk im Simmental","Bern","BE","Schweiz","CH"
3776,"Oeschseite","Bern","BE","Schweiz","CH"
3777,"Saanenmöser","Bern","BE","Schweiz","CH"
3778,"Schönried","Bern","BE","Schweiz","CH"
3780,"Gstaad","Bern","BE","Schweiz","CH"
3781,"Turbach","Bern","BE","Schweiz","CH"
3782,"Lauenen b. Gstaad","Bern","BE","Schweiz","CH"
3783,"Grund b. Gstaad","Bern","BE","Schweiz","CH"
3784,"Feutersoey","Bern","BE","Schweiz","CH"
3785,"Gsteig b. Gstaad","Bern","BE","Schweiz","CH"
3792,"Saanen","Bern","BE","Schweiz","CH"
3800,"Sundlauenen","Bern","BE","Schweiz","CH"
3800,"Interlaken","Bern","BE","Schweiz","CH"
3800,"Unterseen","Bern","BE","Schweiz","CH"
3800,"Matten b. Interlaken","Bern","BE","Schweiz","CH"
3801,"Jungfraujoch","Wallis","VS","Schweiz","CH"
3803,"Beatenberg","Bern","BE","Schweiz","CH"
3804,"Habkern","Bern","BE","Schweiz","CH"
3805,"Goldswil b. Interlaken","Bern","BE","Schweiz","CH"
3806,"Bönigen b. Interlaken","Bern","BE","Schweiz","CH"
3807,"Iseltwald","Bern","BE","Schweiz","CH"
3812,"Wilderswil","Bern","BE","Schweiz","CH"
3813,"Saxeten","Bern","BE","Schweiz","CH"
3814,"Gsteigwiler","Bern","BE","Schweiz","CH"
3815,"Zweilütschinen","Bern","BE","Schweiz","CH"
3815,"Gündlischwand","Bern","BE","Schweiz","CH"
3816,"Lütschental","Bern","BE","Schweiz","CH"
3816,"Burglauenen","Bern","BE","Schweiz","CH"
3818,"Grindelwald","Bern","BE","Schweiz","CH"
3822,"Isenfluh","Bern","BE","Schweiz","CH"
3822,"Lauterbrunnen","Bern","BE","Schweiz","CH"
3823,"Kleine Scheidegg","Bern","BE","Schweiz","CH"
3823,"Eigergletscher","Bern","BE","Schweiz","CH"
3823,"Wengen","Bern","BE","Schweiz","CH"
3824,"Stechelberg","Bern","BE","Schweiz","CH"
3825,"Mürren","Bern","BE","Schweiz","CH"
3826,"Gimmelwald","Bern","BE","Schweiz","CH"
3852,"Ringgenberg BE","Bern","BE","Schweiz","CH"
3853,"Niederried b. Interlaken","Bern","BE","Schweiz","CH"
3854,"Oberried am Brienzersee","Bern","BE","Schweiz","CH"
3855,"Schwanden b. Brienz","Bern","BE","Schweiz","CH"
3855,"Brienz BE","Bern","BE","Schweiz","CH"
3855,"Axalp","Bern","BE","Schweiz","CH"
3856,"Brienzwiler","Bern","BE","Schweiz","CH"
3857,"Unterbach BE","Bern","BE","Schweiz","CH"
3858,"Hofstetten b. Brienz","Bern","BE","Schweiz","CH"
3860,"Rosenlaui","Bern","BE","Schweiz","CH"
3860,"Schattenhalb","Bern","BE","Schweiz","CH"
3860,"Meiringen","Bern","BE","Schweiz","CH"
3860,"Brünig","Bern","BE","Schweiz","CH"
3862,"Innertkirchen","Bern","BE","Schweiz","CH"
3863,"Gadmen","Bern","BE","Schweiz","CH"
3864,"Guttannen","Bern","BE","Schweiz","CH"
3900,"Gamsen","Wallis","VS","Schweiz","CH"
3900,"Brigerbad","Wallis","VS","Schweiz","CH"
3900,"Brig","Wallis","VS","Schweiz","CH"
3901,"Rothwald","Wallis","VS","Schweiz","CH"
3902,"Glis","Wallis","VS","Schweiz","CH"
3903,"Birgisch","Wallis","VS","Schweiz","CH"
3903,"Mund","Wallis","VS","Schweiz","CH"
3904,"Naters","Wallis","VS","Schweiz","CH"
3905,"Saas-Almagell","Wallis","VS","Schweiz","CH"
3906,"Saas-Fee","Wallis","VS","Schweiz","CH"
3907,"Simplon Hospiz","Wallis","VS","Schweiz","CH"
3907,"Gabi (Simplon)","Wallis","VS","Schweiz","CH"
3907,"Gondo","Wallis","VS","Schweiz","CH"
3907,"Simplon Dorf","Wallis","VS","Schweiz","CH"
3908,"Saas-Balen","Wallis","VS","Schweiz","CH"
3910,"Saas-Grund","Wallis","VS","Schweiz","CH"
3911,"Ried-Brig","Wallis","VS","Schweiz","CH"
3912,"Termen","Wallis","VS","Schweiz","CH"
3913,"Rosswald","Wallis","VS","Schweiz","CH"
3914,"Belalp","Wallis","VS","Schweiz","CH"
3914,"Blatten b. Naters","Wallis","VS","Schweiz","CH"
3916,"Ferden","Wallis","VS","Schweiz","CH"
3917,"Goppenstein","Wallis","VS","Schweiz","CH"
3917,"Kippel","Wallis","VS","Schweiz","CH"
3918,"Wiler (Lötschen)","Wallis","VS","Schweiz","CH"
3919,"Blatten (Lötschen)","Wallis","VS","Schweiz","CH"
3920,"Zermatt","Wallis","VS","Schweiz","CH"
3922,"Eisten","Wallis","VS","Schweiz","CH"
3922,"Kalpetran","Wallis","VS","Schweiz","CH"
3922,"Stalden VS","Wallis","VS","Schweiz","CH"
3923,"Törbel","Wallis","VS","Schweiz","CH"
3924,"Gasenried","Wallis","VS","Schweiz","CH"
3924,"St. Niklaus VS","Wallis","VS","Schweiz","CH"
3925,"Grächen","Wallis","VS","Schweiz","CH"
3926,"Embd","Wallis","VS","Schweiz","CH"
3927,"Herbriggen","Wallis","VS","Schweiz","CH"
3928,"Randa","Wallis","VS","Schweiz","CH"
3929,"Täsch","Wallis","VS","Schweiz","CH"
3930,"Eyholz","Wallis","VS","Schweiz","CH"
3930,"Visp","Wallis","VS","Schweiz","CH"
3931,"Lalden","Wallis","VS","Schweiz","CH"
3932,"Visperterminen","Wallis","VS","Schweiz","CH"
3933,"Staldenried","Wallis","VS","Schweiz","CH"
3934,"Zeneggen","Wallis","VS","Schweiz","CH"
3935,"Bürchen","Wallis","VS","Schweiz","CH"
3937,"Baltschieder","Wallis","VS","Schweiz","CH"
3938,"Ausserberg","Wallis","VS","Schweiz","CH"
3939,"Eggerberg","Wallis","VS","Schweiz","CH"
3940,"Steg VS","Wallis","VS","Schweiz","CH"
3942,"Niedergesteln","Wallis","VS","Schweiz","CH"
3942,"St. German","Wallis","VS","Schweiz","CH"
3942,"Raron","Wallis","VS","Schweiz","CH"
3943,"Eischoll","Wallis","VS","Schweiz","CH"
3944,"Unterbäch VS","Wallis","VS","Schweiz","CH"
3945,"Gampel","Wallis","VS","Schweiz","CH"
3945,"Niedergampel","Wallis","VS","Schweiz","CH"
3946,"Gruben","Wallis","VS","Schweiz","CH"
3946,"Turtmann","Wallis","VS","Schweiz","CH"
3947,"Ergisch","Wallis","VS","Schweiz","CH"
3948,"Unterems","Wallis","VS","Schweiz","CH"
3948,"Oberems","Wallis","VS","Schweiz","CH"
3949,"Hohtenn","Wallis","VS","Schweiz","CH"
3951,"Agarn","Wallis","VS","Schweiz","CH"
3952,"Susten","Wallis","VS","Schweiz","CH"
3953,"Inden","Wallis","VS","Schweiz","CH"
3953,"Varen","Wallis","VS","Schweiz","CH"
3953,"Leuk Stadt","Wallis","VS","Schweiz","CH"
3954,"Leukerbad","Wallis","VS","Schweiz","CH"
3955,"Albinen","Wallis","VS","Schweiz","CH"
3956,"Guttet-Feschel","Wallis","VS","Schweiz","CH"
3957,"Bratsch","Wallis","VS","Schweiz","CH"
3957,"Erschmatt","Wallis","VS","Schweiz","CH"
3960,"Corin-de-la-Crête","Wallis","VS","Schweiz","CH"
3960,"Loc","Wallis","VS","Schweiz","CH"
3960,"Muraz (Sierre)","Wallis","VS","Schweiz","CH"
3960,"Niouc","Wallis","VS","Schweiz","CH"
3960,"Sierre","Wallis","VS","Schweiz","CH"
3961,"Chandolin","Wallis","VS","Schweiz","CH"
3961,"Ayer","Wallis","VS","Schweiz","CH"
3961,"St-Jean VS","Wallis","VS","Schweiz","CH"
3961,"Vissoie","Wallis","VS","Schweiz","CH"
3961,"St-Luc","Wallis","VS","Schweiz","CH"
3961,"Zinal","Wallis","VS","Schweiz","CH"
3961,"Grimentz","Wallis","VS","Schweiz","CH"
3963,"Montana","Wallis","VS","Schweiz","CH"
3963,"Crans-Montana","Wallis","VS","Schweiz","CH"
3963,"Aminona","Wallis","VS","Schweiz","CH"
3965,"Chippis","Wallis","VS","Schweiz","CH"
3966,"Réchy","Wallis","VS","Schweiz","CH"
3966,"Chalais","Wallis","VS","Schweiz","CH"
3967,"Vercorin","Wallis","VS","Schweiz","CH"
3968,"Veyras","Wallis","VS","Schweiz","CH"
3970,"Salgesch","Wallis","VS","Schweiz","CH"
3971,"Chermignon-d'en-Bas","Wallis","VS","Schweiz","CH"
3971,"Ollon VS","Wallis","VS","Schweiz","CH"
3971,"Chermignon","Wallis","VS","Schweiz","CH"
3972,"Miège","Wallis","VS","Schweiz","CH"
3973,"Venthône","Wallis","VS","Schweiz","CH"
3974,"Mollens VS","Wallis","VS","Schweiz","CH"
3975,"Randogne","Wallis","VS","Schweiz","CH"
3976,"Champzabé","Wallis","VS","Schweiz","CH"
3976,"Noës","Wallis","VS","Schweiz","CH"
3977,"Granges VS","Wallis","VS","Schweiz","CH"
3978,"Flanthey","Wallis","VS","Schweiz","CH"
3979,"Grône","Wallis","VS","Schweiz","CH"
3982,"Bitsch","Wallis","VS","Schweiz","CH"
3983,"Bister","Wallis","VS","Schweiz","CH"
3983,"Filet","Wallis","VS","Schweiz","CH"
3983,"Goppisberg","Wallis","VS","Schweiz","CH"
3983,"Greich","Wallis","VS","Schweiz","CH"
3983,"Mörel","Wallis","VS","Schweiz","CH"
3984,"Fieschertal","Wallis","VS","Schweiz","CH"
3984,"Fiesch","Wallis","VS","Schweiz","CH"
3985,"Geschinen","Wallis","VS","Schweiz","CH"
3985,"Münster VS","Wallis","VS","Schweiz","CH"
3986,"Ried-Mörel","Wallis","VS","Schweiz","CH"
3987,"Riederalp","Wallis","VS","Schweiz","CH"
3988,"Obergesteln","Wallis","VS","Schweiz","CH"
3988,"Ulrichen","Wallis","VS","Schweiz","CH"
3989,"Niederwald","Wallis","VS","Schweiz","CH"
3989,"Blitzingen","Wallis","VS","Schweiz","CH"
3989,"Biel VS","Wallis","VS","Schweiz","CH"
3989,"Ritzingen","Wallis","VS","Schweiz","CH"
3989,"Selkingen","Wallis","VS","Schweiz","CH"
3991,"Betten","Wallis","VS","Schweiz","CH"
3992,"Bettmeralp","Wallis","VS","Schweiz","CH"
3993,"Grengiols","Wallis","VS","Schweiz","CH"
3994,"Lax","Wallis","VS","Schweiz","CH"
3994,"Martisberg","Wallis","VS","Schweiz","CH"
3995,"Ausserbinn","Wallis","VS","Schweiz","CH"
3995,"Mühlebach (Goms)","Wallis","VS","Schweiz","CH"
3995,"Steinhaus","Wallis","VS","Schweiz","CH"
3995,"Ernen","Wallis","VS","Schweiz","CH"
3996,"Binn","Wallis","VS","Schweiz","CH"
3997,"Bellwald","Wallis","VS","Schweiz","CH"
3998,"Gluringen","Wallis","VS","Schweiz","CH"
3998,"Reckingen VS","Wallis","VS","Schweiz","CH"
3999,"Oberwald","Wallis","VS","Schweiz","CH"
4000,"Basel","Basel-Stadt","BS","Schweiz","CH"
4001,"Basel","Basel-Stadt","BS","Schweiz","CH"
4031,"Basel Universitätsspital","Basel-Stadt","BS","Schweiz","CH"
4051,"Basel","Basel-Stadt","BS","Schweiz","CH"
4052,"Basel","Basel-Stadt","BS","Schweiz","CH"
4053,"Basel","Basel-Stadt","BS","Schweiz","CH"
4054,"Basel","Basel-Stadt","BS","Schweiz","CH"
4055,"Basel","Basel-Stadt","BS","Schweiz","CH"
4056,"Basel","Basel-Stadt","BS","Schweiz","CH"
4057,"Basel","Basel-Stadt","BS","Schweiz","CH"
4058,"Basel","Basel-Stadt","BS","Schweiz","CH"
4059,"Basel","Basel-Stadt","BS","Schweiz","CH"
4101,"Bruderholz","Basel-Landschaft","BL","Schweiz","CH"
4102,"Binningen","Basel-Landschaft","BL","Schweiz","CH"
4103,"Bottmingen","Basel-Landschaft","BL","Schweiz","CH"
4104,"Oberwil BL","Basel-Landschaft","BL","Schweiz","CH"
4105,"Biel-Benken BL","Basel-Landschaft","BL","Schweiz","CH"
4106,"Therwil","Basel-Landschaft","BL","Schweiz","CH"
4107,"Ettingen","Basel-Landschaft","BL","Schweiz","CH"
4108,"Witterswil","Solothurn","SO","Schweiz","CH"
4112,"Bättwil","Solothurn","SO","Schweiz","CH"
4112,"Flüh","Solothurn","SO","Schweiz","CH"
4114,"Hofstetten SO","Solothurn","SO","Schweiz","CH"
4115,"Mariastein","Solothurn","SO","Schweiz","CH"
4116,"Metzerlen","Solothurn","SO","Schweiz","CH"
4117,"Burg im Leimental","Basel-Landschaft","BL","Schweiz","CH"
4118,"Rodersdorf","Solothurn","SO","Schweiz","CH"
4123,"Allschwil","Basel-Landschaft","BL","Schweiz","CH"
4124,"Schönenbuch","Basel-Landschaft","BL","Schweiz","CH"
4125,"Riehen","Basel-Stadt","BS","Schweiz","CH"
4126,"Bettingen","Basel-Stadt","BS","Schweiz","CH"
4127,"Birsfelden","Basel-Landschaft","BL","Schweiz","CH"
4132,"Muttenz","Basel-Landschaft","BL","Schweiz","CH"
4133,"Pratteln","Basel-Landschaft","BL","Schweiz","CH"
4142,"Münchenstein","Basel-Landschaft","BL","Schweiz","CH"
4143,"Dornach","Solothurn","SO","Schweiz","CH"
4144,"Arlesheim","Basel-Landschaft","BL","Schweiz","CH"
4145,"Gempen","Solothurn","SO","Schweiz","CH"
4146,"Hochwald","Solothurn","SO","Schweiz","CH"
4147,"Aesch BL","Basel-Landschaft","BL","Schweiz","CH"
4148,"Pfeffingen","Basel-Landschaft","BL","Schweiz","CH"
4153,"Reinach BL","Basel-Landschaft","BL","Schweiz","CH"
4202,"Duggingen","Basel-Landschaft","BL","Schweiz","CH"
4203,"Grellingen","Basel-Landschaft","BL","Schweiz","CH"
4204,"Himmelried","Solothurn","SO","Schweiz","CH"
4206,"Seewen SO","Solothurn","SO","Schweiz","CH"
4207,"Bretzwil","Basel-Landschaft","BL","Schweiz","CH"
4208,"Nunningen","Solothurn","SO","Schweiz","CH"
4222,"Zwingen","Basel-Landschaft","BL","Schweiz","CH"
4223,"Blauen","Basel-Landschaft","BL","Schweiz","CH"
4224,"Nenzlingen","Basel-Landschaft","BL","Schweiz","CH"
4225,"Brislach","Basel-Landschaft","BL","Schweiz","CH"
4226,"Breitenbach","Solothurn","SO","Schweiz","CH"
4227,"Büsserach","Solothurn","SO","Schweiz","CH"
4228,"Erschwil","Solothurn","SO","Schweiz","CH"
4229,"Beinwil SO","Solothurn","SO","Schweiz","CH"
4232,"Fehren","Solothurn","SO","Schweiz","CH"
4233,"Meltingen","Solothurn","SO","Schweiz","CH"
4234,"Zullwil","Solothurn","SO","Schweiz","CH"
4242,"Laufen","Basel-Landschaft","BL","Schweiz","CH"
4243,"Dittingen","Basel-Landschaft","BL","Schweiz","CH"
4244,"Röschenz","Basel-Landschaft","BL","Schweiz","CH"
4245,"Kleinlützel","Solothurn","SO","Schweiz","CH"
4246,"Wahlen b. Laufen","Basel-Landschaft","BL","Schweiz","CH"
4247,"Grindel","Solothurn","SO","Schweiz","CH"
4252,"Bärschwil","Solothurn","SO","Schweiz","CH"
4253,"Liesberg","Basel-Landschaft","BL","Schweiz","CH"
4254,"Liesberg Dorf","Basel-Landschaft","BL","Schweiz","CH"
4302,"Augst BL","Basel-Landschaft","BL","Schweiz","CH"
4303,"Kaiseraugst","Aargau","AG","Schweiz","CH"
4304,"Giebenach","Basel-Landschaft","BL","Schweiz","CH"
4305,"Olsberg","Aargau","AG","Schweiz","CH"
4310,"Rheinfelden","Aargau","AG","Schweiz","CH"
4312,"Magden","Aargau","AG","Schweiz","CH"
4313,"Möhlin","Aargau","AG","Schweiz","CH"
4314,"Zeiningen","Aargau","AG","Schweiz","CH"
4315,"Zuzgen","Aargau","AG","Schweiz","CH"
4316,"Hellikon","Aargau","AG","Schweiz","CH"
4317,"Wegenstetten","Aargau","AG","Schweiz","CH"
4322,"Mumpf","Aargau","AG","Schweiz","CH"
4323,"Wallbach","Aargau","AG","Schweiz","CH"
4324,"Obermumpf","Aargau","AG","Schweiz","CH"
4325,"Schupfart","Aargau","AG","Schweiz","CH"
4332,"Stein AG","Aargau","AG","Schweiz","CH"
4333,"Münchwilen AG","Aargau","AG","Schweiz","CH"
4334,"Sisseln AG","Aargau","AG","Schweiz","CH"
4402,"Frenkendorf","Basel-Landschaft","BL","Schweiz","CH"
4410,"Liestal","Basel-Landschaft","BL","Schweiz","CH"
4411,"Seltisberg","Basel-Landschaft","BL","Schweiz","CH"
4412,"Nuglar","Solothurn","SO","Schweiz","CH"
4413,"Büren SO","Solothurn","SO","Schweiz","CH"
4414,"Füllinsdorf","Basel-Landschaft","BL","Schweiz","CH"
4415,"Lausen","Basel-Landschaft","BL","Schweiz","CH"
4416,"Bubendorf","Basel-Landschaft","BL","Schweiz","CH"
4417,"Ziefen","Basel-Landschaft","BL","Schweiz","CH"
4418,"Reigoldswil","Basel-Landschaft","BL","Schweiz","CH"
4419,"Lupsingen","Basel-Landschaft","BL","Schweiz","CH"
4421,"St. Pantaleon","Solothurn","SO","Schweiz","CH"
4422,"Arisdorf","Basel-Landschaft","BL","Schweiz","CH"
4423,"Hersberg","Basel-Landschaft","BL","Schweiz","CH"
4424,"Arboldswil","Basel-Landschaft","BL","Schweiz","CH"
4425,"Titterten","Basel-Landschaft","BL","Schweiz","CH"
4426,"Lauwil","Basel-Landschaft","BL","Schweiz","CH"
4431,"Bennwil","Basel-Landschaft","BL","Schweiz","CH"
4432,"Lampenberg","Basel-Landschaft","BL","Schweiz","CH"
4433,"Ramlinsburg","Basel-Landschaft","BL","Schweiz","CH"
4434,"Hölstein","Basel-Landschaft","BL","Schweiz","CH"
4435,"Niederdorf","Basel-Landschaft","BL","Schweiz","CH"
4436,"Liedertswil","Basel-Landschaft","BL","Schweiz","CH"
4436,"Oberdorf BL","Basel-Landschaft","BL","Schweiz","CH"
4437,"Waldenburg","Basel-Landschaft","BL","Schweiz","CH"
4438,"Langenbruck","Basel-Landschaft","BL","Schweiz","CH"
4441,"Thürnen","Basel-Landschaft","BL","Schweiz","CH"
4442,"Diepflingen","Basel-Landschaft","BL","Schweiz","CH"
4443,"Wittinsburg","Basel-Landschaft","BL","Schweiz","CH"
4444,"Rümlingen","Basel-Landschaft","BL","Schweiz","CH"
4445,"Häfelfingen","Basel-Landschaft","BL","Schweiz","CH"
4446,"Buckten","Basel-Landschaft","BL","Schweiz","CH"
4447,"Känerkinden","Basel-Landschaft","BL","Schweiz","CH"
4448,"Läufelfingen","Basel-Landschaft","BL","Schweiz","CH"
4450,"Sissach","Basel-Landschaft","BL","Schweiz","CH"
4451,"Wintersingen","Basel-Landschaft","BL","Schweiz","CH"
4452,"Itingen","Basel-Landschaft","BL","Schweiz","CH"
4453,"Nusshof","Basel-Landschaft","BL","Schweiz","CH"
4455,"Zunzgen","Basel-Landschaft","BL","Schweiz","CH"
4456,"Tenniken","Basel-Landschaft","BL","Schweiz","CH"
4457,"Diegten","Basel-Landschaft","BL","Schweiz","CH"
4458,"Eptingen","Basel-Landschaft","BL","Schweiz","CH"
4460,"Gelterkinden","Basel-Landschaft","BL","Schweiz","CH"
4461,"Böckten","Basel-Landschaft","BL","Schweiz","CH"
4462,"Rickenbach BL","Basel-Landschaft","BL","Schweiz","CH"
4463,"Buus","Basel-Landschaft","BL","Schweiz","CH"
4464,"Maisprach","Basel-Landschaft","BL","Schweiz","CH"
4465,"Hemmiken","Basel-Landschaft","BL","Schweiz","CH"
4466,"Ormalingen","Basel-Landschaft","BL","Schweiz","CH"
4467,"Rothenfluh","Basel-Landschaft","BL","Schweiz","CH"
4468,"Kienberg","Solothurn","SO","Schweiz","CH"
4469,"Anwil","Basel-Landschaft","BL","Schweiz","CH"
4492,"Tecknau","Basel-Landschaft","BL","Schweiz","CH"
4493,"Wenslingen","Basel-Landschaft","BL","Schweiz","CH"
4494,"Oltingen","Basel-Landschaft","BL","Schweiz","CH"
4495,"Zeglingen","Basel-Landschaft","BL","Schweiz","CH"
4496,"Kilchberg BL","Basel-Landschaft","BL","Schweiz","CH"
4497,"Rünenberg","Basel-Landschaft","BL","Schweiz","CH"
4500,"Solothurn","Solothurn","SO","Schweiz","CH"
4512,"Bellach","Solothurn","SO","Schweiz","CH"
4513,"Langendorf","Solothurn","SO","Schweiz","CH"
4514,"Lommiswil","Solothurn","SO","Schweiz","CH"
4515,"Weissenstein b. Solothurn","Solothurn","SO","Schweiz","CH"
4515,"Oberdorf SO","Solothurn","SO","Schweiz","CH"
4522,"Rüttenen","Solothurn","SO","Schweiz","CH"
4523,"Niederwil SO","Solothurn","SO","Schweiz","CH"
4524,"Balmberg","Solothurn","SO","Schweiz","CH"
4524,"Oberbalmberg","Solothurn","SO","Schweiz","CH"
4524,"Günsberg","Solothurn","SO","Schweiz","CH"
4525,"Balm b. Günsberg","Solothurn","SO","Schweiz","CH"
4528,"Zuchwil","Solothurn","SO","Schweiz","CH"
4532,"Feldbrunnen","Solothurn","SO","Schweiz","CH"
4533,"Riedholz","Solothurn","SO","Schweiz","CH"
4534,"Flumenthal","Solothurn","SO","Schweiz","CH"
4535,"Hubersdorf","Solothurn","SO","Schweiz","CH"
4535,"Kammersrohr","Solothurn","SO","Schweiz","CH"
4536,"Attiswil","Bern","BE","Schweiz","CH"
4537,"Wiedlisbach","Bern","BE","Schweiz","CH"
4538,"Oberbipp","Bern","BE","Schweiz","CH"
4539,"Rumisberg","Bern","BE","Schweiz","CH"
4539,"Farnern","Bern","BE","Schweiz","CH"
4542,"Luterbach","Solothurn","SO","Schweiz","CH"
4543,"Deitingen","Solothurn","SO","Schweiz","CH"
4552,"Derendingen","Solothurn","SO","Schweiz","CH"
4553,"Subingen","Solothurn","SO","Schweiz","CH"
4554,"Hüniken","Solothurn","SO","Schweiz","CH"
4554,"Etziken","Solothurn","SO","Schweiz","CH"
4556,"Bolken","Solothurn","SO","Schweiz","CH"
4556,"Burgäschi","Solothurn","SO","Schweiz","CH"
4556,"Steinhof SO","Solothurn","SO","Schweiz","CH"
4556,"Aeschi SO","Solothurn","SO","Schweiz","CH"
4557,"Horriwil","Solothurn","SO","Schweiz","CH"
4558,"Hersiwil","Solothurn","SO","Schweiz","CH"
4558,"Heinrichswil","Solothurn","SO","Schweiz","CH"
4558,"Winistorf","Solothurn","SO","Schweiz","CH"
4562,"Biberist","Solothurn","SO","Schweiz","CH"
4563,"Gerlafingen","Solothurn","SO","Schweiz","CH"
4564,"Zielebach","Bern","BE","Schweiz","CH"
4564,"Obergerlafingen","Solothurn","SO","Schweiz","CH"
4565,"Recherswil","Solothurn","SO","Schweiz","CH"
4566,"Halten","Solothurn","SO","Schweiz","CH"
4566,"Oekingen","Solothurn","SO","Schweiz","CH"
4566,"Kriegstetten","Solothurn","SO","Schweiz","CH"
4571,"Ichertswil","Solothurn","SO","Schweiz","CH"
4571,"Lüterkofen","Solothurn","SO","Schweiz","CH"
4573,"Lohn-Ammannsegg","Solothurn","SO","Schweiz","CH"
4574,"Lüsslingen","Solothurn","SO","Schweiz","CH"
4574,"Nennigkofen","Solothurn","SO","Schweiz","CH"
4576,"Tscheppach","Solothurn","SO","Schweiz","CH"
4577,"Hessigkofen","Solothurn","SO","Schweiz","CH"
4578,"Bibern SO","Solothurn","SO","Schweiz","CH"
4579,"Gossliwil","Solothurn","SO","Schweiz","CH"
4581,"Küttigkofen","Solothurn","SO","Schweiz","CH"
4582,"Brügglen","Solothurn","SO","Schweiz","CH"
4583,"Aetigkofen","Solothurn","SO","Schweiz","CH"
4583,"Mühledorf SO","Solothurn","SO","Schweiz","CH"
4584,"Gächliwil","Solothurn","SO","Schweiz","CH"
4584,"Lüterswil","Solothurn","SO","Schweiz","CH"
4585,"Biezwil","Solothurn","SO","Schweiz","CH"
4586,"Kyburg-Buchegg","Solothurn","SO","Schweiz","CH"
4587,"Aetingen","Solothurn","SO","Schweiz","CH"
4588,"Unterramsern","Solothurn","SO","Schweiz","CH"
4588,"Oberramsern","Solothurn","SO","Schweiz","CH"
4588,"Brittern","Solothurn","SO","Schweiz","CH"
4600,"Olten","Solothurn","SO","Schweiz","CH"
4612,"Wangen b. Olten","Solothurn","SO","Schweiz","CH"
4613,"Rickenbach SO","Solothurn","SO","Schweiz","CH"
4614,"Hägendorf","Solothurn","SO","Schweiz","CH"
4615,"Allerheiligenberg","Solothurn","SO","Schweiz","CH"
4616,"Kappel SO","Solothurn","SO","Schweiz","CH"
4617,"Gunzgen","Solothurn","SO","Schweiz","CH"
4618,"Boningen","Solothurn","SO","Schweiz","CH"
4622,"Egerkingen","Solothurn","SO","Schweiz","CH"
4623,"Neuendorf","Solothurn","SO","Schweiz","CH"
4624,"Härkingen","Solothurn","SO","Schweiz","CH"
4625,"Oberbuchsiten","Solothurn","SO","Schweiz","CH"
4626,"Niederbuchsiten","Solothurn","SO","Schweiz","CH"
4628,"Wolfwil","Solothurn","SO","Schweiz","CH"
4629,"Fulenbach","Solothurn","SO","Schweiz","CH"
4632,"Trimbach","Solothurn","SO","Schweiz","CH"
4633,"Hauenstein","Solothurn","SO","Schweiz","CH"
4634,"Wisen SO","Solothurn","SO","Schweiz","CH"
4652,"Winznau","Solothurn","SO","Schweiz","CH"
4653,"Obergösgen","Solothurn","SO","Schweiz","CH"
4654,"Lostorf","Solothurn","SO","Schweiz","CH"
4655,"Rohr b. Olten","Solothurn","SO","Schweiz","CH"
4655,"Stüsslingen","Solothurn","SO","Schweiz","CH"
4656,"Starrkirch-Wil","Solothurn","SO","Schweiz","CH"
4657,"Dulliken","Solothurn","SO","Schweiz","CH"
4658,"Däniken SO","Solothurn","SO","Schweiz","CH"
4663,"Aarburg","Aargau","AG","Schweiz","CH"
4665,"Oftringen","Aargau","AG","Schweiz","CH"
4702,"Oensingen","Solothurn","SO","Schweiz","CH"
4703,"Kestenholz","Solothurn","SO","Schweiz","CH"
4704,"Wolfisberg","Bern","BE","Schweiz","CH"
4704,"Niederbipp","Bern","BE","Schweiz","CH"
4710,"Balsthal","Solothurn","SO","Schweiz","CH"
4712,"Laupersdorf","Solothurn","SO","Schweiz","CH"
4713,"Matzendorf","Solothurn","SO","Schweiz","CH"
4714,"Aedermannsdorf","Solothurn","SO","Schweiz","CH"
4715,"Herbetswil","Solothurn","SO","Schweiz","CH"
4716,"Gänsbrunnen","Solothurn","SO","Schweiz","CH"
4716,"Welschenrohr","Solothurn","SO","Schweiz","CH"
4717,"Mümliswil","Solothurn","SO","Schweiz","CH"
4718,"Holderbank SO","Solothurn","SO","Schweiz","CH"
4719,"Ramiswil","Solothurn","SO","Schweiz","CH"
4800,"Zofingen","Aargau","AG","Schweiz","CH"
4802,"Strengelbach","Aargau","AG","Schweiz","CH"
4803,"Vordemwald","Aargau","AG","Schweiz","CH"
4805,"Brittnau","Aargau","AG","Schweiz","CH"
4806,"Wikon","Luzern","LU","Schweiz","CH"
4812,"Mühlethal","Aargau","AG","Schweiz","CH"
4813,"Uerkheim","Aargau","AG","Schweiz","CH"
4814,"Bottenwil","Aargau","AG","Schweiz","CH"
4852,"Rothrist","Aargau","AG","Schweiz","CH"
4853,"Riken AG","Aargau","AG","Schweiz","CH"
4853,"Murgenthal","Aargau","AG","Schweiz","CH"
4856,"Glashütten","Aargau","AG","Schweiz","CH"
4900,"Langenthal","Bern","BE","Schweiz","CH"
4911,"Schwarzhäusern","Bern","BE","Schweiz","CH"
4912,"Aarwangen","Bern","BE","Schweiz","CH"
4913,"Bannwil","Bern","BE","Schweiz","CH"
4914,"Roggwil BE","Bern","BE","Schweiz","CH"
4915,"St. Urban","Luzern","LU","Schweiz","CH"
4916,"Untersteckholz","Bern","BE","Schweiz","CH"
4917,"Busswil b. Melchnau","Bern","BE","Schweiz","CH"
4917,"Melchnau","Bern","BE","Schweiz","CH"
4919,"Reisiswil","Bern","BE","Schweiz","CH"
4922,"Thunstetten","Bern","BE","Schweiz","CH"
4922,"Bützberg","Bern","BE","Schweiz","CH"
4923,"Wynau","Bern","BE","Schweiz","CH"
4924,"Obersteckholz","Bern","BE","Schweiz","CH"
4932,"Gutenburg","Bern","BE","Schweiz","CH"
4932,"Lotzwil","Bern","BE","Schweiz","CH"
4933,"Rütschelen","Bern","BE","Schweiz","CH"
4934,"Madiswil","Bern","BE","Schweiz","CH"
4935,"Leimiswil","Bern","BE","Schweiz","CH"
4936,"Kleindietwil","Bern","BE","Schweiz","CH"
4937,"Ursenbach","Bern","BE","Schweiz","CH"
4938,"Rohrbachgraben","Bern","BE","Schweiz","CH"
4938,"Rohrbach","Bern","BE","Schweiz","CH"
4942,"Walterswil BE","Bern","BE","Schweiz","CH"
4943,"Oeschenbach","Bern","BE","Schweiz","CH"
4944,"Auswil","Bern","BE","Schweiz","CH"
4950,"Huttwil","Bern","BE","Schweiz","CH"
4952,"Eriswil","Bern","BE","Schweiz","CH"
4953,"Schwarzenbach (Huttwil)","Bern","BE","Schweiz","CH"
4954,"Wyssachen","Bern","BE","Schweiz","CH"
4955,"Gondiswil","Bern","BE","Schweiz","CH"
5000,"Aarau","Aargau","AG","Schweiz","CH"
5004,"Aarau","Aargau","AG","Schweiz","CH"
5012,"Eppenberg","Solothurn","SO","Schweiz","CH"
5012,"Wöschnau","Solothurn","SO","Schweiz","CH"
5012,"Schönenwerd","Solothurn","SO","Schweiz","CH"
5013,"Niedergösgen","Solothurn","SO","Schweiz","CH"
5014,"Gretzenbach","Solothurn","SO","Schweiz","CH"
5015,"Erlinsbach SO","Solothurn","SO","Schweiz","CH"
5017,"Barmelweid","Aargau","AG","Schweiz","CH"
5018,"Erlinsbach","Aargau","AG","Schweiz","CH"
5022,"Rombach","Aargau","AG","Schweiz","CH"
5023,"Biberstein","Aargau","AG","Schweiz","CH"
5024,"Küttigen","Aargau","AG","Schweiz","CH"
5025,"Asp","Aargau","AG","Schweiz","CH"
5026,"Densbüren","Aargau","AG","Schweiz","CH"
5027,"Herznach","Aargau","AG","Schweiz","CH"
5028,"Ueken","Aargau","AG","Schweiz","CH"
5032,"Aarau Rohr","Aargau","AG","Schweiz","CH"
5033,"Buchs AG","Aargau","AG","Schweiz","CH"
5034,"Suhr","Aargau","AG","Schweiz","CH"
5035,"Unterentfelden","Aargau","AG","Schweiz","CH"
5036,"Oberentfelden","Aargau","AG","Schweiz","CH"
5037,"Muhen","Aargau","AG","Schweiz","CH"
5040,"Schöftland","Aargau","AG","Schweiz","CH"
5042,"Hirschthal","Aargau","AG","Schweiz","CH"
5043,"Holziken","Aargau","AG","Schweiz","CH"
5044,"Schlossrued","Aargau","AG","Schweiz","CH"
5046,"Schmiedrued","Aargau","AG","Schweiz","CH"
5046,"Walde AG","Aargau","AG","Schweiz","CH"
5046,"Schmiedrued-Walde","Aargau","AG","Schweiz","CH"
5053,"Wittwil","Aargau","AG","Schweiz","CH"
5053,"Staffelbach","Aargau","AG","Schweiz","CH"
5054,"Kirchleerau","Aargau","AG","Schweiz","CH"
5054,"Moosleerau","Aargau","AG","Schweiz","CH"
5056,"Attelwil","Aargau","AG","Schweiz","CH"
5057,"Reitnau","Aargau","AG","Schweiz","CH"
5058,"Wiliberg","Aargau","AG","Schweiz","CH"
5062,"Oberhof","Aargau","AG","Schweiz","CH"
5063,"Wölflinswil","Aargau","AG","Schweiz","CH"
5064,"Wittnau","Aargau","AG","Schweiz","CH"
5070,"Frick","Aargau","AG","Schweiz","CH"
5072,"Oeschgen","Aargau","AG","Schweiz","CH"
5073,"Gipf-Oberfrick","Aargau","AG","Schweiz","CH"
5074,"Eiken","Aargau","AG","Schweiz","CH"
5075,"Hornussen","Aargau","AG","Schweiz","CH"
5076,"Bözen","Aargau","AG","Schweiz","CH"
5077,"Elfingen","Aargau","AG","Schweiz","CH"
5078,"Effingen","Aargau","AG","Schweiz","CH"
5079,"Zeihen","Aargau","AG","Schweiz","CH"
5080,"Laufenburg","Aargau","AG","Schweiz","CH"
5082,"Kaisten","Aargau","AG","Schweiz","CH"
5083,"Ittenthal","Aargau","AG","Schweiz","CH"
5084,"Rheinsulz","Aargau","AG","Schweiz","CH"
5085,"Sulz AG","Aargau","AG","Schweiz","CH"
5102,"Rupperswil","Aargau","AG","Schweiz","CH"
5103,"Wildegg","Aargau","AG","Schweiz","CH"
5103,"Möriken AG","Aargau","AG","Schweiz","CH"
5105,"Auenstein","Aargau","AG","Schweiz","CH"
5106,"Veltheim AG","Aargau","AG","Schweiz","CH"
5107,"Schinznach Dorf","Aargau","AG","Schweiz","CH"
5108,"Oberflachs","Aargau","AG","Schweiz","CH"
5112,"Thalheim AG","Aargau","AG","Schweiz","CH"
5113,"Holderbank AG","Aargau","AG","Schweiz","CH"
5116,"Schinznach Bad","Aargau","AG","Schweiz","CH"
5200,"Brugg AG","Aargau","AG","Schweiz","CH"
5210,"Windisch","Aargau","AG","Schweiz","CH"
5212,"Hausen AG","Aargau","AG","Schweiz","CH"
5213,"Villnachern","Aargau","AG","Schweiz","CH"
5222,"Umiken","Aargau","AG","Schweiz","CH"
5223,"Riniken","Aargau","AG","Schweiz","CH"
5224,"Gallenkirch","Aargau","AG","Schweiz","CH"
5224,"Linn","Aargau","AG","Schweiz","CH"
5224,"Unterbözberg","Aargau","AG","Schweiz","CH"
5225,"Oberbözberg","Aargau","AG","Schweiz","CH"
5233,"Stilli","Aargau","AG","Schweiz","CH"
5234,"Villigen","Aargau","AG","Schweiz","CH"
5235,"Rüfenach AG","Aargau","AG","Schweiz","CH"
5236,"Remigen","Aargau","AG","Schweiz","CH"
5237,"Mönthal","Aargau","AG","Schweiz","CH"
5242,"Birr","Aargau","AG","Schweiz","CH"
5242,"Lupfig","Aargau","AG","Schweiz","CH"
5243,"Mülligen","Aargau","AG","Schweiz","CH"
5244,"Birrhard","Aargau","AG","Schweiz","CH"
5245,"Habsburg","Aargau","AG","Schweiz","CH"
5246,"Scherz","Aargau","AG","Schweiz","CH"
5272,"Gansingen","Aargau","AG","Schweiz","CH"
5273,"Oberhofen AG","Aargau","AG","Schweiz","CH"
5274,"Mettau","Aargau","AG","Schweiz","CH"
5275,"Etzgen","Aargau","AG","Schweiz","CH"
5276,"Wil AG","Aargau","AG","Schweiz","CH"
5277,"Hottwil","Aargau","AG","Schweiz","CH"
5300,"Turgi","Aargau","AG","Schweiz","CH"
5301,"Siggenthal Station","Aargau","AG","Schweiz","CH"
5303,"Würenlingen","Aargau","AG","Schweiz","CH"
5304,"Endingen","Aargau","AG","Schweiz","CH"
5305,"Unterendingen","Aargau","AG","Schweiz","CH"
5306,"Tegerfelden","Aargau","AG","Schweiz","CH"
5312,"Döttingen","Aargau","AG","Schweiz","CH"
5313,"Klingnau","Aargau","AG","Schweiz","CH"
5314,"Kleindöttingen","Aargau","AG","Schweiz","CH"
5315,"Böttstein","Aargau","AG","Schweiz","CH"
5316,"Felsenau AG","Aargau","AG","Schweiz","CH"
5316,"Leuggern","Aargau","AG","Schweiz","CH"
5317,"Hettenschwil","Aargau","AG","Schweiz","CH"
5318,"Mandach","Aargau","AG","Schweiz","CH"
5322,"Koblenz","Aargau","AG","Schweiz","CH"
5323,"Rietheim","Aargau","AG","Schweiz","CH"
5324,"Full-Reuenthal","Aargau","AG","Schweiz","CH"
5325,"Leibstadt","Aargau","AG","Schweiz","CH"
5326,"Schwaderloch","Aargau","AG","Schweiz","CH"
5330,"Bad Zurzach","Aargau","AG","Schweiz","CH"
5332,"Rekingen AG","Aargau","AG","Schweiz","CH"
5333,"Baldingen","Aargau","AG","Schweiz","CH"
5334,"Böbikon","Aargau","AG","Schweiz","CH"
5400,"Baden","Aargau","AG","Schweiz","CH"
5404,"Baden","Aargau","AG","Schweiz","CH"
5405,"Dättwil AG","Aargau","AG","Schweiz","CH"
5406,"Rütihof","Aargau","AG","Schweiz","CH"
5408,"Ennetbaden","Aargau","AG","Schweiz","CH"
5412,"Gebenstorf","Aargau","AG","Schweiz","CH"
5413,"Birmenstorf AG","Aargau","AG","Schweiz","CH"
5415,"Hertenstein AG","Aargau","AG","Schweiz","CH"
5415,"Rieden AG","Aargau","AG","Schweiz","CH"
5415,"Nussbaumen AG","Aargau","AG","Schweiz","CH"
5416,"Kirchdorf AG","Aargau","AG","Schweiz","CH"
5417,"Untersiggenthal","Aargau","AG","Schweiz","CH"
5420,"Ehrendingen","Aargau","AG","Schweiz","CH"
5423,"Freienwil","Aargau","AG","Schweiz","CH"
5425,"Schneisingen","Aargau","AG","Schweiz","CH"
5426,"Lengnau AG","Aargau","AG","Schweiz","CH"
5430,"Wettingen","Aargau","AG","Schweiz","CH"
5432,"Neuenhof","Aargau","AG","Schweiz","CH"
5436,"Würenlos","Aargau","AG","Schweiz","CH"
5442,"Fislisbach","Aargau","AG","Schweiz","CH"
5443,"Niederrohrdorf","Aargau","AG","Schweiz","CH"
5444,"Künten","Aargau","AG","Schweiz","CH"
5445,"Eggenwil","Aargau","AG","Schweiz","CH"
5452,"Oberrohrdorf","Aargau","AG","Schweiz","CH"
5453,"Remetschwil","Aargau","AG","Schweiz","CH"
5454,"Bellikon","Aargau","AG","Schweiz","CH"
5462,"Siglistorf","Aargau","AG","Schweiz","CH"
5463,"Wislikofen","Aargau","AG","Schweiz","CH"
5464,"Rümikon AG","Aargau","AG","Schweiz","CH"
5465,"Mellikon","Aargau","AG","Schweiz","CH"
5466,"Kaiserstuhl AG","Aargau","AG","Schweiz","CH"
5467,"Fisibach","Aargau","AG","Schweiz","CH"
5502,"Hunzenschwil","Aargau","AG","Schweiz","CH"
5503,"Schafisheim","Aargau","AG","Schweiz","CH"
5504,"Othmarsingen","Aargau","AG","Schweiz","CH"
5505,"Brunegg","Aargau","AG","Schweiz","CH"
5506,"Mägenwil","Aargau","AG","Schweiz","CH"
5507,"Mellingen","Aargau","AG","Schweiz","CH"
5512,"Wohlenschwil","Aargau","AG","Schweiz","CH"
5522,"Tägerig","Aargau","AG","Schweiz","CH"
5524,"Nesselnbach","Aargau","AG","Schweiz","CH"
5524,"Niederwil AG","Aargau","AG","Schweiz","CH"
5525,"Fischbach-Göslikon","Aargau","AG","Schweiz","CH"
5600,"Lenzburg","Aargau","AG","Schweiz","CH"
5600,"Ammerswil AG","Aargau","AG","Schweiz","CH"
5603,"Staufen","Aargau","AG","Schweiz","CH"
5604,"Hendschiken","Aargau","AG","Schweiz","CH"
5605,"Dottikon","Aargau","AG","Schweiz","CH"
5606,"Dintikon","Aargau","AG","Schweiz","CH"
5607,"Hägglingen","Aargau","AG","Schweiz","CH"
5608,"Stetten AG","Aargau","AG","Schweiz","CH"
5610,"Wohlen AG","Aargau","AG","Schweiz","CH"
5611,"Anglikon","Aargau","AG","Schweiz","CH"
5612,"Villmergen","Aargau","AG","Schweiz","CH"
5613,"Hilfikon","Aargau","AG","Schweiz","CH"
5614,"Sarmenstorf","Aargau","AG","Schweiz","CH"
5615,"Fahrwangen","Aargau","AG","Schweiz","CH"
5616,"Meisterschwanden","Aargau","AG","Schweiz","CH"
5617,"Tennwil","Aargau","AG","Schweiz","CH"
5618,"Bettwil","Aargau","AG","Schweiz","CH"
5619,"Büttikon AG","Aargau","AG","Schweiz","CH"
5619,"Uezwil","Aargau","AG","Schweiz","CH"
5620,"Bremgarten AG","Aargau","AG","Schweiz","CH"
5621,"Zufikon","Aargau","AG","Schweiz","CH"
5622,"Waltenschwil","Aargau","AG","Schweiz","CH"
5623,"Boswil","Aargau","AG","Schweiz","CH"
5624,"Waldhäusern AG","Aargau","AG","Schweiz","CH"
5624,"Bünzen","Aargau","AG","Schweiz","CH"
5625,"Kallern","Aargau","AG","Schweiz","CH"
5626,"Hermetschwil-Staffeln","Aargau","AG","Schweiz","CH"
5627,"Besenbüren","Aargau","AG","Schweiz","CH"
5628,"Aristau","Aargau","AG","Schweiz","CH"
5630,"Muri AG","Aargau","AG","Schweiz","CH"
5632,"Buttwil","Aargau","AG","Schweiz","CH"
5634,"Merenschwand","Aargau","AG","Schweiz","CH"
5636,"Benzenschwil","Aargau","AG","Schweiz","CH"
5637,"Geltwil","Aargau","AG","Schweiz","CH"
5637,"Beinwil (Freiamt)","Aargau","AG","Schweiz","CH"
5642,"Mühlau","Aargau","AG","Schweiz","CH"
5643,"Alikon","Aargau","AG","Schweiz","CH"
5643,"Meienberg","Aargau","AG","Schweiz","CH"
5643,"Sins","Aargau","AG","Schweiz","CH"
5644,"Auw","Aargau","AG","Schweiz","CH"
5645,"Aettenschwil","Aargau","AG","Schweiz","CH"
5645,"Fenkrieden","Aargau","AG","Schweiz","CH"
5646,"Abtwil AG","Aargau","AG","Schweiz","CH"
5647,"Oberrüti","Aargau","AG","Schweiz","CH"
5702,"Niederlenz","Aargau","AG","Schweiz","CH"
5703,"Seon","Aargau","AG","Schweiz","CH"
5704,"Egliswil","Aargau","AG","Schweiz","CH"
5705,"Hallwil","Aargau","AG","Schweiz","CH"
5706,"Boniswil","Aargau","AG","Schweiz","CH"
5707,"Seengen","Aargau","AG","Schweiz","CH"
5708,"Birrwil","Aargau","AG","Schweiz","CH"
5712,"Beinwil am See","Aargau","AG","Schweiz","CH"
5722,"Gränichen","Aargau","AG","Schweiz","CH"
5723,"Teufenthal AG","Aargau","AG","Schweiz","CH"
5724,"Dürrenäsch","Aargau","AG","Schweiz","CH"
5725,"Leutwil","Aargau","AG","Schweiz","CH"
5726,"Unterkulm","Aargau","AG","Schweiz","CH"
5727,"Oberkulm","Aargau","AG","Schweiz","CH"
5728,"Gontenschwil","Aargau","AG","Schweiz","CH"
5732,"Zetzwil","Aargau","AG","Schweiz","CH"
5733,"Leimbach AG","Aargau","AG","Schweiz","CH"
5734,"Reinach AG","Aargau","AG","Schweiz","CH"
5735,"Pfeffikon LU","Luzern","LU","Schweiz","CH"
5736,"Burg AG","Aargau","AG","Schweiz","CH"
5737,"Menziken","Aargau","AG","Schweiz","CH"
5742,"Kölliken","Aargau","AG","Schweiz","CH"
5745,"Safenwil","Aargau","AG","Schweiz","CH"
5746,"Walterswil SO","Solothurn","SO","Schweiz","CH"
6000,"Luzern","Luzern","LU","Schweiz","CH"
6003,"Luzern","Luzern","LU","Schweiz","CH"
6004,"Luzern","Luzern","LU","Schweiz","CH"
6005,"Luzern","Luzern","LU","Schweiz","CH"
6005,"St. Niklausen LU","Luzern","LU","Schweiz","CH"
6006,"Luzern","Luzern","LU","Schweiz","CH"
6010,"Kriens","Luzern","LU","Schweiz","CH"
6010,"Pilatus Kulm","Obwalden","OW","Schweiz","CH"
6012,"Obernau","Luzern","LU","Schweiz","CH"
6013,"Eigenthal","Luzern","LU","Schweiz","CH"
6014,"Luzern","Luzern","LU","Schweiz","CH"
6015,"Luzern","Luzern","LU","Schweiz","CH"
6016,"Hellbühl","Luzern","LU","Schweiz","CH"
6017,"Ruswil","Luzern","LU","Schweiz","CH"
6018,"Buttisholz","Luzern","LU","Schweiz","CH"
6019,"Sigigen","Luzern","LU","Schweiz","CH"
6020,"Emmenbrücke","Luzern","LU","Schweiz","CH"
6022,"Grosswangen","Luzern","LU","Schweiz","CH"
6023,"Rothenburg","Luzern","LU","Schweiz","CH"
6024,"Hildisrieden","Luzern","LU","Schweiz","CH"
6025,"Neudorf","Luzern","LU","Schweiz","CH"
6026,"Rain","Luzern","LU","Schweiz","CH"
6027,"Römerswil LU","Luzern","LU","Schweiz","CH"
6028,"Herlisberg","Luzern","LU","Schweiz","CH"
6030,"Ebikon","Luzern","LU","Schweiz","CH"
6032,"Emmen","Luzern","LU","Schweiz","CH"
6033,"Buchrain","Luzern","LU","Schweiz","CH"
6034,"Inwil","Luzern","LU","Schweiz","CH"
6035,"Perlen","Luzern","LU","Schweiz","CH"
6036,"Dierikon","Luzern","LU","Schweiz","CH"
6037,"Root","Luzern","LU","Schweiz","CH"
6038,"Gisikon","Luzern","LU","Schweiz","CH"
6038,"Honau","Luzern","LU","Schweiz","CH"
6039,"Root Längenbold","Luzern","LU","Schweiz","CH"
6042,"Dietwil","Aargau","AG","Schweiz","CH"
6043,"Adligenswil","Luzern","LU","Schweiz","CH"
6044,"Udligenswil","Luzern","LU","Schweiz","CH"
6045,"Meggen","Luzern","LU","Schweiz","CH"
6047,"Kastanienbaum","Luzern","LU","Schweiz","CH"
6048,"Horw","Luzern","LU","Schweiz","CH"
6052,"Hergiswil NW","Nidwalden","NW","Schweiz","CH"
6053,"Alpnachstad","Obwalden","OW","Schweiz","CH"
6055,"Alpnach Dorf","Obwalden","OW","Schweiz","CH"
6056,"Kägiswil","Obwalden","OW","Schweiz","CH"
6060,"Sarnen","Obwalden","OW","Schweiz","CH"
6060,"Ramersberg","Obwalden","OW","Schweiz","CH"
6062,"Wilen (Sarnen)","Obwalden","OW","Schweiz","CH"
6063,"Stalden (Sarnen)","Obwalden","OW","Schweiz","CH"
6064,"Kerns","Obwalden","OW","Schweiz","CH"
6066,"St. Niklausen OW","Obwalden","OW","Schweiz","CH"
6067,"Melchtal","Obwalden","OW","Schweiz","CH"
6068,"Melchsee-Frutt","Obwalden","OW","Schweiz","CH"
6072,"Sachseln","Obwalden","OW","Schweiz","CH"
6073,"Flüeli-Ranft","Obwalden","OW","Schweiz","CH"
6074,"Giswil","Obwalden","OW","Schweiz","CH"
6078,"Bürglen OW","Obwalden","OW","Schweiz","CH"
6078,"Lungern","Obwalden","OW","Schweiz","CH"
6083,"Hasliberg Hohfluh","Bern","BE","Schweiz","CH"
6084,"Hasliberg Wasserwendi","Bern","BE","Schweiz","CH"
6085,"Hasliberg Goldern","Bern","BE","Schweiz","CH"
6086,"Hasliberg Reuti","Bern","BE","Schweiz","CH"
6102,"Malters","Luzern","LU","Schweiz","CH"
6103,"Schwarzenberg LU","Luzern","LU","Schweiz","CH"
6105,"Schachen LU","Luzern","LU","Schweiz","CH"
6106,"Werthenstein","Luzern","LU","Schweiz","CH"
6110,"Fontannen b. Wolhusen","Luzern","LU","Schweiz","CH"
6110,"Wolhusen","Luzern","LU","Schweiz","CH"
6112,"Doppleschwand","Luzern","LU","Schweiz","CH"
6113,"Romoos","Luzern","LU","Schweiz","CH"
6114,"Steinhuserberg","Luzern","LU","Schweiz","CH"
6122,"Menznau","Luzern","LU","Schweiz","CH"
6123,"Geiss","Luzern","LU","Schweiz","CH"
6125,"Menzberg","Luzern","LU","Schweiz","CH"
6126,"Daiwil","Luzern","LU","Schweiz","CH"
6130,"Willisau","Luzern","LU","Schweiz","CH"
6132,"Rohrmatt","Luzern","LU","Schweiz","CH"
6133,"Hergiswil b. Willisau","Luzern","LU","Schweiz","CH"
6142,"Gettnau","Luzern","LU","Schweiz","CH"
6143,"Ohmstal","Luzern","LU","Schweiz","CH"
6144,"Zell LU","Luzern","LU","Schweiz","CH"
6145,"Fischbach LU","Luzern","LU","Schweiz","CH"
6146,"Grossdietwil","Luzern","LU","Schweiz","CH"
6147,"Altbüron","Luzern","LU","Schweiz","CH"
6152,"Hüswil","Luzern","LU","Schweiz","CH"
6153,"Ufhusen","Luzern","LU","Schweiz","CH"
6154,"Hofstatt","Luzern","LU","Schweiz","CH"
6156,"Luthern Bad","Luzern","LU","Schweiz","CH"
6156,"Luthern","Luzern","LU","Schweiz","CH"
6162,"Rengg","Luzern","LU","Schweiz","CH"
6162,"Finsterwald b. Entlebuch","Luzern","LU","Schweiz","CH"
6162,"Entlebuch","Luzern","LU","Schweiz","CH"
6163,"Ebnet","Luzern","LU","Schweiz","CH"
6166,"Hasle LU","Luzern","LU","Schweiz","CH"
6167,"Bramboden","Luzern","LU","Schweiz","CH"
6170,"Schüpfheim","Luzern","LU","Schweiz","CH"
6173,"Flühli LU","Luzern","LU","Schweiz","CH"
6174,"Sörenberg","Luzern","LU","Schweiz","CH"
6182,"Escholzmatt","Luzern","LU","Schweiz","CH"
6192,"Wiggen","Luzern","LU","Schweiz","CH"
6196,"Marbach LU","Luzern","LU","Schweiz","CH"
6197,"Schangnau","Bern","BE","Schweiz","CH"
6203,"Sempach Station","Luzern","LU","Schweiz","CH"
6204,"Sempach","Luzern","LU","Schweiz","CH"
6205,"Eich","Luzern","LU","Schweiz","CH"
6206,"Neuenkirch","Luzern","LU","Schweiz","CH"
6207,"Nottwil","Luzern","LU","Schweiz","CH"
6208,"Oberkirch LU","Luzern","LU","Schweiz","CH"
6210,"Sursee","Luzern","LU","Schweiz","CH"
6211,"Buchs LU","Luzern","LU","Schweiz","CH"
6212,"Kaltbach","Luzern","LU","Schweiz","CH"
6212,"St. Erhard","Luzern","LU","Schweiz","CH"
6213,"Knutwil","Luzern","LU","Schweiz","CH"
6214,"Schenkon","Luzern","LU","Schweiz","CH"
6215,"Schwarzenbach Beromünster","Luzern","LU","Schweiz","CH"
6215,"Beromünster","Luzern","LU","Schweiz","CH"
6216,"Mauensee","Luzern","LU","Schweiz","CH"
6217,"Kottwil","Luzern","LU","Schweiz","CH"
6218,"Ettiswil","Luzern","LU","Schweiz","CH"
6221,"Rickenbach LU","Luzern","LU","Schweiz","CH"
6222,"Gunzwil","Luzern","LU","Schweiz","CH"
6231,"Schlierbach","Luzern","LU","Schweiz","CH"
6232,"Geuensee","Luzern","LU","Schweiz","CH"
6233,"Büron","Luzern","LU","Schweiz","CH"
6234,"Kulmerau","Luzern","LU","Schweiz","CH"
6234,"Triengen","Luzern","LU","Schweiz","CH"
6235,"Winikon","Luzern","LU","Schweiz","CH"
6236,"Wilihof","Luzern","LU","Schweiz","CH"
6242,"Wauwil","Luzern","LU","Schweiz","CH"
6243,"Egolzwil","Luzern","LU","Schweiz","CH"
6244,"Nebikon","Luzern","LU","Schweiz","CH"
6245,"Ebersecken","Luzern","LU","Schweiz","CH"
6246,"Altishofen","Luzern","LU","Schweiz","CH"
6247,"Schötz","Luzern","LU","Schweiz","CH"
6248,"Alberswil","Luzern","LU","Schweiz","CH"
6252,"Dagmersellen","Luzern","LU","Schweiz","CH"
6253,"Uffikon","Luzern","LU","Schweiz","CH"
6260,"Reidermoos","Luzern","LU","Schweiz","CH"
6260,"Hintermoos","Luzern","LU","Schweiz","CH"
6260,"Mehlsecken","Luzern","LU","Schweiz","CH"
6260,"Reiden","Luzern","LU","Schweiz","CH"
6262,"Langnau b. Reiden","Luzern","LU","Schweiz","CH"
6263,"Richenthal","Luzern","LU","Schweiz","CH"
6264,"Pfaffnau","Luzern","LU","Schweiz","CH"
6265,"Roggliswil","Luzern","LU","Schweiz","CH"
6274,"Eschenbach LU","Luzern","LU","Schweiz","CH"
6275,"Ballwil","Luzern","LU","Schweiz","CH"
6276,"Hohenrain","Luzern","LU","Schweiz","CH"
6277,"Kleinwangen","Luzern","LU","Schweiz","CH"
6277,"Lieli LU","Luzern","LU","Schweiz","CH"
6280,"Hochdorf","Luzern","LU","Schweiz","CH"
6280,"Urswil","Luzern","LU","Schweiz","CH"
6283,"Baldegg","Luzern","LU","Schweiz","CH"
6284,"Sulz LU","Luzern","LU","Schweiz","CH"
6284,"Gelfingen","Luzern","LU","Schweiz","CH"
6285,"Retschwil","Luzern","LU","Schweiz","CH"
6285,"Hitzkirch","Luzern","LU","Schweiz","CH"
6286,"Altwis","Luzern","LU","Schweiz","CH"
6287,"Aesch LU","Luzern","LU","Schweiz","CH"
6288,"Schongau","Luzern","LU","Schweiz","CH"
6289,"Müswangen","Luzern","LU","Schweiz","CH"
6289,"Hämikon","Luzern","LU","Schweiz","CH"
6294,"Ermensee","Luzern","LU","Schweiz","CH"
6295,"Mosen","Luzern","LU","Schweiz","CH"
6300,"Zug","Zug","ZG","Schweiz","CH"
6300,"Zugerberg","Zug","ZG","Schweiz","CH"
6312,"Steinhausen","Zug","ZG","Schweiz","CH"
6313,"Edlibach","Zug","ZG","Schweiz","CH"
6313,"Finstersee","Zug","ZG","Schweiz","CH"
6313,"Menzingen","Zug","ZG","Schweiz","CH"
6314,"Neuägeri","Zug","ZG","Schweiz","CH"
6314,"Unterägeri","Zug","ZG","Schweiz","CH"
6315,"Morgarten","Zug","ZG","Schweiz","CH"
6315,"Alosen","Zug","ZG","Schweiz","CH"
6315,"Oberägeri","Zug","ZG","Schweiz","CH"
6317,"Oberwil b. Zug","Zug","ZG","Schweiz","CH"
6318,"Walchwil","Zug","ZG","Schweiz","CH"
6319,"Allenwinden","Zug","ZG","Schweiz","CH"
6330,"Cham","Zug","ZG","Schweiz","CH"
6331,"Hünenberg","Zug","ZG","Schweiz","CH"
6332,"Hagendorn","Zug","ZG","Schweiz","CH"
6333,"Hünenberg See","Zug","ZG","Schweiz","CH"
6340,"Baar","Zug","ZG","Schweiz","CH"
6340,"Sihlbrugg","Zug","ZG","Schweiz","CH"
6343,"Buonas","Zug","ZG","Schweiz","CH"
6343,"Risch","Zug","ZG","Schweiz","CH"
6343,"Holzhäusern ZG","Zug","ZG","Schweiz","CH"
6343,"Rotkreuz","Zug","ZG","Schweiz","CH"
6344,"Meierskappel","Luzern","LU","Schweiz","CH"
6345,"Neuheim","Zug","ZG","Schweiz","CH"
6353,"Weggis","Luzern","LU","Schweiz","CH"
6354,"Vitznau","Luzern","LU","Schweiz","CH"
6356,"Rigi Kaltbad","Luzern","LU","Schweiz","CH"
6362,"Stansstad","Nidwalden","NW","Schweiz","CH"
6363,"Obbürgen","Nidwalden","NW","Schweiz","CH"
6363,"Bürgenstock","Nidwalden","NW","Schweiz","CH"
6363,"Fürigen","Nidwalden","NW","Schweiz","CH"
6365,"Kehrsiten","Nidwalden","NW","Schweiz","CH"
6370,"Stans","Nidwalden","NW","Schweiz","CH"
6370,"Oberdorf NW","Nidwalden","NW","Schweiz","CH"
6372,"Ennetmoos","Nidwalden","NW","Schweiz","CH"
6373,"Ennetbürgen","Nidwalden","NW","Schweiz","CH"
6374,"Buochs","Nidwalden","NW","Schweiz","CH"
6375,"Beckenried","Nidwalden","NW","Schweiz","CH"
6376,"Emmetten","Nidwalden","NW","Schweiz","CH"
6377,"Seelisberg","Uri","UR","Schweiz","CH"
6382,"Büren NW","Nidwalden","NW","Schweiz","CH"
6383,"Niederrickenbach","Nidwalden","NW","Schweiz","CH"
6383,"Wiesenberg","Nidwalden","NW","Schweiz","CH"
6383,"Wirzweli","Nidwalden","NW","Schweiz","CH"
6383,"Dallenwil","Nidwalden","NW","Schweiz","CH"
6386,"Wolfenschiessen","Nidwalden","NW","Schweiz","CH"
6387,"Oberrickenbach","Nidwalden","NW","Schweiz","CH"
6388,"Grafenort","Obwalden","OW","Schweiz","CH"
6390,"Engelberg","Obwalden","OW","Schweiz","CH"
6402,"Merlischachen","Schwyz","SZ","Schweiz","CH"
6403,"Küssnacht am Rigi","Schwyz","SZ","Schweiz","CH"
6404,"Greppen","Luzern","LU","Schweiz","CH"
6405,"Immensee","Schwyz","SZ","Schweiz","CH"
6410,"Rigi Klösterli","Schwyz","SZ","Schweiz","CH"
6410,"Rigi Staffel","Schwyz","SZ","Schweiz","CH"
6410,"Rigi Kulm","Schwyz","SZ","Schweiz","CH"
6410,"Rigi Scheidegg","Schwyz","SZ","Schweiz","CH"
6410,"Goldau","Schwyz","SZ","Schweiz","CH"
6414,"Oberarth","Schwyz","SZ","Schweiz","CH"
6415,"Arth","Schwyz","SZ","Schweiz","CH"
6416,"Steinerberg","Schwyz","SZ","Schweiz","CH"
6417,"Sattel","Schwyz","SZ","Schweiz","CH"
6418,"Rothenthurm","Schwyz","SZ","Schweiz","CH"
6422,"Steinen","Schwyz","SZ","Schweiz","CH"
6423,"Seewen SZ","Schwyz","SZ","Schweiz","CH"
6424,"Lauerz","Schwyz","SZ","Schweiz","CH"
6430,"Schwyz","Schwyz","SZ","Schweiz","CH"
6432,"Rickenbach b. Schwyz","Schwyz","SZ","Schweiz","CH"
6433,"Stoos SZ","Schwyz","SZ","Schweiz","CH"
6434,"Illgau","Schwyz","SZ","Schweiz","CH"
6436,"Ried (Muotathal)","Schwyz","SZ","Schweiz","CH"
6436,"Bisisthal","Schwyz","SZ","Schweiz","CH"
6436,"Muotathal","Schwyz","SZ","Schweiz","CH"
6438,"Ibach","Schwyz","SZ","Schweiz","CH"
6440,"Brunnen","Schwyz","SZ","Schweiz","CH"
6441,"Rütli","Uri","UR","Schweiz","CH"
6442,"Gersau","Schwyz","SZ","Schweiz","CH"
6443,"Morschach","Schwyz","SZ","Schweiz","CH"
6452,"Riemenstalden","Schwyz","SZ","Schweiz","CH"
6452,"Sisikon","Uri","UR","Schweiz","CH"
6454,"Flüelen","Uri","UR","Schweiz","CH"
6460,"Altdorf UR","Uri","UR","Schweiz","CH"
6461,"Isenthal","Uri","UR","Schweiz","CH"
6462,"Seedorf UR","Uri","UR","Schweiz","CH"
6463,"Bürglen UR","Uri","UR","Schweiz","CH"
6464,"Spiringen","Uri","UR","Schweiz","CH"
6465,"Unterschächen","Uri","UR","Schweiz","CH"
6466,"Bauen","Uri","UR","Schweiz","CH"
6467,"Schattdorf","Uri","UR","Schweiz","CH"
6468,"Attinghausen","Uri","UR","Schweiz","CH"
6469,"Haldi b. Schattdorf","Uri","UR","Schweiz","CH"
6472,"Erstfeld","Uri","UR","Schweiz","CH"
6473,"Silenen","Uri","UR","Schweiz","CH"
6474,"Amsteg","Uri","UR","Schweiz","CH"
6475,"Bristen","Uri","UR","Schweiz","CH"
6476,"Intschi","Uri","UR","Schweiz","CH"
6482,"Gurtnellen","Uri","UR","Schweiz","CH"
6484,"Wassen UR","Uri","UR","Schweiz","CH"
6485,"Meien","Uri","UR","Schweiz","CH"
6487,"Göschenen","Uri","UR","Schweiz","CH"
6490,"Andermatt","Uri","UR","Schweiz","CH"
6491,"Realp","Uri","UR","Schweiz","CH"
6493,"Hospental","Uri","UR","Schweiz","CH"
6500,"Bellinzona","Tessin","TI","Schweiz","CH"
6503,"Bellinzona","Tessin","TI","Schweiz","CH"
6512,"Giubiasco","Tessin","TI","Schweiz","CH"
6513,"Monte Carasso","Tessin","TI","Schweiz","CH"
6514,"Sementina","Tessin","TI","Schweiz","CH"
6515,"Gudo","Tessin","TI","Schweiz","CH"
6516,"Cugnasco","Tessin","TI","Schweiz","CH"
6517,"Arbedo","Tessin","TI","Schweiz","CH"
6518,"Gorduno","Tessin","TI","Schweiz","CH"
6523,"Preonzo","Tessin","TI","Schweiz","CH"
6524,"Moleno","Tessin","TI","Schweiz","CH"
6525,"Gnosca","Tessin","TI","Schweiz","CH"
6526,"Prosito","Tessin","TI","Schweiz","CH"
6527,"Lodrino","Tessin","TI","Schweiz","CH"
6528,"Camorino","Tessin","TI","Schweiz","CH"
6532,"Castione","Tessin","TI","Schweiz","CH"
6533,"Lumino","Tessin","TI","Schweiz","CH"
6534,"S. Vittore","Graubünden","GR","Schweiz","CH"
6535,"Roveredo GR","Graubünden","GR","Schweiz","CH"
6537,"Grono","Graubünden","GR","Schweiz","CH"
6538,"Verdabbio","Graubünden","GR","Schweiz","CH"
6540,"Castaneda","Graubünden","GR","Schweiz","CH"
6541,"Sta. Maria in Calanca","Graubünden","GR","Schweiz","CH"
6542,"Buseno","Graubünden","GR","Schweiz","CH"
6543,"Arvigo","Graubünden","GR","Schweiz","CH"
6544,"Braggio","Graubünden","GR","Schweiz","CH"
6545,"Selma","Graubünden","GR","Schweiz","CH"
6546,"Cauco","Graubünden","GR","Schweiz","CH"
6547,"Augio","Graubünden","GR","Schweiz","CH"
6548,"Rossa","Graubünden","GR","Schweiz","CH"
6549,"Laura","Graubünden","GR","Schweiz","CH"
6556,"Leggia","Graubünden","GR","Schweiz","CH"
6557,"Cama","Graubünden","GR","Schweiz","CH"
6558,"Lostallo","Graubünden","GR","Schweiz","CH"
6562,"Soazza","Graubünden","GR","Schweiz","CH"
6563,"Mesocco","Graubünden","GR","Schweiz","CH"
6565,"S. Bernardino","Graubünden","GR","Schweiz","CH"
6571,"Indemini","Tessin","TI","Schweiz","CH"
6572,"Quartino","Tessin","TI","Schweiz","CH"
6573,"Magadino","Tessin","TI","Schweiz","CH"
6574,"Vira (Gambarogno)","Tessin","TI","Schweiz","CH"
6575,"Vairano","Tessin","TI","Schweiz","CH"
6575,"S. Nazzaro","Tessin","TI","Schweiz","CH"
6576,"Gerra (Gambarogno)","Tessin","TI","Schweiz","CH"
6577,"Ranzo","Tessin","TI","Schweiz","CH"
6578,"Caviano","Tessin","TI","Schweiz","CH"
6579,"Piazzogna","Tessin","TI","Schweiz","CH"
6582,"Pianezzo","Tessin","TI","Schweiz","CH"
6583,"S. Antonio (Val Morobbia)","Tessin","TI","Schweiz","CH"
6584,"Carena","Tessin","TI","Schweiz","CH"
6592,"S. Antonino","Tessin","TI","Schweiz","CH"
6593,"Cadenazzo","Tessin","TI","Schweiz","CH"
6594,"Contone","Tessin","TI","Schweiz","CH"
6595,"Riazzino","Tessin","TI","Schweiz","CH"
6596,"Gordola","Tessin","TI","Schweiz","CH"
6597,"Agarone","Tessin","TI","Schweiz","CH"
6598,"Tenero","Tessin","TI","Schweiz","CH"
6599,"Robasacco","Tessin","TI","Schweiz","CH"
6600,"Locarno","Tessin","TI","Schweiz","CH"
6600,"Muralto","Tessin","TI","Schweiz","CH"
6600,"Solduno","Tessin","TI","Schweiz","CH"
6605,"Monte Brè sopra Locarno","Tessin","TI","Schweiz","CH"
6605,"Locarno","Tessin","TI","Schweiz","CH"
6611,"Mosogno","Tessin","TI","Schweiz","CH"
6611,"Gresso","Tessin","TI","Schweiz","CH"
6611,"Crana","Tessin","TI","Schweiz","CH"
6612,"Ascona","Tessin","TI","Schweiz","CH"
6613,"Porto Ronco","Tessin","TI","Schweiz","CH"
6614,"Isole di Brissago","Tessin","TI","Schweiz","CH"
6614,"Brissago","Tessin","TI","Schweiz","CH"
6616,"Losone","Tessin","TI","Schweiz","CH"
6618,"Arcegno","Tessin","TI","Schweiz","CH"
6622,"Ronco sopra Ascona","Tessin","TI","Schweiz","CH"
6631,"Corippo","Tessin","TI","Schweiz","CH"
6632,"Vogorno","Tessin","TI","Schweiz","CH"
6633,"Lavertezzo","Tessin","TI","Schweiz","CH"
6634,"Brione (Verzasca)","Tessin","TI","Schweiz","CH"
6635,"Gerra (Verzasca)","Tessin","TI","Schweiz","CH"
6636,"Frasco","Tessin","TI","Schweiz","CH"
6637,"Sonogno","Tessin","TI","Schweiz","CH"
6644,"Orselina","Tessin","TI","Schweiz","CH"
6645,"Brione sopra Minusio","Tessin","TI","Schweiz","CH"
6646,"Contra","Tessin","TI","Schweiz","CH"
6647,"Mergoscia","Tessin","TI","Schweiz","CH"
6648,"Minusio","Tessin","TI","Schweiz","CH"
6652,"Tegna","Tessin","TI","Schweiz","CH"
6653,"Verscio","Tessin","TI","Schweiz","CH"
6654,"Cavigliano","Tessin","TI","Schweiz","CH"
6655,"Verdasio","Tessin","TI","Schweiz","CH"
6655,"Rasa","Tessin","TI","Schweiz","CH"
6655,"Intragna","Tessin","TI","Schweiz","CH"
6656,"Golino","Tessin","TI","Schweiz","CH"
6657,"Palagnedra","Tessin","TI","Schweiz","CH"
6658,"Borgnone","Tessin","TI","Schweiz","CH"
6659,"Moneto","Tessin","TI","Schweiz","CH"
6659,"Camedo","Tessin","TI","Schweiz","CH"
6661,"Auressio","Tessin","TI","Schweiz","CH"
6661,"Berzona","Tessin","TI","Schweiz","CH"
6661,"Loco","Tessin","TI","Schweiz","CH"
6662,"Russo","Tessin","TI","Schweiz","CH"
6663,"Comologno","Tessin","TI","Schweiz","CH"
6663,"Spruga","Tessin","TI","Schweiz","CH"
6664,"Vergeletto","Tessin","TI","Schweiz","CH"
6670,"Avegno","Tessin","TI","Schweiz","CH"
6672,"Gordevio","Tessin","TI","Schweiz","CH"
6673,"Maggia","Tessin","TI","Schweiz","CH"
6674,"Riveo","Tessin","TI","Schweiz","CH"
6674,"Someo","Tessin","TI","Schweiz","CH"
6675,"Cevio","Tessin","TI","Schweiz","CH"
6676,"Bignasco","Tessin","TI","Schweiz","CH"
6677,"Moghegno","Tessin","TI","Schweiz","CH"
6677,"Aurigeno","Tessin","TI","Schweiz","CH"
6678,"Coglio","Tessin","TI","Schweiz","CH"
6678,"Lodano","Tessin","TI","Schweiz","CH"
6678,"Giumaglio","Tessin","TI","Schweiz","CH"
6682,"Linescio","Tessin","TI","Schweiz","CH"
6683,"Cerentino","Tessin","TI","Schweiz","CH"
6683,"Niva (Vallemaggia)","Tessin","TI","Schweiz","CH"
6684,"Campo (Vallemaggia)","Tessin","TI","Schweiz","CH"
6684,"Cimalmotto","Tessin","TI","Schweiz","CH"
6685,"Bosco/Gurin","Tessin","TI","Schweiz","CH"
6690,"Cavergno","Tessin","TI","Schweiz","CH"
6690,"S. Carlo (Val Bavona)","Tessin","TI","Schweiz","CH"
6692,"Brontallo","Tessin","TI","Schweiz","CH"
6692,"Menzonio","Tessin","TI","Schweiz","CH"
6693,"Broglio","Tessin","TI","Schweiz","CH"
6694,"Prato-Sornico","Tessin","TI","Schweiz","CH"
6695,"Peccia","Tessin","TI","Schweiz","CH"
6695,"Piano di Peccia","Tessin","TI","Schweiz","CH"
6696,"Fusio","Tessin","TI","Schweiz","CH"
6702,"Claro","Tessin","TI","Schweiz","CH"
6703,"Osogna","Tessin","TI","Schweiz","CH"
6705,"Cresciano","Tessin","TI","Schweiz","CH"
6707,"Iragna","Tessin","TI","Schweiz","CH"
6710,"Biasca","Tessin","TI","Schweiz","CH"
6710,"Biasca Stazione","Tessin","TI","Schweiz","CH"
6713,"Malvaglia","Tessin","TI","Schweiz","CH"
6714,"Semione","Tessin","TI","Schweiz","CH"
6715,"Dongio","Tessin","TI","Schweiz","CH"
6716,"Leontica","Tessin","TI","Schweiz","CH"
6716,"Lottigna","Tessin","TI","Schweiz","CH"
6716,"Acquarossa","Tessin","TI","Schweiz","CH"
6717,"Dangio-Torre","Tessin","TI","Schweiz","CH"
6717,"Torre","Tessin","TI","Schweiz","CH"
6718,"Camperio","Tessin","TI","Schweiz","CH"
6718,"Olivone","Tessin","TI","Schweiz","CH"
6719,"Aquila","Tessin","TI","Schweiz","CH"
6720,"Campo (Blenio)","Tessin","TI","Schweiz","CH"
6720,"Ghirone","Tessin","TI","Schweiz","CH"
6721,"Ludiano","Tessin","TI","Schweiz","CH"
6721,"Motto (Blenio)","Tessin","TI","Schweiz","CH"
6722,"Corzoneso","Tessin","TI","Schweiz","CH"
6723,"Prugiasco","Tessin","TI","Schweiz","CH"
6723,"Castro","Tessin","TI","Schweiz","CH"
6723,"Marolta","Tessin","TI","Schweiz","CH"
6724,"Ponto Valentino","Tessin","TI","Schweiz","CH"
6724,"Largario","Tessin","TI","Schweiz","CH"
6742,"Pollegio","Tessin","TI","Schweiz","CH"
6743,"Bodio TI","Tessin","TI","Schweiz","CH"
6744,"Personico","Tessin","TI","Schweiz","CH"
6745,"Giornico","Tessin","TI","Schweiz","CH"
6746,"Calonico","Tessin","TI","Schweiz","CH"
6746,"Nivo","Tessin","TI","Schweiz","CH"
6746,"Lavorgo","Tessin","TI","Schweiz","CH"
6747,"Chironico","Tessin","TI","Schweiz","CH"
6748,"Anzonico","Tessin","TI","Schweiz","CH"
6749,"Sobrio","Tessin","TI","Schweiz","CH"
6749,"Cavagnago","Tessin","TI","Schweiz","CH"
6760,"Molare","Tessin","TI","Schweiz","CH"
6760,"Calpiogna","Tessin","TI","Schweiz","CH"
6760,"Carì","Tessin","TI","Schweiz","CH"
6760,"Rossura","Tessin","TI","Schweiz","CH"
6760,"Faido","Tessin","TI","Schweiz","CH"
6760,"Campello","Tessin","TI","Schweiz","CH"
6763,"Mairengo","Tessin","TI","Schweiz","CH"
6763,"Osco","Tessin","TI","Schweiz","CH"
6764,"Chiggiogna","Tessin","TI","Schweiz","CH"
6772,"Rodi-Fiesso","Tessin","TI","Schweiz","CH"
6773,"Prato (Leventina)","Tessin","TI","Schweiz","CH"
6774,"Dalpe","Tessin","TI","Schweiz","CH"
6775,"Ambrì","Tessin","TI","Schweiz","CH"
6776,"Piotta","Tessin","TI","Schweiz","CH"
6777,"Quinto","Tessin","TI","Schweiz","CH"
6777,"Varenzo","Tessin","TI","Schweiz","CH"
6780,"Madrano","Tessin","TI","Schweiz","CH"
6780,"Airolo","Tessin","TI","Schweiz","CH"
6781,"Villa Bedretto","Tessin","TI","Schweiz","CH"
6781,"Bedretto","Tessin","TI","Schweiz","CH"
6802,"Rivera","Tessin","TI","Schweiz","CH"
6803,"Camignolo","Tessin","TI","Schweiz","CH"
6804,"Bironico","Tessin","TI","Schweiz","CH"
6805,"Mezzovico","Tessin","TI","Schweiz","CH"
6806,"Sigirino","Tessin","TI","Schweiz","CH"
6807,"Taverne","Tessin","TI","Schweiz","CH"
6808,"Torricella","Tessin","TI","Schweiz","CH"
6809,"Medeglia","Tessin","TI","Schweiz","CH"
6810,"Isone","Tessin","TI","Schweiz","CH"
6814,"Lamone","Tessin","TI","Schweiz","CH"
6814,"Cadempino","Tessin","TI","Schweiz","CH"
6815,"Melide","Tessin","TI","Schweiz","CH"
6816,"Bissone","Tessin","TI","Schweiz","CH"
6817,"Maroggia","Tessin","TI","Schweiz","CH"
6818,"Melano","Tessin","TI","Schweiz","CH"
6821,"Rovio","Tessin","TI","Schweiz","CH"
6822,"Arogno","Tessin","TI","Schweiz","CH"
6823,"Pugerna","Tessin","TI","Schweiz","CH"
6825,"Capolago","Tessin","TI","Schweiz","CH"
6826,"Riva San Vitale","Tessin","TI","Schweiz","CH"
6827,"Brusino Arsizio","Tessin","TI","Schweiz","CH"
6828,"Balerna","Tessin","TI","Schweiz","CH"
6830,"Chiasso","Tessin","TI","Schweiz","CH"
6832,"Seseglio","Tessin","TI","Schweiz","CH"
6832,"Pedrinate","Tessin","TI","Schweiz","CH"
6833,"Vacallo","Tessin","TI","Schweiz","CH"
6834,"Morbio Inferiore","Tessin","TI","Schweiz","CH"
6835,"Morbio Superiore","Tessin","TI","Schweiz","CH"
6837,"Bruzella","Tessin","TI","Schweiz","CH"
6837,"Caneggio","Tessin","TI","Schweiz","CH"
6838,"Cabbio","Tessin","TI","Schweiz","CH"
6838,"Scudellate","Tessin","TI","Schweiz","CH"
6838,"Muggio","Tessin","TI","Schweiz","CH"
6839,"Sagno","Tessin","TI","Schweiz","CH"
6850,"Mendrisio","Tessin","TI","Schweiz","CH"
6852,"Genestrerio","Tessin","TI","Schweiz","CH"
6853,"Ligornetto","Tessin","TI","Schweiz","CH"
6854,"S. Pietro","Tessin","TI","Schweiz","CH"
6855,"Stabio","Tessin","TI","Schweiz","CH"
6862,"Rancate","Tessin","TI","Schweiz","CH"
6863,"Besazio","Tessin","TI","Schweiz","CH"
6864,"Arzo","Tessin","TI","Schweiz","CH"
6865,"Tremona","Tessin","TI","Schweiz","CH"
6866,"Meride","Tessin","TI","Schweiz","CH"
6867,"Serpiano","Tessin","TI","Schweiz","CH"
6872,"Salorino","Tessin","TI","Schweiz","CH"
6872,"Somazzo","Tessin","TI","Schweiz","CH"
6873,"Corteglia","Tessin","TI","Schweiz","CH"
6874,"Castel San Pietro","Tessin","TI","Schweiz","CH"
6875,"Casima","Tessin","TI","Schweiz","CH"
6875,"Monte","Tessin","TI","Schweiz","CH"
6877,"Coldrerio","Tessin","TI","Schweiz","CH"
6883,"Novazzano","Tessin","TI","Schweiz","CH"
6900,"Lugano","Tessin","TI","Schweiz","CH"
6900,"Massagno","Tessin","TI","Schweiz","CH"
6900,"Paradiso","Tessin","TI","Schweiz","CH"
6911,"Campione d'Italia","IT","IT","Schweiz","CH"
6912,"Pazzallo","Tessin","TI","Schweiz","CH"
6913,"Carabbia","Tessin","TI","Schweiz","CH"
6914,"Carona","Tessin","TI","Schweiz","CH"
6915,"Pambio-Noranco","Tessin","TI","Schweiz","CH"
6916,"Grancia","Tessin","TI","Schweiz","CH"
6917,"Barbengo","Tessin","TI","Schweiz","CH"
6918,"Figino","Tessin","TI","Schweiz","CH"
6919,"Carabietta","Tessin","TI","Schweiz","CH"
6921,"Vico Morcote","Tessin","TI","Schweiz","CH"
6922,"Morcote","Tessin","TI","Schweiz","CH"
6924,"Sorengo","Tessin","TI","Schweiz","CH"
6925,"Gentilino","Tessin","TI","Schweiz","CH"
6926,"Montagnola","Tessin","TI","Schweiz","CH"
6927,"Agra","Tessin","TI","Schweiz","CH"
6928,"Manno","Tessin","TI","Schweiz","CH"
6929,"Gravesano","Tessin","TI","Schweiz","CH"
6930,"Bedano","Tessin","TI","Schweiz","CH"
6932,"Breganzona","Tessin","TI","Schweiz","CH"
6933,"Muzzano","Tessin","TI","Schweiz","CH"
6934,"Bioggio","Tessin","TI","Schweiz","CH"
6935,"Bosco Luganese","Tessin","TI","Schweiz","CH"
6936,"Cademario","Tessin","TI","Schweiz","CH"
6937,"Breno","Tessin","TI","Schweiz","CH"
6938,"Vezio","Tessin","TI","Schweiz","CH"
6938,"Fescoggia","Tessin","TI","Schweiz","CH"
6939,"Arosio","Tessin","TI","Schweiz","CH"
6939,"Mugena","Tessin","TI","Schweiz","CH"
6942,"Savosa","Tessin","TI","Schweiz","CH"
6943,"Vezia","Tessin","TI","Schweiz","CH"
6944,"Cureglia","Tessin","TI","Schweiz","CH"
6945,"Origlio","Tessin","TI","Schweiz","CH"
6946,"Ponte Capriasca","Tessin","TI","Schweiz","CH"
6947,"Vaglio","Tessin","TI","Schweiz","CH"
6948,"Porza","Tessin","TI","Schweiz","CH"
6949,"Comano","Tessin","TI","Schweiz","CH"
6950,"Tesserete","Tessin","TI","Schweiz","CH"
6951,"Insone","Tessin","TI","Schweiz","CH"
6951,"Odogno","Tessin","TI","Schweiz","CH"
6951,"Colla","Tessin","TI","Schweiz","CH"
6951,"Bogno","Tessin","TI","Schweiz","CH"
6951,"Cozzo","Tessin","TI","Schweiz","CH"
6951,"Signôra","Tessin","TI","Schweiz","CH"
6951,"Scareglia","Tessin","TI","Schweiz","CH"
6952,"Canobbio","Tessin","TI","Schweiz","CH"
6953,"Lugaggia","Tessin","TI","Schweiz","CH"
6954,"Sala Capriasca","Tessin","TI","Schweiz","CH"
6954,"Bigorio","Tessin","TI","Schweiz","CH"
6955,"Cagiallo","Tessin","TI","Schweiz","CH"
6955,"Oggio","Tessin","TI","Schweiz","CH"
6956,"Lopagno","Tessin","TI","Schweiz","CH"
6957,"Roveredo TI","Tessin","TI","Schweiz","CH"
6958,"Bidogno","Tessin","TI","Schweiz","CH"
6958,"Corticiasca","Tessin","TI","Schweiz","CH"
6959,"Cimadera","Tessin","TI","Schweiz","CH"
6959,"Certara","Tessin","TI","Schweiz","CH"
6959,"Curtina","Tessin","TI","Schweiz","CH"
6959,"Piandera Paese","Tessin","TI","Schweiz","CH"
6959,"Maglio di Colla","Tessin","TI","Schweiz","CH"
6962,"Viganello","Tessin","TI","Schweiz","CH"
6963,"Cureggia","Tessin","TI","Schweiz","CH"
6963,"Pregassona","Tessin","TI","Schweiz","CH"
6964,"Davesco-Soragno","Tessin","TI","Schweiz","CH"
6965,"Cadro","Tessin","TI","Schweiz","CH"
6966,"Villa Luganese","Tessin","TI","Schweiz","CH"
6967,"Dino","Tessin","TI","Schweiz","CH"
6968,"Sonvico","Tessin","TI","Schweiz","CH"
6974,"Aldesago","Tessin","TI","Schweiz","CH"
6976,"Castagnola","Tessin","TI","Schweiz","CH"
6977,"Ruvigliana","Tessin","TI","Schweiz","CH"
6978,"Gandria","Tessin","TI","Schweiz","CH"
6979,"Brè sopra Lugano","Tessin","TI","Schweiz","CH"
6980,"Castelrotto","Tessin","TI","Schweiz","CH"
6981,"Bedigliora","Tessin","TI","Schweiz","CH"
6981,"Biogno-Beride","Tessin","TI","Schweiz","CH"
6981,"Bombinasco","Tessin","TI","Schweiz","CH"
6981,"Banco","Tessin","TI","Schweiz","CH"
6982,"Agno","Tessin","TI","Schweiz","CH"
6983,"Magliaso","Tessin","TI","Schweiz","CH"
6984,"Pura","Tessin","TI","Schweiz","CH"
6986,"Miglieglia","Tessin","TI","Schweiz","CH"
6986,"Curio","Tessin","TI","Schweiz","CH"
6986,"Novaggio","Tessin","TI","Schweiz","CH"
6987,"Caslano","Tessin","TI","Schweiz","CH"
6988,"Ponte Tresa","Tessin","TI","Schweiz","CH"
6989,"Purasca","Tessin","TI","Schweiz","CH"
6990,"Cassina d'Agno","Tessin","TI","Schweiz","CH"
6991,"Neggio","Tessin","TI","Schweiz","CH"
6992,"Cimo","Tessin","TI","Schweiz","CH"
6992,"Vernate","Tessin","TI","Schweiz","CH"
6993,"Iseo","Tessin","TI","Schweiz","CH"
6994,"Aranno","Tessin","TI","Schweiz","CH"
6995,"Madonna del Piano","Tessin","TI","Schweiz","CH"
6995,"Molinazzo di Monteggio","Tessin","TI","Schweiz","CH"
6996,"Ponte Cremenaga","Tessin","TI","Schweiz","CH"
6997,"Sessa","Tessin","TI","Schweiz","CH"
6998,"Termine","Tessin","TI","Schweiz","CH"
6999,"Astano","Tessin","TI","Schweiz","CH"
7000,"Chur","Graubünden","GR","Schweiz","CH"
7012,"Felsberg","Graubünden","GR","Schweiz","CH"
7013,"Domat/Ems","Graubünden","GR","Schweiz","CH"
7014,"Trin","Graubünden","GR","Schweiz","CH"
7015,"Tamins","Graubünden","GR","Schweiz","CH"
7016,"Trin Mulin","Graubünden","GR","Schweiz","CH"
7017,"Flims Dorf","Graubünden","GR","Schweiz","CH"
7018,"Flims Waldhaus","Graubünden","GR","Schweiz","CH"
7019,"Fidaz","Graubünden","GR","Schweiz","CH"
7023,"Haldenstein","Graubünden","GR","Schweiz","CH"
7026,"Maladers","Graubünden","GR","Schweiz","CH"
7027,"Lüen","Graubünden","GR","Schweiz","CH"
7027,"Castiel","Graubünden","GR","Schweiz","CH"
7027,"Calfreisen","Graubünden","GR","Schweiz","CH"
7028,"Pagig","Graubünden","GR","Schweiz","CH"
7028,"St. Peter","Graubünden","GR","Schweiz","CH"
7029,"Peist","Graubünden","GR","Schweiz","CH"
7031,"Laax GR","Graubünden","GR","Schweiz","CH"
7032,"Laax GR 2","Graubünden","GR","Schweiz","CH"
7050,"Arosa","Graubünden","GR","Schweiz","CH"
7056,"Molinis","Graubünden","GR","Schweiz","CH"
7057,"Langwies","Graubünden","GR","Schweiz","CH"
7058,"Litzirüti","Graubünden","GR","Schweiz","CH"
7062,"Passugg-Araschgen","Graubünden","GR","Schweiz","CH"
7063,"Praden","Graubünden","GR","Schweiz","CH"
7064,"Tschiertschen","Graubünden","GR","Schweiz","CH"
7074,"Malix","Graubünden","GR","Schweiz","CH"
7075,"Churwalden","Graubünden","GR","Schweiz","CH"
7076,"Parpan","Graubünden","GR","Schweiz","CH"
7077,"Valbella","Graubünden","GR","Schweiz","CH"
7078,"Lenzerheide/Lai","Graubünden","GR","Schweiz","CH"
7082,"Vaz/Obervaz","Graubünden","GR","Schweiz","CH"
7083,"Lantsch/Lenz","Graubünden","GR","Schweiz","CH"
7084,"Brienz/Brinzauls GR","Graubünden","GR","Schweiz","CH"
7104,"Arezen","Graubünden","GR","Schweiz","CH"
7104,"Versam","Graubünden","GR","Schweiz","CH"
7106,"Tenna","Graubünden","GR","Schweiz","CH"
7107,"Safien Platz","Graubünden","GR","Schweiz","CH"
7109,"Thalkirch","Graubünden","GR","Schweiz","CH"
7110,"Peiden","Graubünden","GR","Schweiz","CH"
7111,"Pitasch","Graubünden","GR","Schweiz","CH"
7112,"Duvin","Graubünden","GR","Schweiz","CH"
7113,"Camuns","Graubünden","GR","Schweiz","CH"
7114,"Uors (Lumnezia)","Graubünden","GR","Schweiz","CH"
7115,"Surcasti","Graubünden","GR","Schweiz","CH"
7116,"Tersnaus","Graubünden","GR","Schweiz","CH"
7116,"St. Martin (Lugnez)","Graubünden","GR","Schweiz","CH"
7122,"Valendas","Graubünden","GR","Schweiz","CH"
7122,"Carrera","Graubünden","GR","Schweiz","CH"
7126,"Castrisch","Graubünden","GR","Schweiz","CH"
7127,"Sevgein","Graubünden","GR","Schweiz","CH"
7128,"Riein","Graubünden","GR","Schweiz","CH"
7130,"Schnaus","Graubünden","GR","Schweiz","CH"
7130,"Ilanz","Graubünden","GR","Schweiz","CH"
7132,"Vals","Graubünden","GR","Schweiz","CH"
7133,"Obersaxen Affeier","Graubünden","GR","Schweiz","CH"
7134,"Obersaxen Meierhof","Graubünden","GR","Schweiz","CH"
7135,"Obersaxen Giraniga","Graubünden","GR","Schweiz","CH"
7136,"Obersaxen Friggahüs","Graubünden","GR","Schweiz","CH"
7137,"Flond","Graubünden","GR","Schweiz","CH"
7138,"Surcuolm","Graubünden","GR","Schweiz","CH"
7141,"Luven","Graubünden","GR","Schweiz","CH"
7142,"Cumbel","Graubünden","GR","Schweiz","CH"
7143,"Morissen","Graubünden","GR","Schweiz","CH"
7144,"Vella","Graubünden","GR","Schweiz","CH"
7145,"Degen","Graubünden","GR","Schweiz","CH"
7146,"Vattiz","Graubünden","GR","Schweiz","CH"
7147,"Vignogn","Graubünden","GR","Schweiz","CH"
7148,"Surin","Graubünden","GR","Schweiz","CH"
7148,"Lumbrein","Graubünden","GR","Schweiz","CH"
7149,"Vrin","Graubünden","GR","Schweiz","CH"
7151,"Schluein","Graubünden","GR","Schweiz","CH"
7152,"Sagogn","Graubünden","GR","Schweiz","CH"
7153,"Falera","Graubünden","GR","Schweiz","CH"
7154,"Ruschein","Graubünden","GR","Schweiz","CH"
7155,"Ladir","Graubünden","GR","Schweiz","CH"
7156,"Pigniu","Graubünden","GR","Schweiz","CH"
7156,"Rueun","Graubünden","GR","Schweiz","CH"
7157,"Siat","Graubünden","GR","Schweiz","CH"
7158,"Waltensburg/Vuorz","Graubünden","GR","Schweiz","CH"
7159,"Andiast","Graubünden","GR","Schweiz","CH"
7162,"Tavanasa","Graubünden","GR","Schweiz","CH"
7163,"Danis","Graubünden","GR","Schweiz","CH"
7164,"Dardin","Graubünden","GR","Schweiz","CH"
7165,"Breil/Brigels","Graubünden","GR","Schweiz","CH"
7166,"Trun","Graubünden","GR","Schweiz","CH"
7167,"Zignau","Graubünden","GR","Schweiz","CH"
7168,"Schlans","Graubünden","GR","Schweiz","CH"
7172,"Rabius","Graubünden","GR","Schweiz","CH"
7173,"Surrein","Graubünden","GR","Schweiz","CH"
7174,"S. Benedetg","Graubünden","GR","Schweiz","CH"
7175,"Sumvitg","Graubünden","GR","Schweiz","CH"
7176,"Cumpadials","Graubünden","GR","Schweiz","CH"
7180,"Disentis/Mustér","Graubünden","GR","Schweiz","CH"
7182,"Cavardiras","Graubünden","GR","Schweiz","CH"
7183,"Mompé Medel","Graubünden","GR","Schweiz","CH"
7184,"Curaglia","Graubünden","GR","Schweiz","CH"
7185,"Platta","Graubünden","GR","Schweiz","CH"
7186,"Segnas","Graubünden","GR","Schweiz","CH"
7187,"Camischolas","Graubünden","GR","Schweiz","CH"
7188,"Sedrun","Graubünden","GR","Schweiz","CH"
7189,"Rueras","Graubünden","GR","Schweiz","CH"
7201,"Untervaz Bahnhof","Graubünden","GR","Schweiz","CH"
7202,"Says","Graubünden","GR","Schweiz","CH"
7203,"Trimmis","Graubünden","GR","Schweiz","CH"
7204,"Untervaz","Graubünden","GR","Schweiz","CH"
7205,"Zizers","Graubünden","GR","Schweiz","CH"
7206,"Igis","Graubünden","GR","Schweiz","CH"
7208,"Malans GR","Graubünden","GR","Schweiz","CH"
7212,"Seewis Dorf","Graubünden","GR","Schweiz","CH"
7213,"Valzeina","Graubünden","GR","Schweiz","CH"
7214,"Seewis-Pardisla","Graubünden","GR","Schweiz","CH"
7214,"Seewis-Schmitten","Graubünden","GR","Schweiz","CH"
7214,"Grüsch","Graubünden","GR","Schweiz","CH"
7215,"Fanas","Graubünden","GR","Schweiz","CH"
7220,"Schiers","Graubünden","GR","Schweiz","CH"
7222,"Mittellunden","Graubünden","GR","Schweiz","CH"
7223,"Buchen im Prättigau","Graubünden","GR","Schweiz","CH"
7224,"Putz","Graubünden","GR","Schweiz","CH"
7226,"Stels","Graubünden","GR","Schweiz","CH"
7226,"Fajauna","Graubünden","GR","Schweiz","CH"
7228,"Schuders","Graubünden","GR","Schweiz","CH"
7228,"Pusserein","Graubünden","GR","Schweiz","CH"
7231,"Pragg-Jenaz","Graubünden","GR","Schweiz","CH"
7232,"Furna","Graubünden","GR","Schweiz","CH"
7233,"Jenaz","Graubünden","GR","Schweiz","CH"
7235,"Fideris","Graubünden","GR","Schweiz","CH"
7240,"Küblis","Graubünden","GR","Schweiz","CH"
7241,"Conters im Prättigau","Graubünden","GR","Schweiz","CH"
7242,"Luzein","Graubünden","GR","Schweiz","CH"
7243,"Pany","Graubünden","GR","Schweiz","CH"
7244,"Gadenstätt","Graubünden","GR","Schweiz","CH"
7245,"Ascharina","Graubünden","GR","Schweiz","CH"
7246,"St. Antönien","Graubünden","GR","Schweiz","CH"
7247,"Saas im Prättigau","Graubünden","GR","Schweiz","CH"
7249,"Serneus","Graubünden","GR","Schweiz","CH"
7250,"Klosters","Graubünden","GR","Schweiz","CH"
7252,"Klosters Dorf","Graubünden","GR","Schweiz","CH"
7260,"Davos Dorf","Graubünden","GR","Schweiz","CH"
7265,"Davos Wolfgang","Graubünden","GR","Schweiz","CH"
7270,"Davos Platz","Graubünden","GR","Schweiz","CH"
7272,"Davos Clavadel","Graubünden","GR","Schweiz","CH"
7276,"Davos Frauenkirch","Graubünden","GR","Schweiz","CH"
7277,"Davos Glaris","Graubünden","GR","Schweiz","CH"
7278,"Davos Monstein","Graubünden","GR","Schweiz","CH"
7302,"Landquart","Graubünden","GR","Schweiz","CH"
7303,"Mastrils","Graubünden","GR","Schweiz","CH"
7304,"Maienfeld","Graubünden","GR","Schweiz","CH"
7306,"Fläsch","Graubünden","GR","Schweiz","CH"
7307,"Jenins","Graubünden","GR","Schweiz","CH"
7310,"Bad Ragaz","St. Gallen","SG","Schweiz","CH"
7312,"Pfäfers","St. Gallen","SG","Schweiz","CH"
7313,"St. Margrethenberg","St. Gallen","SG","Schweiz","CH"
7314,"Vadura","St. Gallen","SG","Schweiz","CH"
7315,"Vättis","St. Gallen","SG","Schweiz","CH"
7317,"Vasön","St. Gallen","SG","Schweiz","CH"
7317,"Valens","St. Gallen","SG","Schweiz","CH"
7320,"Sargans","St. Gallen","SG","Schweiz","CH"
7323,"Wangs","St. Gallen","SG","Schweiz","CH"
7324,"Vilters","St. Gallen","SG","Schweiz","CH"
7325,"Schwendi im Weisstannental","St. Gallen","SG","Schweiz","CH"
7326,"Weisstannen","St. Gallen","SG","Schweiz","CH"
7402,"Bonaduz","Graubünden","GR","Schweiz","CH"
7403,"Rhäzüns","Graubünden","GR","Schweiz","CH"
7404,"Feldis/Veulden","Graubünden","GR","Schweiz","CH"
7405,"Rothenbrunnen","Graubünden","GR","Schweiz","CH"
7407,"Trans","Graubünden","GR","Schweiz","CH"
7408,"Realta","Graubünden","GR","Schweiz","CH"
7408,"Cazis","Graubünden","GR","Schweiz","CH"
7411,"Sils im Domleschg","Graubünden","GR","Schweiz","CH"
7412,"Scharans","Graubünden","GR","Schweiz","CH"
7413,"Fürstenaubruck","Graubünden","GR","Schweiz","CH"
7414,"Fürstenau","Graubünden","GR","Schweiz","CH"
7415,"Pratval","Graubünden","GR","Schweiz","CH"
7415,"Rodels","Graubünden","GR","Schweiz","CH"
7416,"Almens","Graubünden","GR","Schweiz","CH"
7417,"Paspels","Graubünden","GR","Schweiz","CH"
7418,"Tumegl/Tomils","Graubünden","GR","Schweiz","CH"
7419,"Scheid","Graubünden","GR","Schweiz","CH"
7421,"Summaprada","Graubünden","GR","Schweiz","CH"
7422,"Tartar","Graubünden","GR","Schweiz","CH"
7423,"Sarn","Graubünden","GR","Schweiz","CH"
7423,"Portein","Graubünden","GR","Schweiz","CH"
7424,"Präz","Graubünden","GR","Schweiz","CH"
7424,"Dalin","Graubünden","GR","Schweiz","CH"
7425,"Masein","Graubünden","GR","Schweiz","CH"
7426,"Flerden","Graubünden","GR","Schweiz","CH"
7427,"Urmein","Graubünden","GR","Schweiz","CH"
7428,"Tschappina","Graubünden","GR","Schweiz","CH"
7428,"Glaspass","Graubünden","GR","Schweiz","CH"
7430,"Rongellen","Graubünden","GR","Schweiz","CH"
7430,"Thusis","Graubünden","GR","Schweiz","CH"
7431,"Mutten","Graubünden","GR","Schweiz","CH"
7431,"Obermutten","Graubünden","GR","Schweiz","CH"
7432,"Zillis","Graubünden","GR","Schweiz","CH"
7433,"Farden","Graubünden","GR","Schweiz","CH"
7433,"Wergenstein","Graubünden","GR","Schweiz","CH"
7433,"Lohn GR","Graubünden","GR","Schweiz","CH"
7433,"Donat","Graubünden","GR","Schweiz","CH"
7433,"Mathon","Graubünden","GR","Schweiz","CH"
7434,"Sufers","Graubünden","GR","Schweiz","CH"
7435,"Splügen","Graubünden","GR","Schweiz","CH"
7436,"Medels im Rheinwald","Graubünden","GR","Schweiz","CH"
7437,"Nufenen","Graubünden","GR","Schweiz","CH"
7438,"Hinterrhein","Graubünden","GR","Schweiz","CH"
7440,"Andeer","Graubünden","GR","Schweiz","CH"
7442,"Clugin","Graubünden","GR","Schweiz","CH"
7443,"Pignia","Graubünden","GR","Schweiz","CH"
7444,"Ausserferrera","Graubünden","GR","Schweiz","CH"
7445,"Innerferrera","Graubünden","GR","Schweiz","CH"
7446,"Campsut-Cröt","Graubünden","GR","Schweiz","CH"
7447,"Cresta (Avers)","Graubünden","GR","Schweiz","CH"
7447,"Am Bach (Avers)","Graubünden","GR","Schweiz","CH"
7448,"Juf","Graubünden","GR","Schweiz","CH"
7450,"Tiefencastel","Graubünden","GR","Schweiz","CH"
7451,"Alvaschein","Graubünden","GR","Schweiz","CH"
7452,"Cunter","Graubünden","GR","Schweiz","CH"
7453,"Tinizong","Graubünden","GR","Schweiz","CH"
7454,"Rona","Graubünden","GR","Schweiz","CH"
7455,"Mulegns","Graubünden","GR","Schweiz","CH"
7456,"Sur","Graubünden","GR","Schweiz","CH"
7456,"Marmorera","Graubünden","GR","Schweiz","CH"
7457,"Bivio","Graubünden","GR","Schweiz","CH"
7458,"Mon","Graubünden","GR","Schweiz","CH"
7459,"Stierva","Graubünden","GR","Schweiz","CH"
7460,"Savognin","Graubünden","GR","Schweiz","CH"
7462,"Salouf","Graubünden","GR","Schweiz","CH"
7463,"Riom","Graubünden","GR","Schweiz","CH"
7464,"Parsonz","Graubünden","GR","Schweiz","CH"
7472,"Surava","Graubünden","GR","Schweiz","CH"
7473,"Alvaneu Bad","Graubünden","GR","Schweiz","CH"
7477,"Filisur","Graubünden","GR","Schweiz","CH"
7482,"Stugl/Stuls","Graubünden","GR","Schweiz","CH"
7482,"Preda","Graubünden","GR","Schweiz","CH"
7482,"Bergün/Bravuogn","Graubünden","GR","Schweiz","CH"
7484,"Latsch","Graubünden","GR","Schweiz","CH"
7492,"Alvaneu Dorf","Graubünden","GR","Schweiz","CH"
7493,"Schmitten (Albula)","Graubünden","GR","Schweiz","CH"
7494,"Wiesen GR","Graubünden","GR","Schweiz","CH"
7500,"St. Moritz","Graubünden","GR","Schweiz","CH"
7502,"Bever","Graubünden","GR","Schweiz","CH"
7503,"Samedan","Graubünden","GR","Schweiz","CH"
7504,"Pontresina","Graubünden","GR","Schweiz","CH"
7505,"Celerina/Schlarigna","Graubünden","GR","Schweiz","CH"
7512,"Champfèr","Graubünden","GR","Schweiz","CH"
7513,"Silvaplana-Surlej","Graubünden","GR","Schweiz","CH"
7513,"Silvaplana","Graubünden","GR","Schweiz","CH"
7514,"Fex","Graubünden","GR","Schweiz","CH"
7514,"Sils/Segl Maria","Graubünden","GR","Schweiz","CH"
7515,"Sils/Segl Baselgia","Graubünden","GR","Schweiz","CH"
7516,"Maloja","Graubünden","GR","Schweiz","CH"
7517,"Plaun da Lej","Graubünden","GR","Schweiz","CH"
7522,"La Punt-Chamues-ch","Graubünden","GR","Schweiz","CH"
7523,"Madulain","Graubünden","GR","Schweiz","CH"
7524,"Zuoz","Graubünden","GR","Schweiz","CH"
7525,"S-chanf","Graubünden","GR","Schweiz","CH"
7526,"Cinuos-chel","Graubünden","GR","Schweiz","CH"
7527,"Brail","Graubünden","GR","Schweiz","CH"
7530,"Zernez","Graubünden","GR","Schweiz","CH"
7532,"Tschierv","Graubünden","GR","Schweiz","CH"
7533,"Fuldera","Graubünden","GR","Schweiz","CH"
7534,"Lü","Graubünden","GR","Schweiz","CH"
7535,"Valchava","Graubünden","GR","Schweiz","CH"
7536,"Sta. Maria Val Müstair","Graubünden","GR","Schweiz","CH"
7537,"Müstair","Graubünden","GR","Schweiz","CH"
7542,"Susch","Graubünden","GR","Schweiz","CH"
7543,"Lavin","Graubünden","GR","Schweiz","CH"
7545,"Guarda","Graubünden","GR","Schweiz","CH"
7546,"Ardez","Graubünden","GR","Schweiz","CH"
7550,"Scuol","Graubünden","GR","Schweiz","CH"
7551,"Ftan","Graubünden","GR","Schweiz","CH"
7552,"Vulpera","Graubünden","GR","Schweiz","CH"
7553,"Tarasp","Graubünden","GR","Schweiz","CH"
7554,"Crusch","Graubünden","GR","Schweiz","CH"
7554,"Sent","Graubünden","GR","Schweiz","CH"
7556,"Ramosch","Graubünden","GR","Schweiz","CH"
7557,"Vnà","Graubünden","GR","Schweiz","CH"
7558,"Strada","Graubünden","GR","Schweiz","CH"
7559,"Tschlin","Graubünden","GR","Schweiz","CH"
7560,"Martina","Graubünden","GR","Schweiz","CH"
7562,"Samnaun-Compatsch","Graubünden","GR","Schweiz","CH"
7563,"Samnaun Dorf","Graubünden","GR","Schweiz","CH"
7602,"Casaccia","Graubünden","GR","Schweiz","CH"
7603,"Vicosoprano","Graubünden","GR","Schweiz","CH"
7604,"Borgonovo","Graubünden","GR","Schweiz","CH"
7605,"Stampa","Graubünden","GR","Schweiz","CH"
7606,"Promontogno","Graubünden","GR","Schweiz","CH"
7608,"Castasegna","Graubünden","GR","Schweiz","CH"
7610,"Soglio","Graubünden","GR","Schweiz","CH"
7710,"Ospizio Bernina","Graubünden","GR","Schweiz","CH"
7710,"Alp Grüm","Graubünden","GR","Schweiz","CH"
7741,"S. Carlo (Poschiavo)","Graubünden","GR","Schweiz","CH"
7742,"Sfazù","Graubünden","GR","Schweiz","CH"
7742,"La Rösa","Graubünden","GR","Schweiz","CH"
7742,"Poschiavo","Graubünden","GR","Schweiz","CH"
7743,"Miralago","Graubünden","GR","Schweiz","CH"
7743,"Brusio","Graubünden","GR","Schweiz","CH"
7744,"Campocologno","Graubünden","GR","Schweiz","CH"
7745,"Li Curt","Graubünden","GR","Schweiz","CH"
7746,"Le Prese","Graubünden","GR","Schweiz","CH"
7747,"Viano","Graubünden","GR","Schweiz","CH"
7748,"Campascio","Graubünden","GR","Schweiz","CH"
8000,"Zürich","Zürich","ZH","Schweiz","CH"
8001,"Zürich","Zürich","ZH","Schweiz","CH"
8002,"Zürich","Zürich","ZH","Schweiz","CH"
8003,"Zürich","Zürich","ZH","Schweiz","CH"
8004,"Zürich","Zürich","ZH","Schweiz","CH"
8005,"Zürich","Zürich","ZH","Schweiz","CH"
8006,"Zürich","Zürich","ZH","Schweiz","CH"
8008,"Zürich","Zürich","ZH","Schweiz","CH"
8032,"Zürich","Zürich","ZH","Schweiz","CH"
8037,"Zürich","Zürich","ZH","Schweiz","CH"
8038,"Zürich","Zürich","ZH","Schweiz","CH"
8041,"Zürich","Zürich","ZH","Schweiz","CH"
8044,"Gockhausen","Zürich","ZH","Schweiz","CH"
8044,"Zürich","Zürich","ZH","Schweiz","CH"
8045,"Zürich","Zürich","ZH","Schweiz","CH"
8046,"Zürich","Zürich","ZH","Schweiz","CH"
8047,"Zürich","Zürich","ZH","Schweiz","CH"
8048,"Zürich","Zürich","ZH","Schweiz","CH"
8049,"Zürich","Zürich","ZH","Schweiz","CH"
8050,"Zürich","Zürich","ZH","Schweiz","CH"
8051,"Zürich","Zürich","ZH","Schweiz","CH"
8052,"Zürich","Zürich","ZH","Schweiz","CH"
8053,"Zürich","Zürich","ZH","Schweiz","CH"
8055,"Zürich","Zürich","ZH","Schweiz","CH"
8057,"Zürich","Zürich","ZH","Schweiz","CH"
8063,"Zürich","Zürich","ZH","Schweiz","CH"
8064,"Zürich","Zürich","ZH","Schweiz","CH"
8099,"Zürich","Zürich","ZH","Schweiz","CH"
8102,"Oberengstringen","Zürich","ZH","Schweiz","CH"
8103,"Unterengstringen","Zürich","ZH","Schweiz","CH"
8104,"Weiningen ZH","Zürich","ZH","Schweiz","CH"
8105,"Regensdorf","Zürich","ZH","Schweiz","CH"
8105,"Watt","Zürich","ZH","Schweiz","CH"
8106,"Adlikon b. Regensdorf","Zürich","ZH","Schweiz","CH"
8107,"Buchs ZH","Zürich","ZH","Schweiz","CH"
8108,"Dällikon","Zürich","ZH","Schweiz","CH"
8109,"Kloster Fahr","Aargau","AG","Schweiz","CH"
8112,"Otelfingen","Zürich","ZH","Schweiz","CH"
8113,"Boppelsen","Zürich","ZH","Schweiz","CH"
8114,"Dänikon ZH","Zürich","ZH","Schweiz","CH"
8115,"Hüttikon","Zürich","ZH","Schweiz","CH"
8117,"Fällanden","Zürich","ZH","Schweiz","CH"
8118,"Pfaffhausen","Zürich","ZH","Schweiz","CH"
8121,"Benglen","Zürich","ZH","Schweiz","CH"
8122,"Binz","Zürich","ZH","Schweiz","CH"
8123,"Ebmatingen","Zürich","ZH","Schweiz","CH"
8124,"Maur","Zürich","ZH","Schweiz","CH"
8125,"Zollikerberg","Zürich","ZH","Schweiz","CH"
8126,"Zumikon","Zürich","ZH","Schweiz","CH"
8127,"Forch","Zürich","ZH","Schweiz","CH"
8132,"Hinteregg","Zürich","ZH","Schweiz","CH"
8132,"Egg b. Zürich","Zürich","ZH","Schweiz","CH"
8133,"Esslingen","Zürich","ZH","Schweiz","CH"
8134,"Adliswil","Zürich","ZH","Schweiz","CH"
8135,"Sihlbrugg Station","Zürich","ZH","Schweiz","CH"
8135,"Sihlwald","Zürich","ZH","Schweiz","CH"
8135,"Langnau am Albis","Zürich","ZH","Schweiz","CH"
8136,"Gattikon","Zürich","ZH","Schweiz","CH"
8142,"Uitikon Waldegg","Zürich","ZH","Schweiz","CH"
8143,"Uetliberg","Zürich","ZH","Schweiz","CH"
8143,"Stallikon","Zürich","ZH","Schweiz","CH"
8152,"Glattpark (Opfikon)","Zürich","ZH","Schweiz","CH"
8152,"Glattbrugg","Zürich","ZH","Schweiz","CH"
8152,"Opfikon","Zürich","ZH","Schweiz","CH"
8153,"Rümlang","Zürich","ZH","Schweiz","CH"
8154,"Oberglatt ZH","Zürich","ZH","Schweiz","CH"
8155,"Niederhasli","Zürich","ZH","Schweiz","CH"
8156,"Oberhasli","Zürich","ZH","Schweiz","CH"
8157,"Dielsdorf","Zürich","ZH","Schweiz","CH"
8158,"Regensberg","Zürich","ZH","Schweiz","CH"
8162,"Steinmaur","Zürich","ZH","Schweiz","CH"
8164,"Bachs","Zürich","ZH","Schweiz","CH"
8165,"Oberweningen","Zürich","ZH","Schweiz","CH"
8165,"Schleinikon","Zürich","ZH","Schweiz","CH"
8165,"Schöfflisdorf","Zürich","ZH","Schweiz","CH"
8166,"Niederweningen","Zürich","ZH","Schweiz","CH"
8172,"Niederglatt ZH","Zürich","ZH","Schweiz","CH"
8173,"Neerach","Zürich","ZH","Schweiz","CH"
8174,"Stadel b. Niederglatt","Zürich","ZH","Schweiz","CH"
8175,"Windlach","Zürich","ZH","Schweiz","CH"
8180,"Bülach","Zürich","ZH","Schweiz","CH"
8181,"Höri","Zürich","ZH","Schweiz","CH"
8182,"Hochfelden","Zürich","ZH","Schweiz","CH"
8184,"Bachenbülach","Zürich","ZH","Schweiz","CH"
8185,"Winkel","Zürich","ZH","Schweiz","CH"
8187,"Weiach","Zürich","ZH","Schweiz","CH"
8192,"Zweidlen","Zürich","ZH","Schweiz","CH"
8192,"Glattfelden","Zürich","ZH","Schweiz","CH"
8193,"Eglisau","Zürich","ZH","Schweiz","CH"
8194,"Hüntwangen","Zürich","ZH","Schweiz","CH"
8195,"Wasterkingen","Zürich","ZH","Schweiz","CH"
8196,"Wil ZH","Zürich","ZH","Schweiz","CH"
8197,"Rafz","Zürich","ZH","Schweiz","CH"
8200,"Schaffhausen","Schaffhausen","SH","Schweiz","CH"
8203,"Schaffhausen","Schaffhausen","SH","Schweiz","CH"
8207,"Schaffhausen","Schaffhausen","SH","Schweiz","CH"
8208,"Schaffhausen","Schaffhausen","SH","Schweiz","CH"
8212,"Neuhausen am Rheinfall","Schaffhausen","SH","Schweiz","CH"
8212,"Nohl","Zürich","ZH","Schweiz","CH"
8213,"Neunkirch","Schaffhausen","SH","Schweiz","CH"
8214,"Gächlingen","Schaffhausen","SH","Schweiz","CH"
8215,"Hallau","Schaffhausen","SH","Schweiz","CH"
8216,"Oberhallau","Schaffhausen","SH","Schweiz","CH"
8217,"Wilchingen","Schaffhausen","SH","Schweiz","CH"
8218,"Osterfingen","Schaffhausen","SH","Schweiz","CH"
8219,"Trasadingen","Schaffhausen","SH","Schweiz","CH"
8222,"Beringen","Schaffhausen","SH","Schweiz","CH"
8223,"Guntmadingen","Schaffhausen","SH","Schweiz","CH"
8224,"Löhningen","Schaffhausen","SH","Schweiz","CH"
8225,"Siblingen","Schaffhausen","SH","Schweiz","CH"
8226,"Schleitheim","Schaffhausen","SH","Schweiz","CH"
8228,"Beggingen","Schaffhausen","SH","Schweiz","CH"
8231,"Hemmental","Schaffhausen","SH","Schweiz","CH"
8232,"Merishausen","Schaffhausen","SH","Schweiz","CH"
8233,"Bargen SH","Schaffhausen","SH","Schweiz","CH"
8234,"Stetten SH","Schaffhausen","SH","Schweiz","CH"
8235,"Lohn SH","Schaffhausen","SH","Schweiz","CH"
8236,"Opfertshofen SH","Schaffhausen","SH","Schweiz","CH"
8236,"Büttenhardt","Schaffhausen","SH","Schweiz","CH"
8238,"Büsingen","Büsingen","DE","Schweiz","CH"
8239,"Dörflingen","Schaffhausen","SH","Schweiz","CH"
8240,"Thayngen","Schaffhausen","SH","Schweiz","CH"
8241,"Barzheim","Schaffhausen","SH","Schweiz","CH"
8242,"Hofen SH","Schaffhausen","SH","Schweiz","CH"
8242,"Bibern SH","Schaffhausen","SH","Schweiz","CH"
8243,"Altdorf SH","Schaffhausen","SH","Schweiz","CH"
8245,"Feuerthalen","Zürich","ZH","Schweiz","CH"
8246,"Langwiesen","Zürich","ZH","Schweiz","CH"
8247,"Flurlingen","Zürich","ZH","Schweiz","CH"
8248,"Uhwiesen","Zürich","ZH","Schweiz","CH"
8252,"Schlatt TG","Thurgau","TG","Schweiz","CH"
8253,"Willisdorf","Thurgau","TG","Schweiz","CH"
8253,"Diessenhofen","Thurgau","TG","Schweiz","CH"
8254,"Basadingen","Thurgau","TG","Schweiz","CH"
8255,"Schlattingen","Thurgau","TG","Schweiz","CH"
8259,"Kaltenbach","Thurgau","TG","Schweiz","CH"
8259,"Etzwilen","Thurgau","TG","Schweiz","CH"
8259,"Wagenhausen","Thurgau","TG","Schweiz","CH"
8259,"Rheinklingen","Thurgau","TG","Schweiz","CH"
8260,"Stein am Rhein","Schaffhausen","SH","Schweiz","CH"
8261,"Hemishofen","Schaffhausen","SH","Schweiz","CH"
8262,"Ramsen","Schaffhausen","SH","Schweiz","CH"
8263,"Buch SH","Schaffhausen","SH","Schweiz","CH"
8264,"Eschenz","Thurgau","TG","Schweiz","CH"
8265,"Mammern","Thurgau","TG","Schweiz","CH"
8266,"Steckborn","Thurgau","TG","Schweiz","CH"
8267,"Berlingen","Thurgau","TG","Schweiz","CH"
8268,"Salenstein","Thurgau","TG","Schweiz","CH"
8268,"Mannenbach-Salenstein","Thurgau","TG","Schweiz","CH"
8269,"Fruthwilen","Thurgau","TG","Schweiz","CH"
8272,"Ermatingen","Thurgau","TG","Schweiz","CH"
8273,"Triboltingen","Thurgau","TG","Schweiz","CH"
8274,"Gottlieben","Thurgau","TG","Schweiz","CH"
8274,"Tägerwilen","Thurgau","TG","Schweiz","CH"
8280,"Kreuzlingen","Thurgau","TG","Schweiz","CH"
8302,"Kloten","Zürich","ZH","Schweiz","CH"
8303,"Bassersdorf","Zürich","ZH","Schweiz","CH"
8304,"Wallisellen","Zürich","ZH","Schweiz","CH"
8305,"Dietlikon","Zürich","ZH","Schweiz","CH"
8306,"Brüttisellen","Zürich","ZH","Schweiz","CH"
8307,"Ottikon b. Kemptthal","Zürich","ZH","Schweiz","CH"
8307,"Effretikon","Zürich","ZH","Schweiz","CH"
8308,"Agasul","Zürich","ZH","Schweiz","CH"
8308,"Illnau","Zürich","ZH","Schweiz","CH"
8309,"Nürensdorf","Zürich","ZH","Schweiz","CH"
8310,"Kemptthal","Zürich","ZH","Schweiz","CH"
8310,"Grafstal","Zürich","ZH","Schweiz","CH"
8311,"Brütten","Zürich","ZH","Schweiz","CH"
8312,"Winterberg ZH","Zürich","ZH","Schweiz","CH"
8314,"Kyburg","Zürich","ZH","Schweiz","CH"
8315,"Lindau","Zürich","ZH","Schweiz","CH"
8317,"Tagelswangen","Zürich","ZH","Schweiz","CH"
8320,"Fehraltorf","Zürich","ZH","Schweiz","CH"
8322,"Madetswil","Zürich","ZH","Schweiz","CH"
8330,"Hermatswil","Zürich","ZH","Schweiz","CH"
8330,"Pfäffikon ZH","Zürich","ZH","Schweiz","CH"
8331,"Auslikon","Zürich","ZH","Schweiz","CH"
8332,"Russikon","Zürich","ZH","Schweiz","CH"
8335,"Hittnau","Zürich","ZH","Schweiz","CH"
8340,"Hinwil","Zürich","ZH","Schweiz","CH"
8342,"Wernetshausen","Zürich","ZH","Schweiz","CH"
8344,"Bäretswil","Zürich","ZH","Schweiz","CH"
8345,"Adetswil","Zürich","ZH","Schweiz","CH"
8352,"Ricketwil (Winterthur)","Zürich","ZH","Schweiz","CH"
8352,"Elsau","Zürich","ZH","Schweiz","CH"
8353,"Elgg","Zürich","ZH","Schweiz","CH"
8354,"Hofstetten ZH","Zürich","ZH","Schweiz","CH"
8355,"Aadorf","Thurgau","TG","Schweiz","CH"
8356,"Ettenhausen TG","Thurgau","TG","Schweiz","CH"
8357,"Guntershausen b. Aadorf","Thurgau","TG","Schweiz","CH"
8360,"Wallenwil","Thurgau","TG","Schweiz","CH"
8360,"Eschlikon TG","Thurgau","TG","Schweiz","CH"
8362,"Balterswil","Thurgau","TG","Schweiz","CH"
8363,"Bichelsee","Thurgau","TG","Schweiz","CH"
8370,"Busswil TG","Thurgau","TG","Schweiz","CH"
8370,"Sirnach","Thurgau","TG","Schweiz","CH"
8372,"Wiezikon b. Sirnach","Thurgau","TG","Schweiz","CH"
8374,"Oberwangen TG","Thurgau","TG","Schweiz","CH"
8374,"Dussnang","Thurgau","TG","Schweiz","CH"
8376,"Fischingen","Thurgau","TG","Schweiz","CH"
8376,"Au TG","Thurgau","TG","Schweiz","CH"
8400,"Winterthur","Zürich","ZH","Schweiz","CH"
8404,"Reutlingen (Winterthur)","Zürich","ZH","Schweiz","CH"
8404,"Stadel (Winterthur)","Zürich","ZH","Schweiz","CH"
8404,"Winterthur","Zürich","ZH","Schweiz","CH"
8405,"Winterthur","Zürich","ZH","Schweiz","CH"
8406,"Winterthur","Zürich","ZH","Schweiz","CH"
8408,"Winterthur","Zürich","ZH","Schweiz","CH"
8409,"Winterthur","Zürich","ZH","Schweiz","CH"
8412,"Aesch (Neftenbach)","Zürich","ZH","Schweiz","CH"
8412,"Riet (Neftenbach)","Zürich","ZH","Schweiz","CH"
8412,"Hünikon (Neftenbach)","Zürich","ZH","Schweiz","CH"
8413,"Neftenbach","Zürich","ZH","Schweiz","CH"
8414,"Buch am Irchel","Zürich","ZH","Schweiz","CH"
8415,"Berg am Irchel","Zürich","ZH","Schweiz","CH"
8415,"Gräslikon","Zürich","ZH","Schweiz","CH"
8416,"Flaach","Zürich","ZH","Schweiz","CH"
8418,"Schlatt b. Winterthur","Zürich","ZH","Schweiz","CH"
8421,"Dättlikon","Zürich","ZH","Schweiz","CH"
8422,"Pfungen","Zürich","ZH","Schweiz","CH"
8424,"Embrach","Zürich","ZH","Schweiz","CH"
8425,"Oberembrach","Zürich","ZH","Schweiz","CH"
8426,"Lufingen","Zürich","ZH","Schweiz","CH"
8427,"Freienstein","Zürich","ZH","Schweiz","CH"
8427,"Rorbas","Zürich","ZH","Schweiz","CH"
8428,"Teufen ZH","Zürich","ZH","Schweiz","CH"
8442,"Hettlingen","Zürich","ZH","Schweiz","CH"
8444,"Henggart","Zürich","ZH","Schweiz","CH"
8447,"Dachsen","Zürich","ZH","Schweiz","CH"
8450,"Andelfingen","Zürich","ZH","Schweiz","CH"
8451,"Kleinandelfingen","Zürich","ZH","Schweiz","CH"
8452,"Adlikon b. Andelfingen","Zürich","ZH","Schweiz","CH"
8453,"Alten","Zürich","ZH","Schweiz","CH"
8454,"Buchberg","Schaffhausen","SH","Schweiz","CH"
8455,"Rüdlingen","Schaffhausen","SH","Schweiz","CH"
8457,"Humlikon","Zürich","ZH","Schweiz","CH"
8458,"Dorf","Zürich","ZH","Schweiz","CH"
8459,"Volken","Zürich","ZH","Schweiz","CH"
8460,"Marthalen","Zürich","ZH","Schweiz","CH"
8461,"Oerlingen","Zürich","ZH","Schweiz","CH"
8462,"Rheinau","Zürich","ZH","Schweiz","CH"
8463,"Benken ZH","Zürich","ZH","Schweiz","CH"
8464,"Ellikon am Rhein","Zürich","ZH","Schweiz","CH"
8465,"Rudolfingen","Zürich","ZH","Schweiz","CH"
8465,"Wildensbuch","Zürich","ZH","Schweiz","CH"
8466,"Trüllikon","Zürich","ZH","Schweiz","CH"
8467,"Truttikon","Zürich","ZH","Schweiz","CH"
8468,"Waltalingen","Zürich","ZH","Schweiz","CH"
8468,"Guntalingen","Zürich","ZH","Schweiz","CH"
8471,"Rutschwil (Dägerlen)","Zürich","ZH","Schweiz","CH"
8471,"Dägerlen","Zürich","ZH","Schweiz","CH"
8471,"Oberwil (Dägerlen)","Zürich","ZH","Schweiz","CH"
8471,"Berg (Dägerlen)","Zürich","ZH","Schweiz","CH"
8471,"Bänk (Dägerlen)","Zürich","ZH","Schweiz","CH"
8472,"Seuzach","Zürich","ZH","Schweiz","CH"
8474,"Dinhard","Zürich","ZH","Schweiz","CH"
8475,"Ossingen","Zürich","ZH","Schweiz","CH"
8476,"Unterstammheim","Zürich","ZH","Schweiz","CH"
8477,"Oberstammheim","Zürich","ZH","Schweiz","CH"
8478,"Thalheim an der Thur","Zürich","ZH","Schweiz","CH"
8479,"Altikon","Zürich","ZH","Schweiz","CH"
8482,"Sennhof (Winterthur)","Zürich","ZH","Schweiz","CH"
8483,"Kollbrunn","Zürich","ZH","Schweiz","CH"
8484,"Neschwil","Zürich","ZH","Schweiz","CH"
8484,"Theilingen","Zürich","ZH","Schweiz","CH"
8484,"Weisslingen","Zürich","ZH","Schweiz","CH"
8486,"Rikon im Tösstal","Zürich","ZH","Schweiz","CH"
8487,"Rämismühle","Zürich","ZH","Schweiz","CH"
8487,"Zell ZH","Zürich","ZH","Schweiz","CH"
8488,"Turbenthal","Zürich","ZH","Schweiz","CH"
8489,"Wildberg","Zürich","ZH","Schweiz","CH"
8492,"Wila","Zürich","ZH","Schweiz","CH"
8493,"Saland","Zürich","ZH","Schweiz","CH"
8494,"Bauma","Zürich","ZH","Schweiz","CH"
8495,"Schmidrüti","Zürich","ZH","Schweiz","CH"
8496,"Steg im Tösstal","Zürich","ZH","Schweiz","CH"
8497,"Fischenthal","Zürich","ZH","Schweiz","CH"
8498,"Gibswil-Ried","Zürich","ZH","Schweiz","CH"
8499,"Sternenberg","Zürich","ZH","Schweiz","CH"
8500,"Frauenfeld","Thurgau","TG","Schweiz","CH"
8500,"Gerlikon","Thurgau","TG","Schweiz","CH"
8505,"Dettighofen","Thurgau","TG","Schweiz","CH"
8505,"Pfyn","Thurgau","TG","Schweiz","CH"
8506,"Lanzenneunforn","Thurgau","TG","Schweiz","CH"
8507,"Hörhausen","Thurgau","TG","Schweiz","CH"
8508,"Homburg","Thurgau","TG","Schweiz","CH"
8512,"Lustdorf","Thurgau","TG","Schweiz","CH"
8512,"Wetzikon TG","Thurgau","TG","Schweiz","CH"
8512,"Thundorf","Thurgau","TG","Schweiz","CH"
8514,"Amlikon-Bissegg","Thurgau","TG","Schweiz","CH"
8522,"Häuslenen","Thurgau","TG","Schweiz","CH"
8522,"Aawangen","Thurgau","TG","Schweiz","CH"
8523,"Hagenbuch ZH","Zürich","ZH","Schweiz","CH"
8524,"Buch b. Frauenfeld","Thurgau","TG","Schweiz","CH"
8524,"Uesslingen","Thurgau","TG","Schweiz","CH"
8525,"Niederneunforn","Thurgau","TG","Schweiz","CH"
8525,"Wilen b. Neunforn","Thurgau","TG","Schweiz","CH"
8526,"Oberneunforn","Thurgau","TG","Schweiz","CH"
8532,"Weiningen TG","Thurgau","TG","Schweiz","CH"
8532,"Warth","Thurgau","TG","Schweiz","CH"
8535,"Herdern","Thurgau","TG","Schweiz","CH"
8536,"Hüttwilen","Thurgau","TG","Schweiz","CH"
8537,"Nussbaumen TG","Thurgau","TG","Schweiz","CH"
8537,"Uerschhausen","Thurgau","TG","Schweiz","CH"
8542,"Wiesendangen","Zürich","ZH","Schweiz","CH"
8543,"Bertschikon","Zürich","ZH","Schweiz","CH"
8543,"Gundetswil","Zürich","ZH","Schweiz","CH"
8543,"Kefikon ZH","Zürich","ZH","Schweiz","CH"
8544,"Attikon","Zürich","ZH","Schweiz","CH"
8545,"Rickenbach ZH","Zürich","ZH","Schweiz","CH"
8545,"Rickenbach Sulz","Zürich","ZH","Schweiz","CH"
8546,"Kefikon TG","Thurgau","TG","Schweiz","CH"
8546,"Islikon","Thurgau","TG","Schweiz","CH"
8546,"Menzengrüt","Zürich","ZH","Schweiz","CH"
8547,"Gachnang","Thurgau","TG","Schweiz","CH"
8548,"Ellikon an der Thur","Zürich","ZH","Schweiz","CH"
8552,"Felben-Wellhausen","Thurgau","TG","Schweiz","CH"
8553,"Eschikofen","Thurgau","TG","Schweiz","CH"
8553,"Harenwilen","Thurgau","TG","Schweiz","CH"
8553,"Mettendorf TG","Thurgau","TG","Schweiz","CH"
8553,"Hüttlingen","Thurgau","TG","Schweiz","CH"
8554,"Müllheim-Wigoltingen","Thurgau","TG","Schweiz","CH"
8554,"Bonau","Thurgau","TG","Schweiz","CH"
8555,"Müllheim Dorf","Thurgau","TG","Schweiz","CH"
8556,"Engwang","Thurgau","TG","Schweiz","CH"
8556,"Illhart","Thurgau","TG","Schweiz","CH"
8556,"Lamperswil TG","Thurgau","TG","Schweiz","CH"
8556,"Wigoltingen","Thurgau","TG","Schweiz","CH"
8558,"Raperswilen","Thurgau","TG","Schweiz","CH"
8560,"Märstetten","Thurgau","TG","Schweiz","CH"
8561,"Ottoberg","Thurgau","TG","Schweiz","CH"
8564,"Lipperswil","Thurgau","TG","Schweiz","CH"
8564,"Engwilen","Thurgau","TG","Schweiz","CH"
8564,"Wäldi","Thurgau","TG","Schweiz","CH"
8564,"Sonterswil","Thurgau","TG","Schweiz","CH"
8564,"Wagerswil","Thurgau","TG","Schweiz","CH"
8564,"Hattenhausen","Thurgau","TG","Schweiz","CH"
8564,"Gunterswilen","Thurgau","TG","Schweiz","CH"
8564,"Hefenhausen","Thurgau","TG","Schweiz","CH"
8565,"Hugelshofen","Thurgau","TG","Schweiz","CH"
8566,"Dotnacht","Thurgau","TG","Schweiz","CH"
8566,"Neuwilen","Thurgau","TG","Schweiz","CH"
8566,"Ellighausen","Thurgau","TG","Schweiz","CH"
8566,"Lippoldswilen","Thurgau","TG","Schweiz","CH"
8570,"Weinfelden","Thurgau","TG","Schweiz","CH"
8572,"Andhausen","Thurgau","TG","Schweiz","CH"
8572,"Graltshausen","Thurgau","TG","Schweiz","CH"
8572,"Guntershausen b. Berg","Thurgau","TG","Schweiz","CH"
8572,"Berg TG","Thurgau","TG","Schweiz","CH"
8573,"Alterswilen","Thurgau","TG","Schweiz","CH"
8573,"Altishausen","Thurgau","TG","Schweiz","CH"
8573,"Siegershausen","Thurgau","TG","Schweiz","CH"
8574,"Illighausen","Thurgau","TG","Schweiz","CH"
8574,"Lengwil-Oberhofen","Thurgau","TG","Schweiz","CH"
8575,"Istighofen","Thurgau","TG","Schweiz","CH"
8575,"Bürglen TG","Thurgau","TG","Schweiz","CH"
8576,"Mauren TG","Thurgau","TG","Schweiz","CH"
8577,"Toos","Thurgau","TG","Schweiz","CH"
8577,"Schönholzerswilen","Thurgau","TG","Schweiz","CH"
8580,"Sommeri","Thurgau","TG","Schweiz","CH"
8580,"Hagenwil b. Amriswil","Thurgau","TG","Schweiz","CH"
8580,"Hefenhofen","Thurgau","TG","Schweiz","CH"
8580,"Amriswil","Thurgau","TG","Schweiz","CH"
8581,"Schocherswil","Thurgau","TG","Schweiz","CH"
8582,"Dozwil","Thurgau","TG","Schweiz","CH"
8583,"Götighofen","Thurgau","TG","Schweiz","CH"
8583,"Donzhausen","Thurgau","TG","Schweiz","CH"
8583,"Sulgen","Thurgau","TG","Schweiz","CH"
8584,"Leimbach TG","Thurgau","TG","Schweiz","CH"
8584,"Opfershofen TG","Thurgau","TG","Schweiz","CH"
8585,"Happerswil","Thurgau","TG","Schweiz","CH"
8585,"Eggethof","Thurgau","TG","Schweiz","CH"
8585,"Zuben","Thurgau","TG","Schweiz","CH"
8585,"Schönenbaumgarten","Thurgau","TG","Schweiz","CH"
8585,"Herrenhof","Thurgau","TG","Schweiz","CH"
8585,"Birwinken","Thurgau","TG","Schweiz","CH"
8585,"Klarsreuti","Thurgau","TG","Schweiz","CH"
8585,"Mattwil","Thurgau","TG","Schweiz","CH"
8585,"Langrickenbach","Thurgau","TG","Schweiz","CH"
8586,"Andwil TG","Thurgau","TG","Schweiz","CH"
8586,"Kümmertshausen","Thurgau","TG","Schweiz","CH"
8586,"Riedt b. Erlen","Thurgau","TG","Schweiz","CH"
8586,"Buchackern","Thurgau","TG","Schweiz","CH"
8586,"Engishofen","Thurgau","TG","Schweiz","CH"
8586,"Ennetaach","Thurgau","TG","Schweiz","CH"
8586,"Buch b. Kümmertshausen","Thurgau","TG","Schweiz","CH"
8586,"Erlen","Thurgau","TG","Schweiz","CH"
8587,"Oberaach","Thurgau","TG","Schweiz","CH"
8588,"Zihlschlacht","Thurgau","TG","Schweiz","CH"
8589,"Sitterdorf","Thurgau","TG","Schweiz","CH"
8590,"Romanshorn","Thurgau","TG","Schweiz","CH"
8592,"Uttwil","Thurgau","TG","Schweiz","CH"
8593,"Kesswil","Thurgau","TG","Schweiz","CH"
8594,"Güttingen","Thurgau","TG","Schweiz","CH"
8595,"Altnau","Thurgau","TG","Schweiz","CH"
8596,"Münsterlingen","Thurgau","TG","Schweiz","CH"
8596,"Scherzingen","Thurgau","TG","Schweiz","CH"
8597,"Landschlacht","Thurgau","TG","Schweiz","CH"
8598,"Bottighofen","Thurgau","TG","Schweiz","CH"
8599,"Salmsach","Thurgau","TG","Schweiz","CH"
8600,"Dübendorf","Zürich","ZH","Schweiz","CH"
8602,"Wangen b. Dübendorf","Zürich","ZH","Schweiz","CH"
8603,"Schwerzenbach","Zürich","ZH","Schweiz","CH"
8604,"Volketswil","Zürich","ZH","Schweiz","CH"
8605,"Gutenswil","Zürich","ZH","Schweiz","CH"
8606,"Nänikon","Zürich","ZH","Schweiz","CH"
8606,"Greifensee","Zürich","ZH","Schweiz","CH"
8607,"Aathal-Seegräben","Zürich","ZH","Schweiz","CH"
8608,"Bubikon","Zürich","ZH","Schweiz","CH"
8610,"Uster","Zürich","ZH","Schweiz","CH"
8614,"Sulzbach","Zürich","ZH","Schweiz","CH"
8614,"Bertschikon (Gossau ZH)","Zürich","ZH","Schweiz","CH"
8615,"Wermatswil","Zürich","ZH","Schweiz","CH"
8615,"Freudwil","Zürich","ZH","Schweiz","CH"
8616,"Riedikon","Zürich","ZH","Schweiz","CH"
8617,"Mönchaltorf","Zürich","ZH","Schweiz","CH"
8618,"Oetwil am See","Zürich","ZH","Schweiz","CH"
8620,"Wetzikon ZH","Zürich","ZH","Schweiz","CH"
8623,"Wetzikon ZH","Zürich","ZH","Schweiz","CH"
8624,"Grüt (Gossau ZH)","Zürich","ZH","Schweiz","CH"
8625,"Gossau ZH","Zürich","ZH","Schweiz","CH"
8626,"Ottikon (Gossau ZH)","Zürich","ZH","Schweiz","CH"
8627,"Grüningen","Zürich","ZH","Schweiz","CH"
8630,"Rüti ZH","Zürich","ZH","Schweiz","CH"
8632,"Tann","Zürich","ZH","Schweiz","CH"
8633,"Wolfhausen","Zürich","ZH","Schweiz","CH"
8634,"Hombrechtikon","Zürich","ZH","Schweiz","CH"
8635,"Dürnten","Zürich","ZH","Schweiz","CH"
8636,"Wald ZH","Zürich","ZH","Schweiz","CH"
8637,"Laupen ZH","Zürich","ZH","Schweiz","CH"
8638,"Goldingen","St. Gallen","SG","Schweiz","CH"
8639,"Faltigberg","Zürich","ZH","Schweiz","CH"
8640,"Rapperswil SG","St. Gallen","SG","Schweiz","CH"
8640,"Hurden","Schwyz","SZ","Schweiz","CH"
8645,"Jona","St. Gallen","SG","Schweiz","CH"
8646,"Wagen","St. Gallen","SG","Schweiz","CH"
8700,"Küsnacht ZH","Zürich","ZH","Schweiz","CH"
8702,"Zollikon","Zürich","ZH","Schweiz","CH"
8703,"Erlenbach ZH","Zürich","ZH","Schweiz","CH"
8704,"Herrliberg","Zürich","ZH","Schweiz","CH"
8706,"Meilen","Zürich","ZH","Schweiz","CH"
8707,"Uetikon am See","Zürich","ZH","Schweiz","CH"
8708,"Männedorf","Zürich","ZH","Schweiz","CH"
8712,"Stäfa","Zürich","ZH","Schweiz","CH"
8713,"Uerikon","Zürich","ZH","Schweiz","CH"
8714,"Feldbach","Zürich","ZH","Schweiz","CH"
8715,"Bollingen","St. Gallen","SG","Schweiz","CH"
8716,"Schmerikon","St. Gallen","SG","Schweiz","CH"
8717,"Benken SG","St. Gallen","SG","Schweiz","CH"
8718,"Schänis","St. Gallen","SG","Schweiz","CH"
8722,"Kaltbrunn","St. Gallen","SG","Schweiz","CH"
8723,"Rufi","St. Gallen","SG","Schweiz","CH"
8725,"Gebertingen","St. Gallen","SG","Schweiz","CH"
8725,"Ernetschwil","St. Gallen","SG","Schweiz","CH"
8726,"Ricken SG","St. Gallen","SG","Schweiz","CH"
8727,"Walde SG","St. Gallen","SG","Schweiz","CH"
8730,"Uznach","St. Gallen","SG","Schweiz","CH"
8732,"Neuhaus SG","St. Gallen","SG","Schweiz","CH"
8733,"Eschenbach SG","St. Gallen","SG","Schweiz","CH"
8734,"Ermenswil","St. Gallen","SG","Schweiz","CH"
8735,"Rüeterswil","St. Gallen","SG","Schweiz","CH"
8735,"St. Gallenkappel","St. Gallen","SG","Schweiz","CH"
8737,"Gommiswald","St. Gallen","SG","Schweiz","CH"
8738,"Uetliburg SG","St. Gallen","SG","Schweiz","CH"
8739,"Rieden SG","St. Gallen","SG","Schweiz","CH"
8750,"Klöntal","Glarus","GL","Schweiz","CH"
8750,"Glarus","Glarus","GL","Schweiz","CH"
8750,"Riedern","Glarus","GL","Schweiz","CH"
8751,"Urnerboden","Uri","UR","Schweiz","CH"
8752,"Näfels","Glarus","GL","Schweiz","CH"
8753,"Mollis","Glarus","GL","Schweiz","CH"
8754,"Netstal","Glarus","GL","Schweiz","CH"
8755,"Ennenda","Glarus","GL","Schweiz","CH"
8756,"Mitlödi","Glarus","GL","Schweiz","CH"
8757,"Filzbach","Glarus","GL","Schweiz","CH"
8758,"Obstalden","Glarus","GL","Schweiz","CH"
8762,"Schwändi b. Schwanden","Glarus","GL","Schweiz","CH"
8762,"Sool","Glarus","GL","Schweiz","CH"
8762,"Schwanden GL","Glarus","GL","Schweiz","CH"
8765,"Engi","Glarus","GL","Schweiz","CH"
8766,"Matt","Glarus","GL","Schweiz","CH"
8767,"Elm","Glarus","GL","Schweiz","CH"
8772,"Nidfurn","Glarus","GL","Schweiz","CH"
8773,"Haslen GL","Glarus","GL","Schweiz","CH"
8774,"Leuggelbach","Glarus","GL","Schweiz","CH"
8775,"Luchsingen","Glarus","GL","Schweiz","CH"
8775,"Hätzingen","Glarus","GL","Schweiz","CH"
8777,"Diesbach GL","Glarus","GL","Schweiz","CH"
8777,"Betschwanden","Glarus","GL","Schweiz","CH"
8782,"Rüti GL","Glarus","GL","Schweiz","CH"
8783,"Linthal","Glarus","GL","Schweiz","CH"
8784,"Braunwald","Glarus","GL","Schweiz","CH"
8800,"Thalwil","Zürich","ZH","Schweiz","CH"
8802,"Kilchberg ZH","Zürich","ZH","Schweiz","CH"
8803,"Rüschlikon","Zürich","ZH","Schweiz","CH"
8804,"Au ZH","Zürich","ZH","Schweiz","CH"
8805,"Richterswil","Zürich","ZH","Schweiz","CH"
8806,"Bäch SZ","Schwyz","SZ","Schweiz","CH"
8807,"Freienbach","Schwyz","SZ","Schweiz","CH"
8808,"Pfäffikon SZ","Schwyz","SZ","Schweiz","CH"
8810,"Horgen","Zürich","ZH","Schweiz","CH"
8815,"Horgenberg","Zürich","ZH","Schweiz","CH"
8816,"Hirzel","Zürich","ZH","Schweiz","CH"
8820,"Wädenswil","Zürich","ZH","Schweiz","CH"
8824,"Schönenberg ZH","Zürich","ZH","Schweiz","CH"
8825,"Hütten","Zürich","ZH","Schweiz","CH"
8832,"Wilen b. Wollerau","Schwyz","SZ","Schweiz","CH"
8832,"Wollerau","Schwyz","SZ","Schweiz","CH"
8833,"Samstagern","Zürich","ZH","Schweiz","CH"
8834,"Schindellegi","Schwyz","SZ","Schweiz","CH"
8835,"Feusisberg","Schwyz","SZ","Schweiz","CH"
8836,"Bennau","Schwyz","SZ","Schweiz","CH"
8840,"Trachslau","Schwyz","SZ","Schweiz","CH"
8840,"Einsiedeln","Schwyz","SZ","Schweiz","CH"
8841,"Gross","Schwyz","SZ","Schweiz","CH"
8842,"Unteriberg","Schwyz","SZ","Schweiz","CH"
8843,"Oberiberg","Schwyz","SZ","Schweiz","CH"
8844,"Euthal","Schwyz","SZ","Schweiz","CH"
8845,"Studen SZ","Schwyz","SZ","Schweiz","CH"
8846,"Willerzell","Schwyz","SZ","Schweiz","CH"
8847,"Egg SZ","Schwyz","SZ","Schweiz","CH"
8849,"Alpthal","Schwyz","SZ","Schweiz","CH"
8852,"Altendorf","Schwyz","SZ","Schweiz","CH"
8853,"Lachen SZ","Schwyz","SZ","Schweiz","CH"
8854,"Siebnen","Schwyz","SZ","Schweiz","CH"
8854,"Galgenen","Schwyz","SZ","Schweiz","CH"
8855,"Wangen SZ","Schwyz","SZ","Schweiz","CH"
8856,"Tuggen","Schwyz","SZ","Schweiz","CH"
8857,"Vorderthal","Schwyz","SZ","Schweiz","CH"
8858,"Innerthal","Schwyz","SZ","Schweiz","CH"
8862,"Schübelbach","Schwyz","SZ","Schweiz","CH"
8863,"Buttikon SZ","Schwyz","SZ","Schweiz","CH"
8864,"Reichenburg","Schwyz","SZ","Schweiz","CH"
8865,"Bilten","Glarus","GL","Schweiz","CH"
8866,"Ziegelbrücke","Glarus","GL","Schweiz","CH"
8867,"Niederurnen","Glarus","GL","Schweiz","CH"
8868,"Oberurnen","Glarus","GL","Schweiz","CH"
8872,"Weesen","St. Gallen","SG","Schweiz","CH"
8873,"Amden","St. Gallen","SG","Schweiz","CH"
8874,"Mühlehorn","Glarus","GL","Schweiz","CH"
8877,"Murg","St. Gallen","SG","Schweiz","CH"
8878,"Quinten","St. Gallen","SG","Schweiz","CH"
8880,"Walenstadt","St. Gallen","SG","Schweiz","CH"
8881,"Knoblisbühl","St. Gallen","SG","Schweiz","CH"
8881,"Tscherlach","St. Gallen","SG","Schweiz","CH"
8881,"Walenstadtberg","St. Gallen","SG","Schweiz","CH"
8882,"Unterterzen","St. Gallen","SG","Schweiz","CH"
8883,"Quarten","St. Gallen","SG","Schweiz","CH"
8884,"Oberterzen","St. Gallen","SG","Schweiz","CH"
8885,"Mols","St. Gallen","SG","Schweiz","CH"
8886,"Mädris-Vermol","St. Gallen","SG","Schweiz","CH"
8887,"Mels","St. Gallen","SG","Schweiz","CH"
8888,"Heiligkreuz (Mels)","St. Gallen","SG","Schweiz","CH"
8889,"Plons","St. Gallen","SG","Schweiz","CH"
8890,"Flums","St. Gallen","SG","Schweiz","CH"
8892,"Berschis","St. Gallen","SG","Schweiz","CH"
8893,"Flums Hochwiese","St. Gallen","SG","Schweiz","CH"
8894,"Flumserberg Saxli","St. Gallen","SG","Schweiz","CH"
8895,"Flumserberg Portels","St. Gallen","SG","Schweiz","CH"
8896,"Flumserberg Bergheim","St. Gallen","SG","Schweiz","CH"
8897,"Flumserberg Tannenheim","St. Gallen","SG","Schweiz","CH"
8898,"Flumserberg Tannenbodenalp","St. Gallen","SG","Schweiz","CH"
8902,"Urdorf","Zürich","ZH","Schweiz","CH"
8903,"Birmensdorf ZH","Zürich","ZH","Schweiz","CH"
8904,"Aesch ZH","Zürich","ZH","Schweiz","CH"
8905,"Islisberg","Aargau","AG","Schweiz","CH"
8905,"Arni AG","Aargau","AG","Schweiz","CH"
8906,"Bonstetten","Zürich","ZH","Schweiz","CH"
8907,"Wettswil","Zürich","ZH","Schweiz","CH"
8908,"Hedingen","Zürich","ZH","Schweiz","CH"
8909,"Zwillikon","Zürich","ZH","Schweiz","CH"
8910,"Affoltern am Albis","Zürich","ZH","Schweiz","CH"
8911,"Rifferswil","Zürich","ZH","Schweiz","CH"
8912,"Obfelden","Zürich","ZH","Schweiz","CH"
8913,"Ottenbach","Zürich","ZH","Schweiz","CH"
8914,"Aeugstertal","Zürich","ZH","Schweiz","CH"
8914,"Aeugst am Albis","Zürich","ZH","Schweiz","CH"
8915,"Hausen am Albis","Zürich","ZH","Schweiz","CH"
8916,"Jonen","Aargau","AG","Schweiz","CH"
8917,"Oberlunkhofen","Aargau","AG","Schweiz","CH"
8918,"Unterlunkhofen","Aargau","AG","Schweiz","CH"
8919,"Rottenschwil","Aargau","AG","Schweiz","CH"
8925,"Ebertswil","Zürich","ZH","Schweiz","CH"
8926,"Hauptikon","Zürich","ZH","Schweiz","CH"
8926,"Uerzlikon","Zürich","ZH","Schweiz","CH"
8926,"Kappel am Albis","Zürich","ZH","Schweiz","CH"
8932,"Mettmenstetten","Zürich","ZH","Schweiz","CH"
8933,"Maschwanden","Zürich","ZH","Schweiz","CH"
8934,"Knonau","Zürich","ZH","Schweiz","CH"
8942,"Oberrieden","Zürich","ZH","Schweiz","CH"
8951,"Fahrweid","Zürich","ZH","Schweiz","CH"
8952,"Schlieren","Zürich","ZH","Schweiz","CH"
8953,"Dietikon","Zürich","ZH","Schweiz","CH"
8954,"Geroldswil","Zürich","ZH","Schweiz","CH"
8955,"Oetwil an der Limmat","Zürich","ZH","Schweiz","CH"
8956,"Killwangen","Aargau","AG","Schweiz","CH"
8957,"Spreitenbach","Aargau","AG","Schweiz","CH"
8962,"Bergdietikon","Aargau","AG","Schweiz","CH"
8964,"Rudolfstetten","Aargau","AG","Schweiz","CH"
8965,"Berikon","Aargau","AG","Schweiz","CH"
8966,"Oberwil-Lieli","Aargau","AG","Schweiz","CH"
8967,"Widen","Aargau","AG","Schweiz","CH"
9000,"St. Gallen","St. Gallen","SG","Schweiz","CH"
9007,"St. Gallen","St. Gallen","SG","Schweiz","CH"
9008,"St. Gallen","St. Gallen","SG","Schweiz","CH"
9010,"St. Gallen","St. Gallen","SG","Schweiz","CH"
9011,"St. Gallen","St. Gallen","SG","Schweiz","CH"
9012,"St. Gallen","St. Gallen","SG","Schweiz","CH"
9014,"St. Gallen","St. Gallen","SG","Schweiz","CH"
9015,"St. Gallen","St. Gallen","SG","Schweiz","CH"
9016,"St. Gallen","St. Gallen","SG","Schweiz","CH"
9030,"Abtwil SG","St. Gallen","SG","Schweiz","CH"
9032,"Engelburg","St. Gallen","SG","Schweiz","CH"
9033,"Untereggen","St. Gallen","SG","Schweiz","CH"
9034,"Eggersriet","St. Gallen","SG","Schweiz","CH"
9035,"Grub AR","Appenzell Ausserrhoden","AR","Schweiz","CH"
9036,"Grub SG","St. Gallen","SG","Schweiz","CH"
9037,"Speicherschwendi","Appenzell Ausserrhoden","AR","Schweiz","CH"
9038,"Rehetobel","Appenzell Ausserrhoden","AR","Schweiz","CH"
9042,"Speicher","Appenzell Ausserrhoden","AR","Schweiz","CH"
9043,"Trogen","Appenzell Ausserrhoden","AR","Schweiz","CH"
9044,"Wald AR","Appenzell Ausserrhoden","AR","Schweiz","CH"
9050,"Appenzell Eggerstanden","Appenzell Innerrhoden","AI","Schweiz","CH"
9050,"Appenzell Enggenhütten","Appenzell Innerrhoden","AI","Schweiz","CH"
9050,"Appenzell Meistersrüte","Appenzell Innerrhoden","AI","Schweiz","CH"
9050,"Appenzell Steinegg","Appenzell Innerrhoden","AI","Schweiz","CH"
9050,"Appenzell Schlatt","Appenzell Innerrhoden","AI","Schweiz","CH"
9050,"Appenzell","Appenzell Innerrhoden","AI","Schweiz","CH"
9052,"Niederteufen","Appenzell Ausserrhoden","AR","Schweiz","CH"
9053,"Teufen AR","Appenzell Ausserrhoden","AR","Schweiz","CH"
9054,"Haslen AI","Appenzell Innerrhoden","AI","Schweiz","CH"
9055,"Bühler","Appenzell Ausserrhoden","AR","Schweiz","CH"
9056,"Gais","Appenzell Ausserrhoden","AR","Schweiz","CH"
9057,"Schwende","Appenzell Innerrhoden","AI","Schweiz","CH"
9057,"Wasserauen","Appenzell Innerrhoden","AI","Schweiz","CH"
9057,"Weissbad","Appenzell Innerrhoden","AI","Schweiz","CH"
9058,"Brülisau","Appenzell Innerrhoden","AI","Schweiz","CH"
9062,"Lustmühle","Appenzell Ausserrhoden","AR","Schweiz","CH"
9063,"Stein AR","Appenzell Ausserrhoden","AR","Schweiz","CH"
9064,"Hundwil","Appenzell Ausserrhoden","AR","Schweiz","CH"
9100,"Herisau","Appenzell Ausserrhoden","AR","Schweiz","CH"
9103,"Schwellbrunn","Appenzell Ausserrhoden","AR","Schweiz","CH"
9104,"Waldstatt","Appenzell Ausserrhoden","AR","Schweiz","CH"
9105,"Schönengrund","Appenzell Ausserrhoden","AR","Schweiz","CH"
9107,"Urnäsch","Appenzell Ausserrhoden","AR","Schweiz","CH"
9108,"Gontenbad","Appenzell Innerrhoden","AI","Schweiz","CH"
9108,"Jakobsbad","Appenzell Innerrhoden","AI","Schweiz","CH"
9108,"Gonten","Appenzell Innerrhoden","AI","Schweiz","CH"
9112,"Schachen b. Herisau","Appenzell Ausserrhoden","AR","Schweiz","CH"
9113,"Degersheim","St. Gallen","SG","Schweiz","CH"
9114,"Hoffeld","St. Gallen","SG","Schweiz","CH"
9115,"Dicken","St. Gallen","SG","Schweiz","CH"
9116,"Wolfertswil","St. Gallen","SG","Schweiz","CH"
9122,"Ebersol","St. Gallen","SG","Schweiz","CH"
9122,"Mogelsberg","St. Gallen","SG","Schweiz","CH"
9123,"Nassen","St. Gallen","SG","Schweiz","CH"
9125,"Brunnadern","St. Gallen","SG","Schweiz","CH"
9126,"Necker","St. Gallen","SG","Schweiz","CH"
9127,"St. Peterzell","St. Gallen","SG","Schweiz","CH"
9200,"Gossau SG","St. Gallen","SG","Schweiz","CH"
9203,"Niederwil SG","St. Gallen","SG","Schweiz","CH"
9204,"Andwil SG","St. Gallen","SG","Schweiz","CH"
9205,"Waldkirch","St. Gallen","SG","Schweiz","CH"
9212,"Arnegg","St. Gallen","SG","Schweiz","CH"
9213,"Hauptwil","Thurgau","TG","Schweiz","CH"
9214,"Kradolf","Thurgau","TG","Schweiz","CH"
9215,"Schönenberg an der Thur","Thurgau","TG","Schweiz","CH"
9215,"Buhwil","Thurgau","TG","Schweiz","CH"
9216,"Heldswil","Thurgau","TG","Schweiz","CH"
9216,"Hohentannen","Thurgau","TG","Schweiz","CH"
9217,"Neukirch an der Thur","Thurgau","TG","Schweiz","CH"
9220,"Bischofszell","Thurgau","TG","Schweiz","CH"
9223,"Schweizersholz","Thurgau","TG","Schweiz","CH"
9223,"Halden","Thurgau","TG","Schweiz","CH"
9225,"Wilen (Gottshaus)","Thurgau","TG","Schweiz","CH"
9225,"St. Pelagiberg","Thurgau","TG","Schweiz","CH"
9230,"Flawil","St. Gallen","SG","Schweiz","CH"
9231,"Egg (Flawil)","St. Gallen","SG","Schweiz","CH"
9240,"Niederglatt SG","St. Gallen","SG","Schweiz","CH"
9240,"Uzwil","St. Gallen","SG","Schweiz","CH"
9242,"Oberuzwil","St. Gallen","SG","Schweiz","CH"
9243,"Jonschwil","St. Gallen","SG","Schweiz","CH"
9244,"Niederuzwil","St. Gallen","SG","Schweiz","CH"
9245,"Sonnental","St. Gallen","SG","Schweiz","CH"
9245,"Oberbüren","St. Gallen","SG","Schweiz","CH"
9246,"Niederbüren","St. Gallen","SG","Schweiz","CH"
9247,"Henau","St. Gallen","SG","Schweiz","CH"
9248,"Bichwil","St. Gallen","SG","Schweiz","CH"
9249,"Oberstetten","St. Gallen","SG","Schweiz","CH"
9249,"Niederstetten","St. Gallen","SG","Schweiz","CH"
9249,"Algetshausen","St. Gallen","SG","Schweiz","CH"
9300,"Wittenbach","St. Gallen","SG","Schweiz","CH"
9304,"Bernhardzell","St. Gallen","SG","Schweiz","CH"
9305,"Berg SG","St. Gallen","SG","Schweiz","CH"
9306,"Freidorf TG","Thurgau","TG","Schweiz","CH"
9308,"Lömmenschwil","St. Gallen","SG","Schweiz","CH"
9312,"Häggenschwil","St. Gallen","SG","Schweiz","CH"
9313,"Muolen","St. Gallen","SG","Schweiz","CH"
9314,"Steinebrunn","Thurgau","TG","Schweiz","CH"
9315,"Winden","Thurgau","TG","Schweiz","CH"
9315,"Neukirch (Egnach)","Thurgau","TG","Schweiz","CH"
9320,"Frasnacht","Thurgau","TG","Schweiz","CH"
9320,"Stachen","Thurgau","TG","Schweiz","CH"
9320,"Arbon","Thurgau","TG","Schweiz","CH"
9322,"Egnach","Thurgau","TG","Schweiz","CH"
9323,"Steinach","St. Gallen","SG","Schweiz","CH"
9325,"Roggwil TG","Thurgau","TG","Schweiz","CH"
9326,"Horn","Thurgau","TG","Schweiz","CH"
9327,"Tübach","St. Gallen","SG","Schweiz","CH"
9400,"Rorschach","St. Gallen","SG","Schweiz","CH"
9402,"Mörschwil","St. Gallen","SG","Schweiz","CH"
9403,"Goldach","St. Gallen","SG","Schweiz","CH"
9404,"Rorschacherberg","St. Gallen","SG","Schweiz","CH"
9405,"Wienacht-Tobel","Appenzell Ausserrhoden","AR","Schweiz","CH"
9410,"Heiden","Appenzell Ausserrhoden","AR","Schweiz","CH"
9411,"Reute AR","Appenzell Ausserrhoden","AR","Schweiz","CH"
9413,"Oberegg","Appenzell Innerrhoden","AI","Schweiz","CH"
9414,"Schachen b. Reute","Appenzell Ausserrhoden","AR","Schweiz","CH"
9422,"Staad SG","St. Gallen","SG","Schweiz","CH"
9423,"Altenrhein","St. Gallen","SG","Schweiz","CH"
9424,"Rheineck","St. Gallen","SG","Schweiz","CH"
9425,"Thal","St. Gallen","SG","Schweiz","CH"
9426,"Lutzenberg","Appenzell Ausserrhoden","AR","Schweiz","CH"
9427,"Zelg (Wolfhalden)","Appenzell Ausserrhoden","AR","Schweiz","CH"
9427,"Wolfhalden","Appenzell Ausserrhoden","AR","Schweiz","CH"
9428,"Walzenhausen","Appenzell Ausserrhoden","AR","Schweiz","CH"
9430,"St. Margrethen SG","St. Gallen","SG","Schweiz","CH"
9434,"Au SG","St. Gallen","SG","Schweiz","CH"
9435,"Heerbrugg","St. Gallen","SG","Schweiz","CH"
9436,"Balgach","St. Gallen","SG","Schweiz","CH"
9437,"Marbach SG","St. Gallen","SG","Schweiz","CH"
9442,"Büriswilen","Appenzell Innerrhoden","AI","Schweiz","CH"
9442,"Berneck","St. Gallen","SG","Schweiz","CH"
9443,"Widnau","St. Gallen","SG","Schweiz","CH"
9444,"Diepoldsau","St. Gallen","SG","Schweiz","CH"
9445,"Rebstein","St. Gallen","SG","Schweiz","CH"
9450,"Lüchingen","St. Gallen","SG","Schweiz","CH"
9450,"Altstätten SG","St. Gallen","SG","Schweiz","CH"
9451,"Kriessern","St. Gallen","SG","Schweiz","CH"
9452,"Hinterforst","St. Gallen","SG","Schweiz","CH"
9453,"Eichberg","St. Gallen","SG","Schweiz","CH"
9462,"Montlingen","St. Gallen","SG","Schweiz","CH"
9463,"Oberriet SG","St. Gallen","SG","Schweiz","CH"
9464,"Lienz","St. Gallen","SG","Schweiz","CH"
9464,"Rüthi (Rheintal)","St. Gallen","SG","Schweiz","CH"
9465,"Salez","St. Gallen","SG","Schweiz","CH"
9466,"Sennwald","St. Gallen","SG","Schweiz","CH"
9467,"Frümsen","St. Gallen","SG","Schweiz","CH"
9468,"Sax","St. Gallen","SG","Schweiz","CH"
9469,"Haag (Rheintal)","St. Gallen","SG","Schweiz","CH"
9470,"Buchs SG","St. Gallen","SG","Schweiz","CH"
9470,"Werdenberg","St. Gallen","SG","Schweiz","CH"
9472,"Grabserberg","St. Gallen","SG","Schweiz","CH"
9472,"Grabs","St. Gallen","SG","Schweiz","CH"
9473,"Gams","St. Gallen","SG","Schweiz","CH"
9475,"Sevelen","St. Gallen","SG","Schweiz","CH"
9476,"Fontnas","St. Gallen","SG","Schweiz","CH"
9476,"Weite","St. Gallen","SG","Schweiz","CH"
9477,"Trübbach","St. Gallen","SG","Schweiz","CH"
9478,"Azmoos","St. Gallen","SG","Schweiz","CH"
9479,"Gretschins","St. Gallen","SG","Schweiz","CH"
9479,"Malans SG","St. Gallen","SG","Schweiz","CH"
9479,"Oberschan","St. Gallen","SG","Schweiz","CH"
9485,"Nendeln","Fürstentum Liechtenstein","FL","Liechtenstein","CH"
9486,"Schaanwald","Fürstentum Liechtenstein","FL","Liechtenstein","CH"
9487,"Gamprin-Bendern","Fürstentum Liechtenstein","FL","Liechtenstein","CH"
9488,"Schellenberg","Fürstentum Liechtenstein","FL","Liechtenstein","CH"
9490,"Vaduz","Fürstentum Liechtenstein","FL","Liechtenstein","CH"
9491,"Ruggell","Fürstentum Liechtenstein","FL","Liechtenstein","CH"
9492,"Eschen","Fürstentum Liechtenstein","FL","Liechtenstein","CH"
9493,"Mauren FL","Fürstentum Liechtenstein","FL","Liechtenstein","CH"
9494,"Schaan","Fürstentum Liechtenstein","FL","Liechtenstein","CH"
9495,"Triesen","Fürstentum Liechtenstein","FL","Liechtenstein","CH"
9496,"Balzers","Fürstentum Liechtenstein","FL","Liechtenstein","CH"
9497,"Triesenberg","Fürstentum Liechtenstein","FL","Liechtenstein","CH"
9498,"Planken","Fürstentum Liechtenstein","FL","Liechtenstein","CH"
9500,"Wil SG","St. Gallen","SG","Schweiz","CH"
9502,"Braunau","Thurgau","TG","Schweiz","CH"
9503,"Stehrenberg","Thurgau","TG","Schweiz","CH"
9503,"Lanterswil","Thurgau","TG","Schweiz","CH"
9504,"Friltschen","Thurgau","TG","Schweiz","CH"
9506,"Lommis","Thurgau","TG","Schweiz","CH"
9507,"Stettfurt","Thurgau","TG","Schweiz","CH"
9508,"Weingarten-Kalthäusern","Thurgau","TG","Schweiz","CH"
9512,"Rossrüti","St. Gallen","SG","Schweiz","CH"
9514,"Wuppenau","Thurgau","TG","Schweiz","CH"
9515,"Hosenruck","Thurgau","TG","Schweiz","CH"
9517,"Mettlen","Thurgau","TG","Schweiz","CH"
9523,"Züberwangen","St. Gallen","SG","Schweiz","CH"
9524,"Zuzwil SG","St. Gallen","SG","Schweiz","CH"
9525,"Lenggenwil","St. Gallen","SG","Schweiz","CH"
9526,"Zuckenriet","St. Gallen","SG","Schweiz","CH"
9527,"Niederhelfenschwil","St. Gallen","SG","Schweiz","CH"
9532,"Rickenbach b. Wil","Thurgau","TG","Schweiz","CH"
9533,"Kirchberg SG","St. Gallen","SG","Schweiz","CH"
9534,"Gähwil","St. Gallen","SG","Schweiz","CH"
9535,"Wilen b. Wil","Thurgau","TG","Schweiz","CH"
9536,"Schwarzenbach SG","St. Gallen","SG","Schweiz","CH"
9542,"Münchwilen TG","Thurgau","TG","Schweiz","CH"
9543,"St. Margarethen TG","Thurgau","TG","Schweiz","CH"
9545,"Wängi","Thurgau","TG","Schweiz","CH"
9546,"Tuttwil","Thurgau","TG","Schweiz","CH"
9547,"Wittenwil","Thurgau","TG","Schweiz","CH"
9548,"Matzingen","Thurgau","TG","Schweiz","CH"
9552,"Bronschhofen","St. Gallen","SG","Schweiz","CH"
9553,"Bettwiesen","Thurgau","TG","Schweiz","CH"
9554,"Tägerschen","Thurgau","TG","Schweiz","CH"
9555,"Tobel","Thurgau","TG","Schweiz","CH"
9556,"Zezikon","Thurgau","TG","Schweiz","CH"
9556,"Affeltrangen","Thurgau","TG","Schweiz","CH"
9562,"Buch b. Märwil","Thurgau","TG","Schweiz","CH"
9562,"Märwil","Thurgau","TG","Schweiz","CH"
9565,"Rothenhausen","Thurgau","TG","Schweiz","CH"
9565,"Schmidshof","Thurgau","TG","Schweiz","CH"
9565,"Oppikon","Thurgau","TG","Schweiz","CH"
9565,"Oberbussnang","Thurgau","TG","Schweiz","CH"
9565,"Bussnang","Thurgau","TG","Schweiz","CH"
9573,"Littenheid","Thurgau","TG","Schweiz","CH"
9601,"Lütisburg Station","St. Gallen","SG","Schweiz","CH"
9602,"Müselbach","St. Gallen","SG","Schweiz","CH"
9602,"Bazenheid","St. Gallen","SG","Schweiz","CH"
9604,"Oberrindal","St. Gallen","SG","Schweiz","CH"
9604,"Unterrindal","St. Gallen","SG","Schweiz","CH"
9604,"Lütisburg","St. Gallen","SG","Schweiz","CH"
9606,"Bütschwil","St. Gallen","SG","Schweiz","CH"
9607,"Mosnang","St. Gallen","SG","Schweiz","CH"
9608,"Ganterschwil","St. Gallen","SG","Schweiz","CH"
9612,"Dreien","St. Gallen","SG","Schweiz","CH"
9613,"Mühlrüti","St. Gallen","SG","Schweiz","CH"
9614,"Libingen","St. Gallen","SG","Schweiz","CH"
9615,"Dietfurt","St. Gallen","SG","Schweiz","CH"
9620,"Lichtensteig","St. Gallen","SG","Schweiz","CH"
9621,"Oberhelfenschwil","St. Gallen","SG","Schweiz","CH"
9622,"Krinau","St. Gallen","SG","Schweiz","CH"
9630,"Wattwil","St. Gallen","SG","Schweiz","CH"
9631,"Ulisbach","St. Gallen","SG","Schweiz","CH"
9633,"Bächli (Hemberg)","St. Gallen","SG","Schweiz","CH"
9633,"Hemberg","St. Gallen","SG","Schweiz","CH"
9642,"Ebnat-Kappel","St. Gallen","SG","Schweiz","CH"
9643,"Krummenau","St. Gallen","SG","Schweiz","CH"
9650,"Nesslau","St. Gallen","SG","Schweiz","CH"
9651,"Ennetbühl","St. Gallen","SG","Schweiz","CH"
9652,"Neu St. Johann","St. Gallen","SG","Schweiz","CH"
9655,"Stein SG","St. Gallen","SG","Schweiz","CH"
9656,"Alt St. Johann","St. Gallen","SG","Schweiz","CH"
9657,"Unterwasser","St. Gallen","SG","Schweiz","CH"
9658,"Wildhaus","St. Gallen","SG","Schweiz","CH"
